# Made by eph2tle, compiled Jun 18 2026 13:42:33
# Run at Mon Jul  6 21:49:24 2026 UTC
#
#    The following TLEs (Two-Line Elements) were generated by fitting
# a numerically-integrated ephemeris,  based on the orbit given below,
# to the SDP4/SGP4 models.  Each TLE is good for the interval between
# its epoch and the epoch of the subsequent TLE (usually one day).
# The maximum deviation between the numerically integrated ephemerides
# and the TLE-based ephemeris, in kilometers,  is given for each TLE
# as the "worst residual".
#
#    This fitting is done using the 'eph2tle' code packaged with Find_Orb.
# The code has details on how the TLEs were computed :
#
#    https://github.com/Bill-Gray/find_orb/eph2tle.cpp
#
#    Be warned:  the error given is that between the numerically
# integrated ephems and the TLE model.  There will usually be at
# least some additional difference between the ephems and the actual
# motion of the satellite,  especially if the ephemerides are based
# on a short arc.  If the following orbital elements say something
# like "[based on] 10 observations 2015 Jan. 1-13",  and the TLEs
# are for 2015 May,  the extrapolation may be tenuous at best.  If
# your application requires a specific level of accuracy,  you may
# want to contact me;  I can give you some idea as to the fit of the
# underlying data (and possibly TLEs based on newer data).
#
#   You can usually find the underlying observational data,  and the
# fitted orbit,  residuals,  ephemerides,  and sometimes some comments
# about the object,  among the pages listed at
#
#    https://www.projectpluto.com/pluto/mpecs/pseudo.htm
#
#    Also,  if you use a TLE outside the "correct" time range (between
# its MJD and that of the next TLE),  all bets are off.  I've carefully
# computed and minimized the worst error over the "correct" time frame,
# but the ephemeris may (or may not) diverge wildly outside of it.
#
# Ephem range: 61213.000000 61406.000000 1.000000
# Created Mon Jul  6 17:49:21 2026
# Ephemeris start: 22 Jun 2026  0:00:00
# Ephemeris end:    1 Jan 2027  0:00:00
# Times are all TDT
# Positions/velocities are in equatorial J2000
# Orbital elements:  2026-109A = NORAD 69123 = SMILE
#    Perigee 2026 Jul 1.33272754 +/- 6.0175e-6 TT =  7:59:07.659 (JD 2461222.83272754)
# Epoch 2026 Jul  2.0 TT; AMR 0.018906 +/- 0.0035441 m^2/kg        Gray
# M 114.11434311360 +/- 0.001053
# n 171.01611505659 +/- 6.5435e-5     Peri.  287.26564259 +/- 0.0001835
# a 69381.7870878 +/- 0.017698        Node   206.63206423 +/- 0.0004798
# e   0.8326552508 +/- 1.307e-6       Incl.   69.82672292 +/- 0.0001529
# P3031.236m/2.105d          H 27.92  G  0.15   U  6.3
# q 11610.6777559 +/- 0.092574    Q 127152.896419 +/- 0.074631
# 40 of 44 observations 2026 June 23-July 2; mean residual 0".822/0.60 sigmas
#
# Elements after  4 Jul 2026 :
#
# Orbital elements:  2026-109A = NORAD 69123 = SMILE
#    Perigee 2026 Jul 9.75053146 +/- 3.0691e-5 TT = 18:00:45.918 (JD 2461231.25053146)
# Epoch 2026 Jul 10.0 TT; AMR 0.034819 +/- 0.0043524 m^2/kg        Gray
# M  42.66056655227 +/- 0.005206
# n 171.00579887132 +/- 0.00020285    Peri.  287.07846905 +/- 0.000834
# a 69384.5774344 +/- 0.05487         Node   206.56258637 +/- 0.0005888
# e   0.8311860478 +/- 6.3131e-6      Incl.   69.83763341 +/- 0.0001490
# P3031.419m/2.105d          H 28.01  G  0.15   U  7.0
# q 11713.0847364 +/- 0.44448    Q 127056.070132 +/- 0.37568
# 31 of 76 observations 2026 July 6-18; mean residual 1".711/2.10 sigmas
#
# 1 NoradU COSPAR   Epoch.epoch     dn/dt/2  d2n/dt2/6 BSTAR    T El# C
# 2 NoradU Inclina RAAscNode Eccent  ArgPeri MeanAno  MeanMotion Rev# C

# Worst residual: 5.66 km
# MJD 61213.000000 (2026 Jun 22  0:00)
2026-109A = NORAD 69123 = SMILE
1 69123U 26109A   26173.49919926  .00000000  00000-0  00000-0 0 31093
2 69123 070.0663 206.6955 8358759 287.4016 289.4260 00.47508249    01

# Worst residual: 3.14 km
# MJD 61214.000000 (2026 Jun 23  0:00)
2026-109A = NORAD 69123 = SMILE
1 69123U 26109A   26174.49919926  .00000000  00000-0  00000-0 0 31094
2 69123 070.0689 206.6807 8356227 287.3886 100.4734 00.47493237    05

# Worst residual: 6.90 km
# MJD 61215.000000 (2026 Jun 24  0:00)
2026-109A = NORAD 69123 = SMILE
1 69123U 26109A   26175.49919926  .00000000  00000-0  00000-0 0 31095
2 69123 070.0650 206.6896 8355634 287.3695 271.5061 00.47504842    08

# Worst residual: 5.39 km
# MJD 61216.000000 (2026 Jun 25  0:00)
2026-109A = NORAD 69123 = SMILE
1 69123U 26109A   26176.49919926  .00000000  00000-0  00000-0 0 31096
2 69123 070.0697 206.6759 8353425 287.3529 082.5499 00.47495432    08

# Worst residual: 5.36 km
# MJD 61217.000000 (2026 Jun 26  0:00)
2026-109A = NORAD 69123 = SMILE
1 69123U 26109A   26177.49919926  .00000000  00000-0  00000-0 0 31097
2 69123 070.0690 206.6741 8352038 287.3356 253.5921 00.47502262    09

# Worst residual: 5.21 km
# MJD 61218.000000 (2026 Jun 27  0:00)
2026-109A = NORAD 69123 = SMILE
1 69123U 26109A   26178.49919926  .00000000  00000-0  00000-0 0 31098
2 69123 070.0743 206.6626 8349793 287.3159 064.6390 00.47501908    02

# Worst residual: 3.67 km
# MJD 61219.000000 (2026 Jun 28  0:00)
2026-109A = NORAD 69123 = SMILE
1 69123U 26109A   26179.49919926  .00000000  00000-0  00000-0 0 31099
2 69123 070.0730 206.6586 8347779 287.3010 235.6751 00.47501975    06

# Worst residual: 7.35 km
# MJD 61220.000000 (2026 Jun 29  0:00)
2026-109A = NORAD 69123 = SMILE
1 69123U 26109A   26180.49919926  .00000000  00000-0  00000-0 0 31091
2 69123 070.0750 206.6508 8345242 287.2796 046.7241 00.47508900    05

# Worst residual: 3.14 km
# MJD 61221.000000 (2026 Jun 30  0:00)
2026-109A = NORAD 69123 = SMILE
1 69123U 26109A   26181.49919926  .00000000  00000-0  00000-0 0 31092
2 69123 070.0715 206.6538 8343217 287.2627 217.7559 00.47503068    04

# Worst residual: 9.47 km
# MJD 61222.000000 (2026 Jul  1  0:00)
2026-109A = NORAD 69123 = SMILE
1 69123U 26109A   26182.49919926  .00000000  00000-0  00000-0 0 31093
2 69123 070.0681 206.6541 8340542 287.2405 028.8042 00.47513282    09

# Worst residual: 2.30 km
# MJD 61223.000000 (2026 Jul  2  0:00)
2026-109A = NORAD 69123 = SMILE
1 69123U 26109A   26183.49919926  .00000000  00000-0  00000-0 0 31094
2 69123 070.0628 206.6621 8338892 287.2194 199.8389 00.47504279    08

# Worst residual: 10.08 km
# MJD 61224.000000 (2026 Jul  3  0:00)
2026-109A = NORAD 69123 = SMILE
1 69123U 26109A   26184.49919926  .00000000  00000-0  00000-0 0 31095
2 69123 070.0570 206.6701 8336590 287.1969 010.8908 00.47513168    01

# Worst residual: 2.75 km
# MJD 61225.000000 (2026 Jul  4  0:00)
2026-109A = NORAD 69123 = SMILE
1 69123U 26109A   26185.49919926  .00000000  00000-0  00000-0 0 31221
2 69123 070.0500 206.6798 8334919 287.1733 181.9554 00.47506098    03

# Worst residual: 10.20 km
# MJD 61226.000000 (2026 Jul  5  0:00)
2026-109A = NORAD 69123 = SMILE
1 69123U 26109A   26186.49919926  .00000000  00000-0  00000-0 0 31222
2 69123 070.0499 206.6814 8333001 287.1530 353.0199 00.47512722    03

# Worst residual: 3.33 km
# MJD 61227.000000 (2026 Jul  6  0:00)
2026-109A = NORAD 69123 = SMILE
1 69123U 26109A   26187.49919926  .00000000  00000-0  00000-0 0 31223
2 69123 070.0452 206.6852 8331424 287.1264 164.0848 00.47504601    03

# Worst residual: 9.39 km
# MJD 61228.000000 (2026 Jul  7  0:00)
2026-109A = NORAD 69123 = SMILE
1 69123U 26109A   26188.49919926  .00000000  00000-0  00000-0 0 31224
2 69123 070.0507 206.6763 8329033 287.1051 335.1497 00.47508611    08

# Worst residual: 3.26 km
# MJD 61229.000000 (2026 Jul  8  0:00)
2026-109A = NORAD 69123 = SMILE
1 69123U 26109A   26189.49919926  .00000000  00000-0  00000-0 0 31225
2 69123 070.0490 206.6756 8327081 287.0775 146.2235 00.47504384    08

# Worst residual: 8.74 km
# MJD 61230.000000 (2026 Jul  9  0:00)
2026-109A = NORAD 69123 = SMILE
1 69123U 26109A   26190.49919926  .00000000  00000-0  00000-0 0 31227
2 69123 070.0485 206.6749 8323919 287.0487 317.2947 00.47505627    01

# Worst residual: 3.13 km
# MJD 61231.000000 (2026 Jul 10  0:00)
2026-109A = NORAD 69123 = SMILE
1 69123U 26109A   26191.49919926  .00000000  00000-0  00000-0 0 31228
2 69123 070.0478 206.6673 8321801 287.0193 128.3668 00.47506344    09

# Worst residual: 8.44 km
# MJD 61232.000000 (2026 Jul 11  0:00)
2026-109A = NORAD 69123 = SMILE
1 69123U 26109A   26192.49919926  .00000000  00000-0  00000-0 0 31229
2 69123 070.0446 206.6674 8319331 286.9943 299.4537 00.47510817    06

# Worst residual: 2.76 km
# MJD 61233.000000 (2026 Jul 12  0:00)
2026-109A = NORAD 69123 = SMILE
1 69123U 26109A   26193.49919926  .00000000  00000-0  00000-0 0 31220
2 69123 070.0413 206.6525 8317350 286.9602 110.5314 00.47510495    04

# Worst residual: 8.73 km
# MJD 61234.000000 (2026 Jul 13  0:00)
2026-109A = NORAD 69123 = SMILE
1 69123U 26109A   26194.49919926  .00000000  00000-0  00000-0 0 31221
2 69123 070.0476 206.6240 8315531 286.9570 281.5911 00.47517346    04

# Worst residual: 9.62 km
# MJD 61235.000000 (2026 Jul 14  0:00)
2026-109A = NORAD 69123 = SMILE
1 69123U 26109A   26195.49919926  .00000000  00000-0  00000-0 0 31222
2 69123 070.0470 206.6011 8312953 286.9226 092.6878 00.47515780    00

# Worst residual: 7.51 km
# MJD 61236.000000 (2026 Jul 15  0:00)
2026-109A = NORAD 69123 = SMILE
1 69123U 26109A   26196.49919926  .00000000  00000-0  00000-0 0 31223
2 69123 070.0534 206.5676 8310334 286.9291 263.6945 00.47510999    02

# Worst residual: 9.69 km
# MJD 61237.000000 (2026 Jul 16  0:00)
2026-109A = NORAD 69123 = SMILE
1 69123U 26109A   26197.49919926  .00000000  00000-0  00000-0 0 31224
2 69123 070.0564 206.5443 8307338 286.9069 074.7738 00.47515559    08

# Worst residual: 6.02 km
# MJD 61238.000000 (2026 Jul 17  0:00)
2026-109A = NORAD 69123 = SMILE
1 69123U 26109A   26198.49919926  .00000000  00000-0  00000-0 0 31225
2 69123 070.0551 206.5347 8304602 286.9056 245.7680 00.47505020    02

# Worst residual: 8.32 km
# MJD 61239.000000 (2026 Jul 18  0:00)
2026-109A = NORAD 69123 = SMILE
1 69123U 26109A   26199.49919926  .00000000  00000-0  00000-0 0 31226
2 69123 070.0575 206.5227 8302039 286.8887 056.8230 00.47509720    01

# Worst residual: 4.52 km
# MJD 61240.000000 (2026 Jul 19  0:00)
2026-109A = NORAD 69123 = SMILE
1 69123U 26109A   26200.49919926  .00000000  00000-0  00000-0 0 31229
2 69123 070.0528 206.5248 8299675 286.8782 227.8432 00.47501574    00

# Worst residual: 6.07 km
# MJD 61241.000000 (2026 Jul 20  0:00)
2026-109A = NORAD 69123 = SMILE
1 69123U 26109A   26201.49919926  .00000000  00000-0  00000-0 0 31220
2 69123 070.0548 206.5185 8297896 286.8639 038.8869 00.47502718    01

# Worst residual: 3.00 km
# MJD 61242.000000 (2026 Jul 21  0:00)
2026-109A = NORAD 69123 = SMILE
1 69123U 26109A   26202.49919926  .00000000  00000-0  00000-0 0 31221
2 69123 070.0511 206.5204 8295758 286.8470 209.9324 00.47500243    09

# Worst residual: 7.35 km
# MJD 61243.000000 (2026 Jul 22  0:00)
2026-109A = NORAD 69123 = SMILE
1 69123U 26109A   26203.49919926  .00000000  00000-0  00000-0 0 31222
2 69123 070.0560 206.5111 8294309 286.8335 020.9764 00.47503133    01

# Worst residual: 1.86 km
# MJD 61244.000000 (2026 Jul 23  0:00)
2026-109A = NORAD 69123 = SMILE
1 69123U 26109A   26204.49919926  .00000000  00000-0  00000-0 0 31223
2 69123 070.0536 206.5090 8292085 286.8155 192.0279 00.47500226    01

# Worst residual: 8.28 km
# MJD 61245.000000 (2026 Jul 24  0:00)
2026-109A = NORAD 69123 = SMILE
1 69123U 26109A   26205.49919926  .00000000  00000-0  00000-0 0 31224
2 69123 070.0602 206.4955 8290332 286.8022 003.0701 00.47508092    00

# Worst residual: 1.01 km
# MJD 61246.000000 (2026 Jul 25  0:00)
2026-109A = NORAD 69123 = SMILE
1 69123U 26109A   26206.49919926  .00000000  00000-0  00000-0 0 31225
2 69123 070.0580 206.4930 8288150 286.7832 174.1225 00.47502062    03

# Worst residual: 8.62 km
# MJD 61247.000000 (2026 Jul 26  0:00)
2026-109A = NORAD 69123 = SMILE
1 69123U 26109A   26207.49919926  .00000000  00000-0  00000-0 0 31226
2 69123 070.0608 206.4848 8285805 286.7695 345.1578 00.47513125    06

# Worst residual: 1.73 km
# MJD 61248.000000 (2026 Jul 27  0:00)
2026-109A = NORAD 69123 = SMILE
1 69123U 26109A   26208.49919926  .00000000  00000-0  00000-0 0 31227
2 69123 070.0580 206.4833 8283842 286.7469 156.2159 00.47505125    04

# Worst residual: 7.90 km
# MJD 61249.000000 (2026 Jul 28  0:00)
2026-109A = NORAD 69123 = SMILE
1 69123U 26109A   26209.49919926  .00000000  00000-0  00000-0 0 31228
2 69123 070.0547 206.4885 8281339 286.7312 327.2493 00.47515325    04

# Worst residual: 3.41 km
# MJD 61250.000000 (2026 Jul 29  0:00)
2026-109A = NORAD 69123 = SMILE
1 69123U 26109A   26210.49919926  .00000000  00000-0  00000-0 0 31220
2 69123 070.0507 206.4857 8279575 286.7055 138.3150 00.47507263    05

# Worst residual: 8.13 km
# MJD 61251.000000 (2026 Jul 30  0:00)
2026-109A = NORAD 69123 = SMILE
1 69123U 26109A   26211.49919926  .00000000  00000-0  00000-0 0 31221
2 69123 070.0435 206.5035 8277457 286.6874 309.3541 00.47515783    09

# Worst residual: 3.73 km
# MJD 61252.000000 (2026 Jul 31  0:00)
2026-109A = NORAD 69123 = SMILE
1 69123U 26109A   26212.49919926  .00000000  00000-0  00000-0 0 31222
2 69123 070.0403 206.4954 8275696 286.6609 120.4257 00.47506446    04

# Worst residual: 6.80 km
# MJD 61253.000000 (2026 Aug  1  0:00)
2026-109A = NORAD 69123 = SMILE
1 69123U 26109A   26213.49919926  .00000000  00000-0  00000-0 0 31223
2 69123 070.0323 206.5190 8274040 286.6391 291.4733 00.47513971    07

# Worst residual: 2.65 km
# MJD 61254.000000 (2026 Aug  2  0:00)
2026-109A = NORAD 69123 = SMILE
1 69123U 26109A   26214.49919926  .00000000  00000-0  00000-0 0 31224
2 69123 070.0354 206.5016 8271919 286.6156 102.5439 00.47502352    05

# Worst residual: 5.56 km
# MJD 61255.000000 (2026 Aug  3  0:00)
2026-109A = NORAD 69123 = SMILE
1 69123U 26109A   26215.49919926  .00000000  00000-0  00000-0 0 31225
2 69123 070.0303 206.5192 8270404 286.5890 273.6139 00.47508840    01

# Worst residual: 4.02 km
# MJD 61256.000000 (2026 Aug  4  0:00)
2026-109A = NORAD 69123 = SMILE
1 69123U 26109A   26216.49919926  .00000000  00000-0  00000-0 0 31226
2 69123 070.0370 206.5004 8267584 286.5649 084.6696 00.47499387    07

# Worst residual: 4.48 km
# MJD 61257.000000 (2026 Aug  5  0:00)
2026-109A = NORAD 69123 = SMILE
1 69123U 26109A   26217.49919926  .00000000  00000-0  00000-0 0 31227
2 69123 070.0323 206.5140 8265771 286.5332 255.7676 00.47506654    06

# Worst residual: 6.25 km
# MJD 61258.000000 (2026 Aug  6  0:00)
2026-109A = NORAD 69123 = SMILE
1 69123U 26109A   26218.49919926  .00000000  00000-0  00000-0 0 31228
2 69123 070.0343 206.5046 8262411 286.5018 066.8180 00.47502251    02

# Worst residual: 2.92 km
# MJD 61259.000000 (2026 Aug  7  0:00)
2026-109A = NORAD 69123 = SMILE
1 69123U 26109A   26219.49919926  .00000000  00000-0  00000-0 0 31229
2 69123 070.0326 206.4999 8260829 286.4765 237.9208 00.47509350    07

# Worst residual: 7.63 km
# MJD 61260.000000 (2026 Aug  8  0:00)
2026-109A = NORAD 69123 = SMILE
1 69123U 26109A   26220.49919926  .00000000  00000-0  00000-0 0 31221
2 69123 070.0301 206.4967 8257461 286.4432 048.9862 00.47510174    06

# Worst residual: 2.53 km
# MJD 61261.000000 (2026 Aug  9  0:00)
2026-109A = NORAD 69123 = SMILE
1 69123U 26109A   26221.49919926  .00000000  00000-0  00000-0 0 31222
2 69123 070.0314 206.4669 8255983 286.4305 220.0580 00.47510249    08

# Worst residual: 10.51 km
# MJD 61262.000000 (2026 Aug 10  0:00)
2026-109A = NORAD 69123 = SMILE
1 69123U 26109A   26222.49919926  .00000000  00000-0  00000-0 0 31223
2 69123 070.0358 206.4538 8252691 286.4066 031.1300 00.47519879    07

# Worst residual: 2.13 km
# MJD 61263.000000 (2026 Aug 11  0:00)
2026-109A = NORAD 69123 = SMILE
1 69123U 26109A   26223.49919926  .00000000  00000-0  00000-0 0 31224
2 69123 070.0348 206.4185 8250808 286.4024 202.1666 00.47506724    06

# Worst residual: 10.51 km
# MJD 61264.000000 (2026 Aug 12  0:00)
2026-109A = NORAD 69123 = SMILE
1 69123U 26109A   26224.49919926  .00000000  00000-0  00000-0 0 31225
2 69123 070.0441 206.3986 8247392 286.3889 013.2136 00.47522179    05

# Worst residual: 2.22 km
# MJD 61265.000000 (2026 Aug 13  0:00)
2026-109A = NORAD 69123 = SMILE
1 69123U 26109A   26225.49919926  .00000000  00000-0  00000-0 0 31226
2 69123 070.0394 206.3782 8245095 286.3826 184.2468 00.47502225    02

# Worst residual: 8.88 km
# MJD 61266.000000 (2026 Aug 14  0:00)
2026-109A = NORAD 69123 = SMILE
1 69123U 26109A   26226.49919926  .00000000  00000-0  00000-0 0 31227
2 69123 070.0446 206.3683 8242147 286.3720 355.2684 00.47517508    08

# Worst residual: 1.53 km
# MJD 61267.000000 (2026 Aug 15  0:00)
2026-109A = NORAD 69123 = SMILE
1 69123U 26109A   26227.49919926  .00000000  00000-0  00000-0 0 31228
2 69123 070.0394 206.3615 8239739 286.3595 166.3162 00.47499426    08

# Worst residual: 8.01 km
# MJD 61268.000000 (2026 Aug 16  0:00)
2026-109A = NORAD 69123 = SMILE
1 69123U 26109A   26228.49919926  .00000000  00000-0  00000-0 0 31229
2 69123 070.0406 206.3600 8237843 286.3483 337.3377 00.47512962    05

# Worst residual: 2.17 km
# MJD 61269.000000 (2026 Aug 17  0:00)
2026-109A = NORAD 69123 = SMILE
1 69123U 26109A   26229.49919926  .00000000  00000-0  00000-0 0 31220
2 69123 070.0377 206.3580 8235374 286.3311 148.3945 00.47497728    09

# Worst residual: 7.26 km
# MJD 61270.000000 (2026 Aug 18  0:00)
2026-109A = NORAD 69123 = SMILE
1 69123U 26109A   26230.49919926  .00000000  00000-0  00000-0 0 31222
2 69123 070.0395 206.3547 8234242 286.3189 319.4260 00.47510773    05

# Worst residual: 1.79 km
# MJD 61271.000000 (2026 Aug 19  0:00)
2026-109A = NORAD 69123 = SMILE
1 69123U 26109A   26231.49919926  .00000000  00000-0  00000-0 0 31223
2 69123 070.0392 206.3505 8231776 286.2996 130.4853 00.47497923    00

# Worst residual: 6.38 km
# MJD 61272.000000 (2026 Aug 20  0:00)
2026-109A = NORAD 69123 = SMILE
1 69123U 26109A   26232.49919926  .00000000  00000-0  00000-0 0 31224
2 69123 070.0402 206.3463 8230500 286.2866 301.5173 00.47509724    04

# Worst residual: 1.87 km
# MJD 61273.000000 (2026 Aug 21  0:00)
2026-109A = NORAD 69123 = SMILE
1 69123U 26109A   26233.49919926  .00000000  00000-0  00000-0 0 31225
2 69123 070.0425 206.3370 8228114 286.2641 112.5821 00.47501722    05

# Worst residual: 7.42 km
# MJD 61274.000000 (2026 Aug 22  0:00)
2026-109A = NORAD 69123 = SMILE
1 69123U 26109A   26234.49919926  .00000000  00000-0  00000-0 0 31226
2 69123 070.0402 206.3402 8226331 286.2507 283.6079 00.47509565    04

# Worst residual: 6.03 km
# MJD 61275.000000 (2026 Aug 23  0:00)
2026-109A = NORAD 69123 = SMILE
1 69123U 26109A   26235.49919926  .00000000  00000-0  00000-0 0 31227
2 69123 070.0417 206.3272 8223832 286.2236 094.6834 00.47508252    08

# Worst residual: 7.25 km
# MJD 61276.000000 (2026 Aug 24  0:00)
2026-109A = NORAD 69123 = SMILE
1 69123U 26109A   26236.49919926  .00000000  00000-0  00000-0 0 31228
2 69123 070.0356 206.3450 8221871 286.2073 265.7100 00.47509127    07

# Worst residual: 6.49 km
# MJD 61277.000000 (2026 Aug 25  0:00)
2026-109A = NORAD 69123 = SMILE
1 69123U 26109A   26237.49919926  .00000000  00000-0  00000-0 0 31229
2 69123 070.0338 206.3332 8219085 286.1806 076.7847 00.47511546    09

# Worst residual: 5.26 km
# MJD 61278.000000 (2026 Aug 26  0:00)
2026-109A = NORAD 69123 = SMILE
1 69123U 26109A   26238.49919926  .00000000  00000-0  00000-0 0 31220
2 69123 070.0261 206.3595 8217487 286.1587 247.8220 00.47508637    08

# Worst residual: 7.46 km
# MJD 61279.000000 (2026 Aug 27  0:00)
2026-109A = NORAD 69123 = SMILE
1 69123U 26109A   26239.49919926  .00000000  00000-0  00000-0 0 31221
2 69123 070.0237 206.3526 8215009 286.1350 058.8908 00.47509115    06

# Worst residual: 2.98 km
# MJD 61280.000000 (2026 Aug 28  0:00)
2026-109A = NORAD 69123 = SMILE
1 69123U 26109A   26240.49919926  .00000000  00000-0  00000-0 0 31223
2 69123 070.0172 206.3725 8213624 286.1091 229.9487 00.47507658    01

# Worst residual: 6.25 km
# MJD 61281.000000 (2026 Aug 29  0:00)
2026-109A = NORAD 69123 = SMILE
1 69123U 26109A   26241.49919926  .00000000  00000-0  00000-0 0 31224
2 69123 070.0201 206.3643 8211298 286.0871 041.0104 00.47503517    02

# Worst residual: 2.87 km
# MJD 61282.000000 (2026 Aug 30  0:00)
2026-109A = NORAD 69123 = SMILE
1 69123U 26109A   26242.49919926  .00000000  00000-0  00000-0 0 31225
2 69123 070.0150 206.3751 8209657 286.0593 212.0902 00.47505587    07

# Worst residual: 7.59 km
# MJD 61283.000000 (2026 Aug 31  0:00)
2026-109A = NORAD 69123 = SMILE
1 69123U 26109A   26243.49919926  .00000000  00000-0  00000-0 0 31226
2 69123 070.0216 206.3645 8206737 286.0350 023.1417 00.47500780    01

# Worst residual: 3.42 km
# MJD 61284.000000 (2026 Sep  1  0:00)
2026-109A = NORAD 69123 = SMILE
1 69123U 26109A   26244.49919926  .00000000  00000-0  00000-0 0 31227
2 69123 070.0174 206.3694 8204877 286.0053 194.2352 00.47505502    06

# Worst residual: 8.85 km
# MJD 61285.000000 (2026 Sep  2  0:00)
2026-109A = NORAD 69123 = SMILE
1 69123U 26109A   26245.49919926  .00000000  00000-0  00000-0 0 31228
2 69123 070.0162 206.3702 8201485 285.9745 005.2876 00.47503060    00

# Worst residual: 2.92 km
# MJD 61286.000000 (2026 Sep  3  0:00)
2026-109A = NORAD 69123 = SMILE
1 69123U 26109A   26246.49919926  .00000000  00000-0  00000-0 0 31229
2 69123 070.0144 206.3624 8199844 285.9475 176.3759 00.47507463    09

# Worst residual: 10.07 km
# MJD 61287.000000 (2026 Sep  4  0:00)
2026-109A = NORAD 69123 = SMILE
1 69123U 26109A   26247.49919926  .00000000  00000-0  00000-0 0 31220
2 69123 070.0131 206.3613 8196972 285.9208 347.4452 00.47510444    00

# Worst residual: 1.58 km
# MJD 61288.000000 (2026 Sep  5  0:00)
2026-109A = NORAD 69123 = SMILE
1 69123U 26109A   26248.49919926  .00000000  00000-0  00000-0 0 31221
2 69123 070.0108 206.3403 8195457 285.8988 158.5184 00.47508378    08

# Worst residual: 9.71 km
# MJD 61289.000000 (2026 Sep  6  0:00)
2026-109A = NORAD 69123 = SMILE
1 69123U 26109A   26249.49919926  .00000000  00000-0  00000-0 0 31222
2 69123 070.0204 206.3157 8192640 285.8879 329.5738 00.47516897    01

# Worst residual: 3.70 km
# MJD 61290.000000 (2026 Sep  7  0:00)
2026-109A = NORAD 69123 = SMILE
1 69123U 26109A   26250.49919926  .00000000  00000-0  00000-0 0 31224
2 69123 070.0149 206.2939 8190875 285.8684 140.6416 00.47507558    07

# Worst residual: 9.80 km
# MJD 61291.000000 (2026 Sep  8  0:00)
2026-109A = NORAD 69123 = SMILE
1 69123U 26109A   26251.49919926  .00000000  00000-0  00000-0 0 31225
2 69123 070.0237 206.2678 8187529 285.8663 311.6560 00.47515477    03

# Worst residual: 3.79 km
# MJD 61292.000000 (2026 Sep  9  0:00)
2026-109A = NORAD 69123 = SMILE
1 69123U 26109A   26252.49919926  .00000000  00000-0  00000-0 0 31226
2 69123 070.0199 206.2494 8185355 285.8491 122.7246 00.47505051    09

# Worst residual: 7.29 km
# MJD 61293.000000 (2026 Sep 10  0:00)
2026-109A = NORAD 69123 = SMILE
1 69123U 26109A   26253.49919926  .00000000  00000-0  00000-0 0 31227
2 69123 070.0181 206.2495 8182316 285.8418 293.7197 00.47510371    09

# Worst residual: 3.09 km
# MJD 61294.000000 (2026 Sep 11  0:00)
2026-109A = NORAD 69123 = SMILE
1 69123U 26109A   26254.49919926  .00000000  00000-0  00000-0 0 31228
2 69123 070.0197 206.2289 8179771 285.8304 104.7815 00.47499436    08

# Worst residual: 7.63 km
# MJD 61295.000000 (2026 Sep 12  0:00)
2026-109A = NORAD 69123 = SMILE
1 69123U 26109A   26255.49919926  .00000000  00000-0  00000-0 0 31229
2 69123 070.0150 206.2424 8178104 285.8148 275.7998 00.47507089    08

# Worst residual: 4.15 km
# MJD 61296.000000 (2026 Sep 13  0:00)
2026-109A = NORAD 69123 = SMILE
1 69123U 26109A   26256.49919926  .00000000  00000-0  00000-0 0 31220
2 69123 070.0177 206.2268 8175557 285.8034 086.8479 00.47495064    00

# Worst residual: 5.85 km
# MJD 61297.000000 (2026 Sep 14  0:00)
2026-109A = NORAD 69123 = SMILE
1 69123U 26109A   26257.49919926  .00000000  00000-0  00000-0 0 31221
2 69123 070.0144 206.2387 8174131 285.7809 257.8989 00.47503607    01

# Worst residual: 5.37 km
# MJD 61298.000000 (2026 Sep 15  0:00)
2026-109A = NORAD 69123 = SMILE
1 69123U 26109A   26258.49919926  .00000000  00000-0  00000-0 0 31222
2 69123 070.0191 206.2265 8171969 285.7665 068.9440 00.47497136    06

# Worst residual: 4.70 km
# MJD 61299.000000 (2026 Sep 16  0:00)
2026-109A = NORAD 69123 = SMILE
1 69123U 26109A   26259.49919926  .00000000  00000-0  00000-0 0 31223
2 69123 070.0173 206.2294 8170015 285.7463 240.0017 00.47502080    03

# Worst residual: 5.65 km
# MJD 61300.000000 (2026 Sep 17  0:00)
2026-109A = NORAD 69123 = SMILE
1 69123U 26109A   26260.49919926  .00000000  00000-0  00000-0 0 31225
2 69123 070.0219 206.2193 8167716 285.7286 051.0473 00.47502499    09

# Worst residual: 3.42 km
# MJD 61301.000000 (2026 Sep 18  0:00)
2026-109A = NORAD 69123 = SMILE
1 69123U 26109A   26261.49919926  .00000000  00000-0  00000-0 0 31226
2 69123 070.0197 206.2211 8165464 285.7100 222.0995 00.47502136    05

# Worst residual: 6.09 km
# MJD 61302.000000 (2026 Sep 19  0:00)
2026-109A = NORAD 69123 = SMILE
1 69123U 26109A   26262.49919926  .00000000  00000-0  00000-0 0 31227
2 69123 070.0208 206.2151 8162805 285.6906 033.1442 00.47508273    06

# Worst residual: 2.50 km
# MJD 61303.000000 (2026 Sep 20  0:00)
2026-109A = NORAD 69123 = SMILE
1 69123U 26109A   26263.49919926  .00000000  00000-0  00000-0 0 31228
2 69123 070.0171 206.2225 8160691 285.6696 204.1936 00.47503550    05

# Worst residual: 7.39 km
# MJD 61304.000000 (2026 Sep 21  0:00)
2026-109A = NORAD 69123 = SMILE
1 69123U 26109A   26264.49919926  .00000000  00000-0  00000-0 0 31229
2 69123 070.0133 206.2256 8157985 285.6480 015.2403 00.47512916    06

# Worst residual: 2.06 km
# MJD 61305.000000 (2026 Sep 22  0:00)
2026-109A = NORAD 69123 = SMILE
1 69123U 26109A   26265.49919926  .00000000  00000-0  00000-0 0 31220
2 69123 070.0089 206.2341 8156254 285.6245 186.2956 00.47505182    07

# Worst residual: 7.51 km
# MJD 61306.000000 (2026 Sep 23  0:00)
2026-109A = NORAD 69123 = SMILE
1 69123U 26109A   26266.49919926  .00000000  00000-0  00000-0 0 31221
2 69123 070.0037 206.2437 8153956 285.6027 357.3502 00.47512540    04

# Worst residual: 3.18 km
# MJD 61307.000000 (2026 Sep 24  0:00)
2026-109A = NORAD 69123 = SMILE
1 69123U 26109A   26267.49919926  .00000000  00000-0  00000-0 0 31222
2 69123 069.9993 206.2499 8152364 285.5767 168.4144 00.47504972    05

# Worst residual: 7.29 km
# MJD 61308.000000 (2026 Sep 25  0:00)
2026-109A = NORAD 69123 = SMILE
1 69123U 26109A   26268.49919926  .00000000  00000-0  00000-0 0 31223
2 69123 069.9997 206.2533 8150243 285.5546 339.4781 00.47511435    06

# Worst residual: 3.90 km
# MJD 61309.000000 (2026 Sep 26  0:00)
2026-109A = NORAD 69123 = SMILE
1 69123U 26109A   26269.49919926  .00000000  00000-0  00000-0 0 31224
2 69123 069.9966 206.2555 8148457 285.5284 150.5477 00.47502660    03

# Worst residual: 8.47 km
# MJD 61310.000000 (2026 Sep 27  0:00)
2026-109A = NORAD 69123 = SMILE
1 69123U 26109A   26270.49919926  .00000000  00000-0  00000-0 0 31226
2 69123 069.9977 206.2570 8145706 285.5002 321.6153 00.47505479    07

# Worst residual: 4.71 km
# MJD 61311.000000 (2026 Sep 28  0:00)
2026-109A = NORAD 69123 = SMILE
1 69123U 26109A   26271.49919926  .00000000  00000-0  00000-0 0 31227
2 69123 069.9974 206.2544 8143529 285.4745 132.6811 00.47500490    08

# Worst residual: 8.81 km
# MJD 61312.000000 (2026 Sep 29  0:00)
2026-109A = NORAD 69123 = SMILE
1 69123U 26109A   26272.49919926  .00000000  00000-0  00000-0 0 31228
2 69123 069.9915 206.2686 8140822 285.4389 303.7644 00.47504540    02

# Worst residual: 4.42 km
# MJD 61313.000000 (2026 Sep 30  0:00)
2026-109A = NORAD 69123 = SMILE
1 69123U 26109A   26273.49919926  .00000000  00000-0  00000-0 0 31229
2 69123 069.9909 206.2595 8138527 285.4111 114.8256 00.47500720    02

# Worst residual: 6.95 km
# MJD 61314.000000 (2026 Oct  1  0:00)
2026-109A = NORAD 69123 = SMILE
1 69123U 26109A   26274.49919926  .00000000  00000-0  00000-0 0 31220
2 69123 069.9881 206.2620 8137258 285.3853 285.9198 00.47512262    01

# Worst residual: 2.92 km
# MJD 61315.000000 (2026 Oct  2  0:00)
2026-109A = NORAD 69123 = SMILE
1 69123U 26109A   26275.49919926  .00000000  00000-0  00000-0 0 31221
2 69123 069.9866 206.2469 8134809 285.3525 096.9960 00.47506122    05

# Worst residual: 7.61 km
# MJD 61316.000000 (2026 Oct  3  0:00)
2026-109A = NORAD 69123 = SMILE
1 69123U 26109A   26276.49919926  .00000000  00000-0  00000-0 0 31222
2 69123 069.9913 206.2212 8133360 285.3448 268.0587 00.47512951    03

# Worst residual: 7.67 km
# MJD 61317.000000 (2026 Oct  4  0:00)
2026-109A = NORAD 69123 = SMILE
1 69123U 26109A   26277.49919926  .00000000  00000-0  00000-0 0 31223
2 69123 069.9924 206.2003 8130343 285.3174 079.1399 00.47511958    05

# Worst residual: 6.29 km
# MJD 61318.000000 (2026 Oct  5  0:00)
2026-109A = NORAD 69123 = SMILE
1 69123U 26109A   26278.49919926  .00000000  00000-0  00000-0 0 31224
2 69123 069.9954 206.1763 8127952 285.3161 250.1588 00.47507002    04

# Worst residual: 9.98 km
# MJD 61319.000000 (2026 Oct  6  0:00)
2026-109A = NORAD 69123 = SMILE
1 69123U 26109A   26279.49919926  .00000000  00000-0  00000-0 0 31225
2 69123 069.9975 206.1609 8124913 285.2958 061.2197 00.47511721    03

# Worst residual: 5.40 km
# MJD 61320.000000 (2026 Oct  7  0:00)
2026-109A = NORAD 69123 = SMILE
1 69123U 26109A   26280.49919926  .00000000  00000-0  00000-0 0 31227
2 69123 069.9950 206.1528 8122219 285.2906 232.2351 00.47501871    03

# Worst residual: 8.62 km
# MJD 61321.000000 (2026 Oct  8  0:00)
2026-109A = NORAD 69123 = SMILE
1 69123U 26109A   26281.49919926  .00000000  00000-0  00000-0 0 31228
2 69123 069.9960 206.1454 8119729 285.2760 043.2738 00.47505104    04

# Worst residual: 3.95 km
# MJD 61322.000000 (2026 Oct  9  0:00)
2026-109A = NORAD 69123 = SMILE
1 69123U 26109A   26282.49919926  .00000000  00000-0  00000-0 0 31229
2 69123 069.9919 206.1477 8117205 285.2618 214.3136 00.47498907    07

# Worst residual: 7.39 km
# MJD 61323.000000 (2026 Oct 10  0:00)
2026-109A = NORAD 69123 = SMILE
1 69123U 26109A   26283.49919926  .00000000  00000-0  00000-0 0 31220
2 69123 069.9936 206.1438 8115475 285.2485 025.3459 00.47500877    00

# Worst residual: 3.11 km
# MJD 61324.000000 (2026 Oct 11  0:00)
2026-109A = NORAD 69123 = SMILE
1 69123U 26109A   26284.49919926  .00000000  00000-0  00000-0 0 31221
2 69123 069.9907 206.1461 8112972 285.2304 196.4037 00.47497998    04

# Worst residual: 7.64 km
# MJD 61325.000000 (2026 Oct 12  0:00)
2026-109A = NORAD 69123 = SMILE
1 69123U 26109A   26285.49919926  .00000000  00000-0  00000-0 0 31222
2 69123 069.9945 206.1394 8111430 285.2168 007.4388 00.47503649    08

# Worst residual: 2.64 km
# MJD 61326.000000 (2026 Oct 13  0:00)
2026-109A = NORAD 69123 = SMILE
1 69123U 26109A   26286.49919926  .00000000  00000-0  00000-0 0 31223
2 69123 069.9930 206.1396 8108970 285.1981 178.4998 00.47498656    08

# Worst residual: 8.72 km
# MJD 61327.000000 (2026 Oct 14  0:00)
2026-109A = NORAD 69123 = SMILE
1 69123U 26109A   26287.49919926  .00000000  00000-0  00000-0 0 31224
2 69123 069.9966 206.1317 8107042 285.1838 349.5337 00.47508241    00

# Worst residual: 1.30 km
# MJD 61328.000000 (2026 Oct 15  0:00)
2026-109A = NORAD 69123 = SMILE
1 69123U 26109A   26288.49919926  .00000000  00000-0  00000-0 0 31225
2 69123 069.9956 206.1309 8104745 285.1636 160.5936 00.47500263    05

# Worst residual: 8.48 km
# MJD 61329.000000 (2026 Oct 16  0:00)
2026-109A = NORAD 69123 = SMILE
1 69123U 26109A   26289.49919926  .00000000  00000-0  00000-0 0 31226
2 69123 069.9951 206.1302 8102380 285.1477 331.6226 00.47510367    08

# Worst residual: 1.49 km
# MJD 61330.000000 (2026 Oct 17  0:00)
2026-109A = NORAD 69123 = SMILE
1 69123U 26109A   26290.49919926  .00000000  00000-0  00000-0 0 31228
2 69123 069.9935 206.1289 8100295 285.1246 142.6842 00.47502540    09

# Worst residual: 7.40 km
# MJD 61331.000000 (2026 Oct 18  0:00)
2026-109A = NORAD 69123 = SMILE
1 69123U 26109A   26291.49919926  .00000000  00000-0  00000-0 0 31229
2 69123 069.9876 206.1422 8097901 285.1057 313.7138 00.47511392    05

# Worst residual: 2.24 km
# MJD 61332.000000 (2026 Oct 19  0:00)
2026-109A = NORAD 69123 = SMILE
1 69123U 26109A   26292.49919926  .00000000  00000-0  00000-0 0 31220
2 69123 069.9851 206.1387 8095916 285.0805 124.7796 00.47503995    02

# Worst residual: 6.57 km
# MJD 61333.000000 (2026 Oct 20  0:00)
2026-109A = NORAD 69123 = SMILE
1 69123U 26109A   26293.49919926  .00000000  00000-0  00000-0 0 31221
2 69123 069.9763 206.1645 8094096 285.0573 295.8226 00.47511395    02

# Worst residual: 2.52 km
# MJD 61334.000000 (2026 Oct 21  0:00)
2026-109A = NORAD 69123 = SMILE
1 69123U 26109A   26294.49919926  .00000000  00000-0  00000-0 0 31222
2 69123 069.9747 206.1560 8092037 285.0341 106.8888 00.47502081    03

# Worst residual: 6.51 km
# MJD 61335.000000 (2026 Oct 22  0:00)
2026-109A = NORAD 69123 = SMILE
1 69123U 26109A   26295.49919926  .00000000  00000-0  00000-0 0 31223
2 69123 069.9679 206.1816 8090934 285.0070 277.9542 00.47510770    05

# Worst residual: 2.78 km
# MJD 61336.000000 (2026 Oct 23  0:00)
2026-109A = NORAD 69123 = SMILE
1 69123U 26109A   26296.49919926  .00000000  00000-0  00000-0 0 31224
2 69123 069.9707 206.1684 8088395 284.9866 089.0111 00.47496559    01

# Worst residual: 4.76 km
# MJD 61337.000000 (2026 Oct 24  0:00)
2026-109A = NORAD 69123 = SMILE
1 69123U 26109A   26297.49919926  .00000000  00000-0  00000-0 0 31225
2 69123 069.9666 206.1872 8086972 284.9516 260.1080 00.47505687    05

# Worst residual: 5.12 km
# MJD 61338.000000 (2026 Oct 25  0:00)
2026-109A = NORAD 69123 = SMILE
1 69123U 26109A   26298.49919926  .00000000  00000-0  00000-0 0 31226
2 69123 069.9720 206.1749 8083993 284.9281 071.1475 00.47494088    08

# Worst residual: 3.43 km
# MJD 61339.000000 (2026 Oct 26  0:00)
2026-109A = NORAD 69123 = SMILE
1 69123U 26109A   26299.49919926  .00000000  00000-0  00000-0 0 31227
2 69123 069.9680 206.1884 8082146 284.8906 242.2681 00.47504977    04

# Worst residual: 7.23 km
# MJD 61340.000000 (2026 Oct 27  0:00)
2026-109A = NORAD 69123 = SMILE
1 69123U 26109A   26300.49919926  .00000000  00000-0  00000-0 0 31220
2 69123 069.9652 206.1884 8078705 284.8584 053.3047 00.47495127    04

# Worst residual: 2.63 km
# MJD 61341.000000 (2026 Oct 28  0:00)
2026-109A = NORAD 69123 = SMILE
1 69123U 26109A   26301.49919926  .00000000  00000-0  00000-0 0 31221
2 69123 069.9643 206.1819 8077424 284.8279 224.4225 00.47508440    02

# Worst residual: 7.08 km
# MJD 61342.000000 (2026 Oct 29  0:00)
2026-109A = NORAD 69123 = SMILE
1 69123U 26109A   26302.49919926  .00000000  00000-0  00000-0 0 31222
2 69123 069.9616 206.1820 8074397 284.7977 035.4849 00.47505539    02

# Worst residual: 2.89 km
# MJD 61343.000000 (2026 Oct 30  0:00)
2026-109A = NORAD 69123 = SMILE
1 69123U 26109A   26303.49919926  .00000000  00000-0  00000-0 0 31223
2 69123 069.9621 206.1523 8073120 284.7812 206.5611 00.47507975    03

# Worst residual: 8.10 km
# MJD 61344.000000 (2026 Oct 31  0:00)
2026-109A = NORAD 69123 = SMILE
1 69123U 26109A   26304.49919926  .00000000  00000-0  00000-0 0 31224
2 69123 069.9699 206.1343 8069953 284.7625 017.6233 00.47518386    08

# Worst residual: 1.96 km
# MJD 61345.000000 (2026 Nov  1  0:00)
2026-109A = NORAD 69123 = SMILE
1 69123U 26109A   26305.49919926  .00000000  00000-0  00000-0 0 31225
2 69123 069.9675 206.1062 8068116 284.7547 188.6684 00.47504454    03

# Worst residual: 7.84 km
# MJD 61346.000000 (2026 Nov  2  0:00)
2026-109A = NORAD 69123 = SMILE
1 69123U 26109A   26306.49919926  .00000000  00000-0  00000-0 0 31226
2 69123 069.9752 206.0880 8064495 284.7441 359.6968 00.47519898    08

# Worst residual: 1.60 km
# MJD 61347.000000 (2026 Nov  3  0:00)
2026-109A = NORAD 69123 = SMILE
1 69123U 26109A   26307.49919926  .00000000  00000-0  00000-0 0 31227
2 69123 069.9708 206.0740 8062312 284.7341 170.7416 00.47500578    04

# Worst residual: 7.51 km
# MJD 61348.000000 (2026 Nov  4  0:00)
2026-109A = NORAD 69123 = SMILE
1 69123U 26109A   26308.49919926  .00000000  00000-0  00000-0 0 31228
2 69123 069.9716 206.0712 8059339 284.7235 341.7503 00.47515027    01

# Worst residual: 1.60 km
# MJD 61349.000000 (2026 Nov  5  0:00)
2026-109A = NORAD 69123 = SMILE
1 69123U 26109A   26309.49919926  .00000000  00000-0  00000-0 0 31229
2 69123 069.9680 206.0670 8056975 284.7094 152.8032 00.47497009    07

# Worst residual: 6.75 km
# MJD 61350.000000 (2026 Nov  6  0:00)
2026-109A = NORAD 69123 = SMILE
1 69123U 26109A   26310.49919926  .00000000  00000-0  00000-0 0 31221
2 69123 069.9662 206.0724 8055266 284.6960 323.8194 00.47510893    06

# Worst residual: 3.51 km
# MJD 61351.000000 (2026 Nov  7  0:00)
2026-109A = NORAD 69123 = SMILE
1 69123U 26109A   26311.49919926  .00000000  00000-0  00000-0 0 31222
2 69123 069.9655 206.0700 8052740 284.6801 134.8755 00.47494805    07

# Worst residual: 6.33 km
# MJD 61352.000000 (2026 Nov  8  0:00)
2026-109A = NORAD 69123 = SMILE
1 69123U 26109A   26312.49919926  .00000000  00000-0  00000-0 0 31223
2 69123 069.9644 206.0728 8051717 284.6640 305.9080 00.47508731    05

# Worst residual: 3.52 km
# MJD 61353.000000 (2026 Nov  9  0:00)
2026-109A = NORAD 69123 = SMILE
1 69123U 26109A   26313.49919926  .00000000  00000-0  00000-0 0 31224
2 69123 069.9673 206.0671 8049173 284.6472 116.9650 00.47495637    03

# Worst residual: 5.64 km
# MJD 61354.000000 (2026 Nov 10  0:00)
2026-109A = NORAD 69123 = SMILE
1 69123U 26109A   26314.49919926  .00000000  00000-0  00000-0 0 31225
2 69123 069.9659 206.0682 8047901 284.6299 288.0041 00.47507669    07

# Worst residual: 2.52 km
# MJD 61355.000000 (2026 Nov 11  0:00)
2026-109A = NORAD 69123 = SMILE
1 69123U 26109A   26315.49919926  .00000000  00000-0  00000-0 0 31226
2 69123 069.9698 206.0585 8045419 284.6093 099.0659 00.47500215    01

# Worst residual: 7.58 km
# MJD 61356.000000 (2026 Nov 12  0:00)
2026-109A = NORAD 69123 = SMILE
1 69123U 26109A   26316.49919926  .00000000  00000-0  00000-0 0 31227
2 69123 069.9672 206.0646 8043686 284.5917 270.1055 00.47506838    08

# Worst residual: 4.45 km
# MJD 61357.000000 (2026 Nov 13  0:00)
2026-109A = NORAD 69123 = SMILE
1 69123U 26109A   26317.49919926  .00000000  00000-0  00000-0 0 31228
2 69123 069.9675 206.0566 8040949 284.5666 081.1696 00.47506112    08

# Worst residual: 5.69 km
# MJD 61358.000000 (2026 Nov 14  0:00)
2026-109A = NORAD 69123 = SMILE
1 69123U 26109A   26318.49919926  .00000000  00000-0  00000-0 0 31229
2 69123 069.9631 206.0723 8039053 284.5473 252.2065 00.47506384    07

# Worst residual: 6.55 km
# MJD 61359.000000 (2026 Nov 15  0:00)
2026-109A = NORAD 69123 = SMILE
1 69123U 26109A   26319.49919926  .00000000  00000-0  00000-0 0 31220
2 69123 069.9594 206.0702 8036346 284.5212 063.2701 00.47508452    00

# Worst residual: 4.32 km
# MJD 61360.000000 (2026 Nov 16  0:00)
2026-109A = NORAD 69123 = SMILE
1 69123U 26109A   26320.49919926  .00000000  00000-0  00000-0 0 31222
2 69123 069.9538 206.0906 8034840 284.4978 234.3163 00.47506515    00

# Worst residual: 6.39 km
# MJD 61361.000000 (2026 Nov 17  0:00)
2026-109A = NORAD 69123 = SMILE
1 69123U 26109A   26321.49919926  .00000000  00000-0  00000-0 0 31223
2 69123 069.9496 206.0918 8032509 284.4749 045.3771 00.47506476    03

# Worst residual: 3.31 km
# MJD 61362.000000 (2026 Nov 18  0:00)
2026-109A = NORAD 69123 = SMILE
1 69123U 26109A   26322.49919926  .00000000  00000-0  00000-0 0 31224
2 69123 069.9453 206.1081 8031275 284.4472 216.4417 00.47506323    09

# Worst residual: 6.94 km
# MJD 61363.000000 (2026 Nov 19  0:00)
2026-109A = NORAD 69123 = SMILE
1 69123U 26109A   26323.49919926  .00000000  00000-0  00000-0 0 31225
2 69123 069.9460 206.1058 8029169 284.4258 027.5033 00.47503362    07

# Worst residual: 3.34 km
# MJD 61364.000000 (2026 Nov 20  0:00)
2026-109A = NORAD 69123 = SMILE
1 69123U 26109A   26324.49919926  .00000000  00000-0  00000-0 0 31226
2 69123 069.9434 206.1150 8027707 284.3961 198.5856 00.47505215    08

# Worst residual: 7.98 km
# MJD 61365.000000 (2026 Nov 21  0:00)
2026-109A = NORAD 69123 = SMILE
1 69123U 26109A   26325.49919926  .00000000  00000-0  00000-0 0 31227
2 69123 069.9479 206.1085 8024820 284.3705 009.6428 00.47502716    03

# Worst residual: 3.97 km
# MJD 61366.000000 (2026 Nov 22  0:00)
2026-109A = NORAD 69123 = SMILE
1 69123U 26109A   26326.49919926  .00000000  00000-0  00000-0 0 31228
2 69123 069.9464 206.1117 8023175 284.3401 180.7349 00.47505756    08

# Worst residual: 9.56 km
# MJD 61367.000000 (2026 Nov 23  0:00)
2026-109A = NORAD 69123 = SMILE
1 69123U 26109A   26327.49919926  .00000000  00000-0  00000-0 0 31229
2 69123 069.9430 206.1168 8019457 284.3061 351.7944 00.47503664    04

# Worst residual: 4.06 km
# MJD 61368.000000 (2026 Nov 24  0:00)
2026-109A = NORAD 69123 = SMILE
1 69123U 26109A   26328.49919926  .00000000  00000-0  00000-0 0 31220
2 69123 069.9418 206.1096 8018001 284.2762 162.8799 00.47507229    01

# Worst residual: 10.58 km
# MJD 61369.000000 (2026 Nov 25  0:00)
2026-109A = NORAD 69123 = SMILE
1 69123U 26109A   26329.49919926  .00000000  00000-0  00000-0 0 31221
2 69123 069.9389 206.1115 8015320 284.2480 333.9609 00.47510703    00

# Worst residual: 2.15 km
# MJD 61370.000000 (2026 Nov 26  0:00)
2026-109A = NORAD 69123 = SMILE
1 69123U 26109A   26330.49919926  .00000000  00000-0  00000-0 0 31223
2 69123 069.9361 206.0935 8013970 284.2208 145.0348 00.47507815    08

# Worst residual: 9.87 km
# MJD 61371.000000 (2026 Nov 27  0:00)
2026-109A = NORAD 69123 = SMILE
1 69123U 26109A   26331.49919926  .00000000  00000-0  00000-0 0 31224
2 69123 069.9452 206.0649 8011517 284.2128 316.0942 00.47516516    05

# Worst residual: 4.32 km
# MJD 61372.000000 (2026 Nov 28  0:00)
2026-109A = NORAD 69123 = SMILE
1 69123U 26109A   26332.49919926  .00000000  00000-0  00000-0 0 31225
2 69123 069.9423 206.0465 8009882 284.1882 127.1697 00.47508750    06

# Worst residual: 9.21 km
# MJD 61373.000000 (2026 Nov 29  0:00)
2026-109A = NORAD 69123 = SMILE
1 69123U 26109A   26333.49919926  .00000000  00000-0  00000-0 0 31226
2 69123 069.9486 206.0200 8006314 284.1897 298.1743 00.47514963    09

# Worst residual: 5.58 km
# MJD 61374.000000 (2026 Nov 30  0:00)
2026-109A = NORAD 69123 = SMILE
1 69123U 26109A   26334.49919926  .00000000  00000-0  00000-0 0 31227
2 69123 069.9483 206.0018 8004145 284.1695 109.2531 00.47507290    01

# Worst residual: 9.05 km
# MJD 61375.000000 (2026 Dec  1  0:00)
2026-109A = NORAD 69123 = SMILE
1 69123U 26109A   26335.49919926  .00000000  00000-0  00000-0 0 31228
2 69123 069.9466 206.0016 8001185 284.1661 280.2429 00.47509289    00

# Worst residual: 4.47 km
# MJD 61376.000000 (2026 Dec  2  0:00)
2026-109A = NORAD 69123 = SMILE
1 69123U 26109A   26336.49919926  .00000000  00000-0  00000-0 0 31229
2 69123 069.9460 205.9899 7998478 284.1503 091.3044 00.47500638    08

# Worst residual: 7.45 km
# MJD 61377.000000 (2026 Dec  3  0:00)
2026-109A = NORAD 69123 = SMILE
1 69123U 26109A   26337.49919926  .00000000  00000-0  00000-0 0 31220
2 69123 069.9418 206.0043 7996823 284.1343 262.3251 00.47505494    03

# Worst residual: 5.55 km
# MJD 61378.000000 (2026 Dec  4  0:00)
2026-109A = NORAD 69123 = SMILE
1 69123U 26109A   26338.49919926  .00000000  00000-0  00000-0 0 31221
2 69123 069.9431 205.9967 7994615 284.1199 073.3733 00.47497358    01

# Worst residual: 5.61 km
# MJD 61379.000000 (2026 Dec  5  0:00)
2026-109A = NORAD 69123 = SMILE
1 69123U 26109A   26339.49919926  .00000000  00000-0  00000-0 0 31222
2 69123 069.9412 206.0034 7992991 284.0995 244.4235 00.47502594    02

# Worst residual: 6.68 km
# MJD 61380.000000 (2026 Dec  6  0:00)
2026-109A = NORAD 69123 = SMILE
1 69123U 26109A   26340.49919926  .00000000  00000-0  00000-0 0 31224
2 69123 069.9452 205.9973 7990996 284.0837 055.4700 00.47499955    07

# Worst residual: 3.44 km
# MJD 61381.000000 (2026 Dec  7  0:00)
2026-109A = NORAD 69123 = SMILE
1 69123U 26109A   26341.49919926  .00000000  00000-0  00000-0 0 31225
2 69123 069.9444 205.9966 7989019 284.0647 226.5257 00.47501870    01

# Worst residual: 6.21 km
# MJD 61382.000000 (2026 Dec  8  0:00)
2026-109A = NORAD 69123 = SMILE
1 69123U 26109A   26342.49919926  .00000000  00000-0  00000-0 0 31226
2 69123 069.9483 205.9901 7986676 284.0464 037.5738 00.47506886    02

# Worst residual: 2.60 km
# MJD 61383.000000 (2026 Dec  9  0:00)
2026-109A = NORAD 69123 = SMILE
1 69123U 26109A   26343.49919926  .00000000  00000-0  00000-0 0 31227
2 69123 069.9472 205.9903 7984634 284.0282 208.6254 00.47503104    06

# Worst residual: 7.28 km
# MJD 61384.000000 (2026 Dec 10  0:00)
2026-109A = NORAD 69123 = SMILE
1 69123U 26109A   26344.49919926  .00000000  00000-0  00000-0 0 31228
2 69123 069.9469 205.9890 7981806 284.0078 019.6726 00.47513195    03

# Worst residual: 2.05 km
# MJD 61385.000000 (2026 Dec 11  0:00)
2026-109A = NORAD 69123 = SMILE
1 69123U 26109A   26345.49919926  .00000000  00000-0  00000-0 0 31229
2 69123 069.9450 205.9927 7980081 283.9876 190.7218 00.47504556    00

# Worst residual: 7.70 km
# MJD 61386.000000 (2026 Dec 12  0:00)
2026-109A = NORAD 69123 = SMILE
1 69123U 26109A   26346.49919926  .00000000  00000-0  00000-0 0 31220
2 69123 069.9402 205.9997 7977334 283.9664 001.7689 00.47514919    03

# Worst residual: 1.65 km
# MJD 61387.000000 (2026 Dec 13  0:00)
2026-109A = NORAD 69123 = SMILE
1 69123U 26109A   26347.49919926  .00000000  00000-0  00000-0 0 31221
2 69123 069.9373 206.0052 7975914 283.9420 172.8226 00.47505449    01

# Worst residual: 7.32 km
# MJD 61388.000000 (2026 Dec 14  0:00)
2026-109A = NORAD 69123 = SMILE
1 69123U 26109A   26348.49919926  .00000000  00000-0  00000-0 0 31222
2 69123 069.9315 206.0179 7973664 283.9209 343.8753 00.47514605    01

# Worst residual: 2.37 km
# MJD 61389.000000 (2026 Dec 15  0:00)
2026-109A = NORAD 69123 = SMILE
1 69123U 26109A   26349.49919926  .00000000  00000-0  00000-0 0 31223
2 69123 069.9287 206.0217 7972310 283.8941 154.9364 00.47504783    06

# Worst residual: 7.57 km
# MJD 61390.000000 (2026 Dec 16  0:00)
2026-109A = NORAD 69123 = SMILE
1 69123U 26109A   26350.49919926  .00000000  00000-0  00000-0 0 31225
2 69123 069.9269 206.0303 7970513 283.8726 325.9991 00.47512993    04

# Worst residual: 3.11 km
# MJD 61391.000000 (2026 Dec 17  0:00)
2026-109A = NORAD 69123 = SMILE
1 69123U 26109A   26351.49919926  .00000000  00000-0  00000-0 0 31226
2 69123 069.9258 206.0312 7968948 283.8457 137.0655 00.47502784    08

# Worst residual: 8.04 km
# MJD 61392.000000 (2026 Dec 18  0:00)
2026-109A = NORAD 69123 = SMILE
1 69123U 26109A   26352.49919926  .00000000  00000-0  00000-0 0 31227
2 69123 069.9251 206.0361 7966797 283.8189 308.1378 00.47508259    03

# Worst residual: 3.53 km
# MJD 61393.000000 (2026 Dec 19  0:00)
2026-109A = NORAD 69123 = SMILE
1 69123U 26109A   26353.49919926  .00000000  00000-0  00000-0 0 31228
2 69123 069.9283 206.0311 7964797 283.7925 119.2027 00.47501206    05

# Worst residual: 8.36 km
# MJD 61394.000000 (2026 Dec 20  0:00)
2026-109A = NORAD 69123 = SMILE
1 69123U 26109A   26354.49919926  .00000000  00000-0  00000-0 0 31229
2 69123 069.9241 206.0407 7962357 283.7599 290.2900 00.47506354    01

# Worst residual: 2.22 km
# MJD 61395.000000 (2026 Dec 21  0:00)
2026-109A = NORAD 69123 = SMILE
1 69123U 26109A   26355.49919926  .00000000  00000-0  00000-0 0 31220
2 69123 069.9256 206.0319 7960038 283.7266 101.3554 00.47503943    02

# Worst residual: 7.96 km
# MJD 61396.000000 (2026 Dec 22  0:00)
2026-109A = NORAD 69123 = SMILE
1 69123U 26109A   26356.49919926  .00000000  00000-0  00000-0 0 31221
2 69123 069.9234 206.0317 7958736 283.7017 272.4557 00.47512778    01

# Worst residual: 5.48 km
# MJD 61397.000000 (2026 Dec 23  0:00)
2026-109A = NORAD 69123 = SMILE
1 69123U 26109A   26357.49919926  .00000000  00000-0  00000-0 0 31222
2 69123 069.9199 206.0226 7955700 283.6621 083.5366 00.47510170    01

# Worst residual: 5.69 km
# MJD 61398.000000 (2026 Dec 24  0:00)
2026-109A = NORAD 69123 = SMILE
1 69123U 26109A   26358.49919926  .00000000  00000-0  00000-0 0 31223
2 69123 069.9237 205.9947 7954603 283.6538 254.6031 00.47513451    05

# Worst residual: 8.59 km
# MJD 61399.000000 (2026 Dec 25  0:00)
2026-109A = NORAD 69123 = SMILE
1 69123U 26109A   26359.49919926  .00000000  00000-0  00000-0 0 31224
2 69123 069.9258 205.9830 7951356 283.6208 065.6923 00.47518023    05

# Worst residual: 4.50 km
# MJD 61400.000000 (2026 Dec 26  0:00)
2026-109A = NORAD 69123 = SMILE
1 69123U 26109A   26360.49919926  .00000000  00000-0  00000-0 0 31226
2 69123 069.9277 205.9477 7949239 283.6241 236.7106 00.47507775    03

# Worst residual: 8.25 km
# MJD 61401.000000 (2026 Dec 27  0:00)
2026-109A = NORAD 69123 = SMILE
1 69123U 26109A   26361.49919926  .00000000  00000-0  00000-0 0 31227
2 69123 069.9324 205.9346 7945752 283.6020 047.7764 00.47519186    01

# Worst residual: 3.93 km
# MJD 61402.000000 (2026 Dec 28  0:00)
2026-109A = NORAD 69123 = SMILE
1 69123U 26109A   26362.49919926  .00000000  00000-0  00000-0 0 31228
2 69123 069.9300 205.9208 7943200 283.6000 218.7886 00.47502702    07

# Worst residual: 7.67 km
# MJD 61403.000000 (2026 Dec 29  0:00)
2026-109A = NORAD 69123 = SMILE
1 69123U 26109A   26363.49919926  .00000000  00000-0  00000-0 0 31229
2 69123 069.9311 205.9164 7940236 283.5836 029.8295 00.47513567    08

# Worst residual: 3.06 km
# MJD 61404.000000 (2026 Dec 30  0:00)
2026-109A = NORAD 69123 = SMILE
1 69123U 26109A   26364.49919926  .00000000  00000-0  00000-0 0 31220
2 69123 069.9277 205.9177 7937931 283.5713 200.8637 00.47499979    06

# Worst residual: 7.64 km
# MJD 61405.000000 (2026 Dec 31  0:00)
2026-109A = NORAD 69123 = SMILE
1 69123U 26109A   26365.49919926  .00000000  00000-0  00000-0 0 31221
2 69123 069.9278 205.9171 7935972 283.5572 011.8987 00.47508661    04
Avg worst resid: 5.58 km
Worst residual in entire run: 10.58 km on MJD 61369.0
       1     3     10    30    100   300   1K    3K    10K   km
     0    40   136     5     0     0     0     0     0     0
Updated Sun Jul 19 18:15:24 2026 UTC
