# Made by eph2tle, compiled Feb  9 2026 11:13:20
# Run at Sat Mar 21 14:59:30 2026 UTC
#
# No updates
#
#    The following TLEs (Two-Line Elements) were generated by fitting
# a numerically-integrated ephemeris,  based on the orbit given below,
# to the SDP4/SGP4 models.  Each TLE is good for the interval between
# its epoch and the epoch of the subsequent TLE (usually one day).
# The maximum deviation between the numerically integrated ephemerides
# and the TLE-based ephemeris, in kilometers,  is given for each TLE
# as the "worst residual".
#
#    This fitting is done using the 'eph2tle' code packaged with Find_Orb.
# The code has details on how the TLEs were computed :
#
#    https://github.com/Bill-Gray/find_orb/eph2tle.cpp
#
#    Be warned:  the error given is that between the numerically
# integrated ephems and the TLE model.  There will usually be at
# least some additional difference between the ephems and the actual
# motion of the satellite,  especially if the ephemerides are based
# on a short arc.  If the following orbital elements say something
# like "[based on] 10 observations 2015 Jan. 1-13",  and the TLEs
# are for 2015 May,  the extrapolation may be tenuous at best.  If
# your application requires a specific level of accuracy,  you may
# want to contact me;  I can give you some idea as to the fit of the
# underlying data (and possibly TLEs based on newer data).
#
#   You can usually find the underlying observational data,  and the
# fitted orbit,  residuals,  ephemerides,  and sometimes some comments
# about the object,  among the pages listed at
#
#    https://www.projectpluto.com/pluto/mpecs/pseudo.htm
#
#    Also,  if you use a TLE outside the "correct" time range (between
# its MJD and that of the next TLE),  all bets are off.  I've carefully
# computed and minimized the worst error over the "correct" time frame,
# but the ephemeris may (or may not) diverge wildly outside of it.
#
# Ephem range: 61041.000000 61163.000000 1.000000
# Created Sat Mar 21 10:58:29 2026
# Ephemeris start:  1 Jan 2026  0:00:00
# Ephemeris end:    3 May 2026  0:00:00
# Times are all TDT
# Positions/velocities are in equatorial J2000
# Orbital elements:  A11yzB3 = ZTF10BT = C45UDK1
#    Perigee 2026 Mar 2.28162904 +/- 0.003403 TT =  6:45:32.748 (JD 2461101.78162904)
# A1: (142.2452 +/- 4.7966)e-7   A2: (-78.0038 +/- 7.4593)e-8
# A3: (-117.3059 +/- 5.2665)e-8 AU/day^2 [1/r^2]
# Epoch 2026 Mar  2.0 TT = JDT 2461101.5                           Gray
# M 260.70166252103 +/- 1.182         (J2000 equator)
# n 352.58557936304 +/- 0.072066      Peri.  336.18589270 +/- 0.2320
# a 42831.2230242 +/- 5.8366          Node     2.79435721 +/- 0.04150
# e   0.7832648785 +/- 0.00045863     Incl.   37.45330264 +/- 0.04523
# P1470.254m/1.021d          H 33.52  G  0.15   U 11.0
# q 9283.03032405 +/- 19.208    Q 76379.4157244 +/- 25.434
# From 18 observations 2026 Feb. 10-Mar. 21; mean residual 25".960/12.58 sigmas
#
# 1 NoradU COSPAR   Epoch.epoch     dn/dt/2  d2n/dt2/6 BSTAR    T El# C
# 2 NoradU Inclina RAAscNode Eccent  ArgPeri MeanAno  MeanMotion Rev# C

# Worst residual: 128.83 km
# MJD 61041.000000 (2026 Jan  1  0:00)
A11yzB3 = ZTF10BT = C45UDK1
1 79847U 26000ZZW 26001.49919926  .00000000  00000-0  00000-0 0 30029
2 79847 029.7387 022.1332 6707864 281.9736 230.6540 00.97806861    05

# Worst residual: 105.46 km
# MJD 61042.000000 (2026 Jan  2  0:00)
A11yzB3 = ZTF10BT = C45UDK1
1 79847U 26000ZZW 26002.49919926  .00000000  00000-0  00000-0 0 30020
2 79847 029.7657 021.8567 6742764 282.9468 222.1406 00.97742356    07

# Worst residual: 112.25 km
# MJD 61043.000000 (2026 Jan  3  0:00)
A11yzB3 = ZTF10BT = C45UDK1
1 79847U 26000ZZW 26003.49919926  .00000000  00000-0  00000-0 0 30021
2 79847 029.7946 021.5676 6777422 283.9473 213.5775 00.97685930    09

# Worst residual: 111.69 km
# MJD 61044.000000 (2026 Jan  4  0:00)
A11yzB3 = ZTF10BT = C45UDK1
1 79847U 26000ZZW 26004.49919926  .00000000  00000-0  00000-0 0 30022
2 79847 029.8295 021.2623 6812919 284.9713 204.9910 00.97649179    05

# Worst residual: 106.70 km
# MJD 61045.000000 (2026 Jan  5  0:00)
A11yzB3 = ZTF10BT = C45UDK1
1 79847U 26000ZZW 26005.49919926  .00000000  00000-0  00000-0 0 30023
2 79847 029.8673 020.9488 6848861 285.9926 196.4216 00.97626315    03

# Worst residual: 101.44 km
# MJD 61046.000000 (2026 Jan  6  0:00)
A11yzB3 = ZTF10BT = C45UDK1
1 79847U 26000ZZW 26006.49919926  .00000000  00000-0  00000-0 0 30024
2 79847 029.9093 020.6281 6884248 287.0103 187.8625 00.97614441    02

# Worst residual: 95.31 km
# MJD 61047.000000 (2026 Jan  7  0:00)
A11yzB3 = ZTF10BT = C45UDK1
1 79847U 26000ZZW 26007.49919926  .00000000  00000-0  00000-0 0 30025
2 79847 029.9554 020.3007 6919238 288.0245 179.3096 00.97610788    01

# Worst residual: 86.47 km
# MJD 61048.000000 (2026 Jan  8  0:00)
A11yzB3 = ZTF10BT = C45UDK1
1 79847U 26000ZZW 26008.49919926  .00000000  00000-0  00000-0 0 30026
2 79847 030.0037 019.9742 6954950 289.0296 170.7607 00.97618933    00

# Worst residual: 74.01 km
# MJD 61049.000000 (2026 Jan  9  0:00)
A11yzB3 = ZTF10BT = C45UDK1
1 79847U 26000ZZW 26009.49919926  .00000000  00000-0  00000-0 0 30027
2 79847 030.0555 019.6423 6991819 290.0331 162.2189 00.97635658    09

# Worst residual: 72.70 km
# MJD 61050.000000 (2026 Jan 10  0:00)
A11yzB3 = ZTF10BT = C45UDK1
1 79847U 26000ZZW 26010.49919926  .00000000  00000-0  00000-0 0 30029
2 79847 030.1087 019.3291 7027948 290.9962 153.7038 00.97655218    05

# Worst residual: 93.10 km
# MJD 61051.000000 (2026 Jan 11  0:00)
A11yzB3 = ZTF10BT = C45UDK1
1 79847U 26000ZZW 26011.49919926  .00000000  00000-0  00000-0 0 30020
2 79847 030.1599 019.0235 7063630 291.9413 145.1978 00.97677558    07

# Worst residual: 109.48 km
# MJD 61052.000000 (2026 Jan 12  0:00)
A11yzB3 = ZTF10BT = C45UDK1
1 79847U 26000ZZW 26012.49919926  .00000000  00000-0  00000-0 0 30021
2 79847 030.2379 018.6273 7098102 292.9824 136.6648 00.97693463    02

# Worst residual: 121.67 km
# MJD 61053.000000 (2026 Jan 13  0:00)
A11yzB3 = ZTF10BT = C45UDK1
1 79847U 26000ZZW 26013.49919926  .00000000  00000-0  00000-0 0 30022
2 79847 030.3000 018.2966 7130271 293.9448 128.1452 00.97734234    07

# Worst residual: 144.61 km
# MJD 61054.000000 (2026 Jan 14  0:00)
A11yzB3 = ZTF10BT = C45UDK1
1 79847U 26000ZZW 26014.49919926  .00000000  00000-0  00000-0 0 30023
2 79847 030.3662 017.9736 7164517 294.9062 119.5879 00.97754764    02

# Worst residual: 157.59 km
# MJD 61055.000000 (2026 Jan 15  0:00)
A11yzB3 = ZTF10BT = C45UDK1
1 79847U 26000ZZW 26015.49919926  .00000000  00000-0  00000-0 0 30024
2 79847 030.4418 017.6209 7196833 295.8769 111.0622 00.97792814    05

# Worst residual: 159.79 km
# MJD 61056.000000 (2026 Jan 16  0:00)
A11yzB3 = ZTF10BT = C45UDK1
1 79847U 26000ZZW 26016.49919926  .00000000  00000-0  00000-0 0 30025
2 79847 030.5164 017.2750 7228090 296.8277 102.5411 00.97835811    03

# Worst residual: 169.43 km
# MJD 61057.000000 (2026 Jan 17  0:00)
A11yzB3 = ZTF10BT = C45UDK1
1 79847U 26000ZZW 26017.49919926  .00000000  00000-0  00000-0 0 30026
2 79847 030.5905 016.9153 7255531 297.8074 093.9769 00.97863924    00

# Worst residual: 168.86 km
# MJD 61058.000000 (2026 Jan 18  0:00)
A11yzB3 = ZTF10BT = C45UDK1
1 79847U 26000ZZW 26018.49919926  .00000000  00000-0  00000-0 0 30027
2 79847 030.7020 016.5393 7285744 298.7884 085.4172 00.97928566    08

# Worst residual: 168.97 km
# MJD 61059.000000 (2026 Jan 19  0:00)
A11yzB3 = ZTF10BT = C45UDK1
1 79847U 26000ZZW 26019.49919926  .00000000  00000-0  00000-0 0 30028
2 79847 030.7895 016.1613 7312988 299.7722 076.8508 00.97961820    09

# Worst residual: 177.48 km
# MJD 61060.000000 (2026 Jan 20  0:00)
A11yzB3 = ZTF10BT = C45UDK1
1 79847U 26000ZZW 26020.49919926  .00000000  00000-0  00000-0 0 30020
2 79847 030.8887 015.7844 7339693 300.7414 068.2948 00.98011649    04

# Worst residual: 173.40 km
# MJD 61061.000000 (2026 Jan 21  0:00)
A11yzB3 = ZTF10BT = C45UDK1
1 79847U 26000ZZW 26021.49919926  .00000000  00000-0  00000-0 0 30021
2 79847 030.9878 015.4218 7364301 301.7119 059.7066 00.98050211    08

# Worst residual: 178.25 km
# MJD 61062.000000 (2026 Jan 22  0:00)
A11yzB3 = ZTF10BT = C45UDK1
1 79847U 26000ZZW 26022.49919926  .00000000  00000-0  00000-0 0 30022
2 79847 031.0958 015.0265 7390217 302.6908 051.1180 00.98111955    04

# Worst residual: 171.48 km
# MJD 61063.000000 (2026 Jan 23  0:00)
A11yzB3 = ZTF10BT = C45UDK1
1 79847U 26000ZZW 26023.49919926  .00000000  00000-0  00000-0 0 30023
2 79847 031.2119 014.6425 7413961 303.6792 042.4732 00.98148611    07

# Worst residual: 159.61 km
# MJD 61064.000000 (2026 Jan 24  0:00)
A11yzB3 = ZTF10BT = C45UDK1
1 79847U 26000ZZW 26024.49919926  .00000000  00000-0  00000-0 0 30024
2 79847 031.3314 014.2485 7436995 304.6720 033.8440 00.98183849    03

# Worst residual: 149.78 km
# MJD 61065.000000 (2026 Jan 25  0:00)
A11yzB3 = ZTF10BT = C45UDK1
1 79847U 26000ZZW 26025.49919926  .00000000  00000-0  00000-0 0 30025
2 79847 031.4519 013.8622 7459010 305.6523 025.2051 00.98225397    02

# Worst residual: 142.11 km
# MJD 61066.000000 (2026 Jan 26  0:00)
A11yzB3 = ZTF10BT = C45UDK1
1 79847U 26000ZZW 26026.49919926  .00000000  00000-0  00000-0 0 30026
2 79847 031.5796 013.4776 7481077 306.6253 016.5419 00.98235668    08

# Worst residual: 127.38 km
# MJD 61067.000000 (2026 Jan 27  0:00)
A11yzB3 = ZTF10BT = C45UDK1
1 79847U 26000ZZW 26027.49919926  .00000000  00000-0  00000-0 0 30027
2 79847 031.7103 013.0911 7502540 307.6046 007.8707 00.98242125    08

# Worst residual: 139.67 km
# MJD 61068.000000 (2026 Jan 28  0:00)
A11yzB3 = ZTF10BT = C45UDK1
1 79847U 26000ZZW 26028.49919926  .00000000  00000-0  00000-0 0 30028
2 79847 031.8457 012.7042 7524035 308.5717 359.2216 00.98236995    07

# Worst residual: 145.61 km
# MJD 61069.000000 (2026 Jan 29  0:00)
A11yzB3 = ZTF10BT = C45UDK1
1 79847U 26000ZZW 26029.49919926  .00000000  00000-0  00000-0 0 30029
2 79847 031.9824 012.3117 7545161 309.5307 350.5894 00.98219491    02

# Worst residual: 168.01 km
# MJD 61070.000000 (2026 Jan 30  0:00)
A11yzB3 = ZTF10BT = C45UDK1
1 79847U 26000ZZW 26030.49919926  .00000000  00000-0  00000-0 0 30021
2 79847 032.1274 011.9353 7564804 310.4890 341.9263 00.98198774    08

# Worst residual: 178.49 km
# MJD 61071.000000 (2026 Jan 31  0:00)
A11yzB3 = ZTF10BT = C45UDK1
1 79847U 26000ZZW 26031.49919926  .00000000  00000-0  00000-0 0 30022
2 79847 032.2749 011.5501 7586214 311.4473 333.2655 00.98151701    02

# Worst residual: 191.59 km
# MJD 61072.000000 (2026 Feb  1  0:00)
A11yzB3 = ZTF10BT = C45UDK1
1 79847U 26000ZZW 26032.49919926  .00000000  00000-0  00000-0 0 30023
2 79847 032.4246 011.1739 7605270 312.3984 324.6050 00.98133754    07

# Worst residual: 194.37 km
# MJD 61073.000000 (2026 Feb  2  0:00)
A11yzB3 = ZTF10BT = C45UDK1
1 79847U 26000ZZW 26033.49919926  .00000000  00000-0  00000-0 0 30024
2 79847 032.5775 010.7800 7622826 313.3580 315.9550 00.98106481    03

# Worst residual: 187.43 km
# MJD 61074.000000 (2026 Feb  3  0:00)
A11yzB3 = ZTF10BT = C45UDK1
1 79847U 26000ZZW 26034.49919926  .00000000  00000-0  00000-0 0 30025
2 79847 032.7437 010.3864 7638655 314.3032 307.3441 00.98032143    03

# Worst residual: 191.48 km
# MJD 61075.000000 (2026 Feb  4  0:00)
A11yzB3 = ZTF10BT = C45UDK1
1 79847U 26000ZZW 26035.49919926  .00000000  00000-0  00000-0 0 30026
2 79847 032.8858 010.0839 7654313 315.1824 298.7265 00.97984827    08

# Worst residual: 187.25 km
# MJD 61076.000000 (2026 Feb  5  0:00)
A11yzB3 = ZTF10BT = C45UDK1
1 79847U 26000ZZW 26036.49919926  .00000000  00000-0  00000-0 0 30027
2 79847 033.0631 009.6925 7668512 316.1235 290.1219 00.97938450    09

# Worst residual: 180.32 km
# MJD 61077.000000 (2026 Feb  6  0:00)
A11yzB3 = ZTF10BT = C45UDK1
1 79847U 26000ZZW 26037.49919926  .00000000  00000-0  00000-0 0 30028
2 79847 033.2216 009.3478 7680670 317.0156 281.5391 00.97919109    06

# Worst residual: 165.43 km
# MJD 61078.000000 (2026 Feb  7  0:00)
A11yzB3 = ZTF10BT = C45UDK1
1 79847U 26000ZZW 26038.49919926  .00000000  00000-0  00000-0 0 30029
2 79847 033.3853 009.0037 7692137 317.9016 272.9800 00.97878053    08

# Worst residual: 182.92 km
# MJD 61079.000000 (2026 Feb  8  0:00)
A11yzB3 = ZTF10BT = C45UDK1
1 79847U 26000ZZW 26039.49919926  .00000000  00000-0  00000-0 0 30020
2 79847 033.5481 008.6699 7702686 318.7822 264.4100 00.97836781    02

# Worst residual: 201.54 km
# MJD 61080.000000 (2026 Feb  9  0:00)
A11yzB3 = ZTF10BT = C45UDK1
1 79847U 26000ZZW 26040.49919926  .00000000  00000-0  00000-0 0 30022
2 79847 033.7121 008.3441 7713140 319.6621 255.8246 00.97799622    08

# Worst residual: 172.93 km
# MJD 61081.000000 (2026 Feb 10  0:00)
A11yzB3 = ZTF10BT = C45UDK1
1 79847U 26000ZZW 26041.49919926  .00000000  00000-0  00000-0 0 30023
2 79847 033.8916 008.0085 7724192 320.5498 247.2636 00.97776863    04

# Worst residual: 154.47 km
# MJD 61082.000000 (2026 Feb 11  0:00)
A11yzB3 = ZTF10BT = C45UDK1
1 79847U 26000ZZW 26042.49919926  .00000000  00000-0  00000-0 0 30024
2 79847 034.0561 007.6937 7732851 321.4066 238.7129 00.97746232    05

# Worst residual: 123.35 km
# MJD 61083.000000 (2026 Feb 12  0:00)
A11yzB3 = ZTF10BT = C45UDK1
1 79847U 26000ZZW 26043.49919926  .00000000  00000-0  00000-0 0 30025
2 79847 034.2216 007.3776 7739792 322.2654 230.1669 00.97710275    08

# Worst residual: 77.32 km
# MJD 61084.000000 (2026 Feb 13  0:00)
A11yzB3 = ZTF10BT = C45UDK1
1 79847U 26000ZZW 26044.49919926  .00000000  00000-0  00000-0 0 30026
2 79847 034.3958 007.0858 7744816 323.1244 221.5896 00.97675748    09

# Worst residual: 56.16 km
# MJD 61085.000000 (2026 Feb 14  0:00)
A11yzB3 = ZTF10BT = C45UDK1
1 79847U 26000ZZW 26045.49919926  .00000000  00000-0  00000-0 0 30027
2 79847 034.5785 006.7797 7750800 323.9967 213.0052 00.97646542    07

# Worst residual: 62.18 km
# MJD 61086.000000 (2026 Feb 15  0:00)
A11yzB3 = ZTF10BT = C45UDK1
1 79847U 26000ZZW 26046.49919926  .00000000  00000-0  00000-0 0 30028
2 79847 034.7631 006.4780 7758176 324.8616 204.4430 00.97637000    06

# Worst residual: 59.06 km
# MJD 61087.000000 (2026 Feb 16  0:00)
A11yzB3 = ZTF10BT = C45UDK1
1 79847U 26000ZZW 26047.49919926  .00000000  00000-0  00000-0 0 30029
2 79847 034.9477 006.1850 7765516 325.7178 195.8913 00.97639271    01

# Worst residual: 58.90 km
# MJD 61088.000000 (2026 Feb 17  0:00)
A11yzB3 = ZTF10BT = C45UDK1
1 79847U 26000ZZW 26048.49919926  .00000000  00000-0  00000-0 0 30020
2 79847 035.1294 005.9034 7771542 326.5589 187.3590 00.97636052    04

# Worst residual: 56.73 km
# MJD 61089.000000 (2026 Feb 18  0:00)
A11yzB3 = ZTF10BT = C45UDK1
1 79847U 26000ZZW 26049.49919926  .00000000  00000-0  00000-0 0 30021
2 79847 035.3143 005.6257 7777737 327.3997 178.8195 00.97645189    04

# Worst residual: 52.86 km
# MJD 61090.000000 (2026 Feb 19  0:00)
A11yzB3 = ZTF10BT = C45UDK1
1 79847U 26000ZZW 26050.49919926  .00000000  00000-0  00000-0 0 30023
2 79847 035.4860 005.3677 7785252 328.2224 170.2737 00.97669695    04

# Worst residual: 90.53 km
# MJD 61091.000000 (2026 Feb 20  0:00)
A11yzB3 = ZTF10BT = C45UDK1
1 79847U 26000ZZW 26051.49919926  .00000000  00000-0  00000-0 0 30024
2 79847 035.6677 005.1093 7793760 329.0391 161.7675 00.97704680    09

# Worst residual: 114.07 km
# MJD 61092.000000 (2026 Feb 21  0:00)
A11yzB3 = ZTF10BT = C45UDK1
1 79847U 26000ZZW 26052.49919926  .00000000  00000-0  00000-0 0 30025
2 79847 035.8251 004.8777 7800474 329.8355 153.2681 00.97733675    02

# Worst residual: 136.43 km
# MJD 61093.000000 (2026 Feb 22  0:00)
A11yzB3 = ZTF10BT = C45UDK1
1 79847U 26000ZZW 26053.49919926  .00000000  00000-0  00000-0 0 30026
2 79847 036.0158 004.6290 7806220 330.6230 144.7797 00.97753747    01

# Worst residual: 158.01 km
# MJD 61094.000000 (2026 Feb 23  0:00)
A11yzB3 = ZTF10BT = C45UDK1
1 79847U 26000ZZW 26054.49919926  .00000000  00000-0  00000-0 0 30027
2 79847 036.1988 004.3885 7808863 331.4216 136.2726 00.97785297    01

# Worst residual: 154.22 km
# MJD 61095.000000 (2026 Feb 24  0:00)
A11yzB3 = ZTF10BT = C45UDK1
1 79847U 26000ZZW 26055.49919926  .00000000  00000-0  00000-0 0 30028
2 79847 036.3562 004.1642 7812322 332.1975 127.7752 00.97824445    08

# Worst residual: 143.23 km
# MJD 61096.000000 (2026 Feb 25  0:00)
A11yzB3 = ZTF10BT = C45UDK1
1 79847U 26000ZZW 26056.49919926  .00000000  00000-0  00000-0 0 30029
2 79847 036.5543 003.9518 7816302 332.9693 119.2828 00.97867762    04

# Worst residual: 153.35 km
# MJD 61097.000000 (2026 Feb 26  0:00)
A11yzB3 = ZTF10BT = C45UDK1
1 79847U 26000ZZW 26057.49919926  .00000000  00000-0  00000-0 0 30020
2 79847 036.7078 003.7359 7819316 333.7180 110.8283 00.97898374    03

# Worst residual: 170.88 km
# MJD 61098.000000 (2026 Feb 27  0:00)
A11yzB3 = ZTF10BT = C45UDK1
1 79847U 26000ZZW 26058.49919926  .00000000  00000-0  00000-0 0 30021
2 79847 036.8860 003.5303 7816665 334.4916 102.3522 00.97928941    05

# Worst residual: 181.92 km
# MJD 61099.000000 (2026 Feb 28  0:00)
A11yzB3 = ZTF10BT = C45UDK1
1 79847U 26000ZZW 26059.49919926  .00000000  00000-0  00000-0 0 30022
2 79847 037.0605 003.3215 7820132 335.2330 093.8905 00.97979886    01

# Worst residual: 187.66 km
# MJD 61100.000000 (2026 Mar  1  0:00)
A11yzB3 = ZTF10BT = C45UDK1
1 79847U 26000ZZW 26060.49919926  .00000000  00000-0  00000-0 0 30024
2 79847 037.2426 003.1171 7820252 336.0008 085.3986 00.98025474    08

# Worst residual: 184.35 km
# MJD 61101.000000 (2026 Mar  2  0:00)
A11yzB3 = ZTF10BT = C45UDK1
1 79847U 26000ZZW 26061.49919926  .00000000  00000-0  00000-0 0 30025
2 79847 037.3886 002.9385 7821925 336.7355 076.9153 00.98067709    02

# Worst residual: 199.82 km
# MJD 61102.000000 (2026 Mar  3  0:00)
A11yzB3 = ZTF10BT = C45UDK1
1 79847U 26000ZZW 26062.49919926  .00000000  00000-0  00000-0 0 30026
2 79847 037.5668 002.7497 7818908 337.4757 068.4562 00.98125403    01

# Worst residual: 197.11 km
# MJD 61103.000000 (2026 Mar  4  0:00)
A11yzB3 = ZTF10BT = C45UDK1
1 79847U 26000ZZW 26063.49919926  .00000000  00000-0  00000-0 0 30027
2 79847 037.7317 002.5713 7815071 338.2206 059.9624 00.98168138    05

# Worst residual: 187.02 km
# MJD 61104.000000 (2026 Mar  5  0:00)
A11yzB3 = ZTF10BT = C45UDK1
1 79847U 26000ZZW 26064.49919926  .00000000  00000-0  00000-0 0 30028
2 79847 037.8661 002.4105 7810685 338.9523 051.4654 00.98202006    00

# Worst residual: 174.44 km
# MJD 61105.000000 (2026 Mar  6  0:00)
A11yzB3 = ZTF10BT = C45UDK1
1 79847U 26000ZZW 26065.49919926  .00000000  00000-0  00000-0 0 30029
2 79847 038.0437 002.2389 7806344 339.6925 042.9856 00.98238097    05

# Worst residual: 156.46 km
# MJD 61106.000000 (2026 Mar  7  0:00)
A11yzB3 = ZTF10BT = C45UDK1
1 79847U 26000ZZW 26066.49919926  .00000000  00000-0  00000-0 0 30020
2 79847 038.1990 002.0777 7801669 340.4009 034.5795 00.98246692    06

# Worst residual: 142.20 km
# MJD 61107.000000 (2026 Mar  8  0:00)
A11yzB3 = ZTF10BT = C45UDK1
1 79847U 26000ZZW 26067.49919926  .00000000  00000-0  00000-0 0 30021
2 79847 038.3305 001.9382 7796235 341.0862 026.1611 00.98249336    06

# Worst residual: 123.26 km
# MJD 61108.000000 (2026 Mar  9  0:00)
A11yzB3 = ZTF10BT = C45UDK1
1 79847U 26000ZZW 26068.49919926  .00000000  00000-0  00000-0 0 30022
2 79847 038.4569 001.7916 7790713 341.7790 017.6913 00.98236149    00

# Worst residual: 111.00 km
# MJD 61109.000000 (2026 Mar 10  0:00)
A11yzB3 = ZTF10BT = C45UDK1
1 79847U 26000ZZW 26069.49919926  .00000000  00000-0  00000-0 0 30023
2 79847 038.5685 001.6669 7784368 342.4558 009.1531 00.98196590    00

# Worst residual: 121.03 km
# MJD 61110.000000 (2026 Mar 11  0:00)
A11yzB3 = ZTF10BT = C45UDK1
1 79847U 26000ZZW 26070.49919926  .00000000  00000-0  00000-0 0 30025
2 79847 038.6827 001.5397 7778912 343.1205 000.5418 00.98146429    06

# Worst residual: 129.12 km
# MJD 61111.000000 (2026 Mar 12  0:00)
A11yzB3 = ZTF10BT = C45UDK1
1 79847U 26000ZZW 26071.49919926  .00000000  00000-0  00000-0 0 30026
2 79847 038.7936 001.4164 7771979 343.7781 351.8219 00.98081202    08

# Worst residual: 117.80 km
# MJD 61112.000000 (2026 Mar 13  0:00)
A11yzB3 = ZTF10BT = C45UDK1
1 79847U 26000ZZW 26072.49919926  .00000000  00000-0  00000-0 0 30027
2 79847 038.9067 001.2889 7765174 344.4384 342.9640 00.97988469    03

# Worst residual: 122.48 km
# MJD 61113.000000 (2026 Mar 14  0:00)
A11yzB3 = ZTF10BT = C45UDK1
1 79847U 26000ZZW 26073.49919926  .00000000  00000-0  00000-0 0 30028
2 79847 038.9946 001.1857 7758225 345.0923 333.9349 00.97921764    09

# Worst residual: 121.86 km
# MJD 61114.000000 (2026 Mar 15  0:00)
A11yzB3 = ZTF10BT = C45UDK1
1 79847U 26000ZZW 26074.49919926  .00000000  00000-0  00000-0 0 30029
2 79847 039.0871 001.0774 7749218 345.7245 324.7731 00.97828708    08

# Worst residual: 124.76 km
# MJD 61115.000000 (2026 Mar 16  0:00)
A11yzB3 = ZTF10BT = C45UDK1
1 79847U 26000ZZW 26075.49919926  .00000000  00000-0  00000-0 0 30020
2 79847 039.1667 000.9749 7740342 346.3582 315.4503 00.97725216    06

# Worst residual: 137.82 km
# MJD 61116.000000 (2026 Mar 17  0:00)
A11yzB3 = ZTF10BT = C45UDK1
1 79847U 26000ZZW 26076.49919926  .00000000  00000-0  00000-0 0 30021
2 79847 039.2605 000.8705 7729150 346.9859 305.9049 00.97625177    01

# Worst residual: 140.31 km
# MJD 61117.000000 (2026 Mar 18  0:00)
A11yzB3 = ZTF10BT = C45UDK1
1 79847U 26000ZZW 26077.49919926  .00000000  00000-0  00000-0 0 30022
2 79847 039.3382 000.7733 7718510 347.6163 296.1493 00.97523025    01

# Worst residual: 136.22 km
# MJD 61118.000000 (2026 Mar 19  0:00)
A11yzB3 = ZTF10BT = C45UDK1
1 79847U 26000ZZW 26078.49919926  .00000000  00000-0  00000-0 0 30023
2 79847 039.4149 000.6748 7708553 348.2440 286.1943 00.97419433    05

# Worst residual: 139.33 km
# MJD 61119.000000 (2026 Mar 20  0:00)
A11yzB3 = ZTF10BT = C45UDK1
1 79847U 26000ZZW 26079.49919926  .00000000  00000-0  00000-0 0 30024
2 79847 039.4866 000.5879 7694751 348.8575 276.0160 00.97313923    00

# Worst residual: 130.66 km
# MJD 61120.000000 (2026 Mar 21  0:00)
A11yzB3 = ZTF10BT = C45UDK1
1 79847U 26000ZZW 26080.49919926  .00000000  00000-0  00000-0 0 30026
2 79847 039.5531 000.5006 7680829 349.4822 265.5790 00.97205594    01

# Worst residual: 106.15 km
# MJD 61121.000000 (2026 Mar 22  0:00)
A11yzB3 = ZTF10BT = C45UDK1
1 79847U 26000ZZW 26081.49919926  .00000000  00000-0  00000-0 0 30027
2 79847 039.6101 000.4231 7667123 350.1108 254.8852 00.97098516    06

# Worst residual: 79.48 km
# MJD 61122.000000 (2026 Mar 23  0:00)
A11yzB3 = ZTF10BT = C45UDK1
1 79847U 26000ZZW 26082.49919926  .00000000  00000-0  00000-0 0 30028
2 79847 039.6767 000.3399 7652359 350.7406 243.9560 00.97011423    07

# Worst residual: 55.33 km
# MJD 61123.000000 (2026 Mar 24  0:00)
A11yzB3 = ZTF10BT = C45UDK1
1 79847U 26000ZZW 26083.49919926  .00000000  00000-0  00000-0 0 30029
2 79847 039.7315 000.2596 7636032 351.3645 232.7830 00.96906306    05

# Worst residual: 57.28 km
# MJD 61124.000000 (2026 Mar 25  0:00)
A11yzB3 = ZTF10BT = C45UDK1
1 79847U 26000ZZW 26084.49919926  .00000000  00000-0  00000-0 0 30020
2 79847 039.7808 000.1864 7618821 351.9997 221.3223 00.96803204    04

# Worst residual: 61.70 km
# MJD 61125.000000 (2026 Mar 26  0:00)
A11yzB3 = ZTF10BT = C45UDK1
1 79847U 26000ZZW 26085.49919926  .00000000  00000-0  00000-0 0 30021
2 79847 039.8326 000.1145 7603964 352.6398 209.6001 00.96719767    00

# Worst residual: 62.93 km
# MJD 61126.000000 (2026 Mar 27  0:00)
A11yzB3 = ZTF10BT = C45UDK1
1 79847U 26000ZZW 26086.49919926  .00000000  00000-0  00000-0 0 30022
2 79847 039.8903 000.0435 7589561 353.2746 197.6307 00.96647205    04

# Worst residual: 65.24 km
# MJD 61127.000000 (2026 Mar 28  0:00)
A11yzB3 = ZTF10BT = C45UDK1
1 79847U 26000ZZW 26087.49919926  .00000000  00000-0  00000-0 0 30023
2 79847 039.9298 359.9774 7574927 353.9209 185.3784 00.96576235    02

# Worst residual: 85.01 km
# MJD 61128.000000 (2026 Mar 29  0:00)
A11yzB3 = ZTF10BT = C45UDK1
1 79847U 26000ZZW 26088.49919926  .00000000  00000-0  00000-0 0 30024
2 79847 039.9680 359.9146 7563074 354.5645 172.8672 00.96545605    06

# Worst residual: 99.76 km
# MJD 61129.000000 (2026 Mar 30  0:00)
A11yzB3 = ZTF10BT = C45UDK1
1 79847U 26000ZZW 26089.49919926  .00000000  00000-0  00000-0 0 30025
2 79847 039.9992 359.8505 7554292 355.2065 160.1077 00.96528885    06

# Worst residual: 125.82 km
# MJD 61130.000000 (2026 Mar 31  0:00)
A11yzB3 = ZTF10BT = C45UDK1
1 79847U 26000ZZW 26090.49919926  .00000000  00000-0  00000-0 0 30027
2 79847 040.0273 359.7924 7540872 355.8215 147.1367 00.96504956    07

# Worst residual: 162.38 km
# MJD 61131.000000 (2026 Apr  1  0:00)
A11yzB3 = ZTF10BT = C45UDK1
1 79847U 26000ZZW 26091.49919926  .00000000  00000-0  00000-0 0 30028
2 79847 040.0538 359.7357 7524912 356.4523 133.8902 00.96485917    09

# Worst residual: 165.93 km
# MJD 61132.000000 (2026 Apr  2  0:00)
A11yzB3 = ZTF10BT = C45UDK1
1 79847U 26000ZZW 26092.49919926  .00000000  00000-0  00000-0 0 30029
2 79847 040.0763 359.6804 7509769 357.0793 120.4179 00.96492502    00

# Worst residual: 154.45 km
# MJD 61133.000000 (2026 Apr  3  0:00)
A11yzB3 = ZTF10BT = C45UDK1
1 79847U 26000ZZW 26093.49919926  .00000000  00000-0  00000-0 0 30020
2 79847 040.0932 359.6268 7492243 357.6934 106.7637 00.96504462    08

# Worst residual: 150.34 km
# MJD 61134.000000 (2026 Apr  4  0:00)
A11yzB3 = ZTF10BT = C45UDK1
1 79847U 26000ZZW 26094.49919926  .00000000  00000-0  00000-0 0 30021
2 79847 040.0870 359.5720 7472510 358.3311 092.8360 00.96508035    01

# Worst residual: 168.46 km
# MJD 61135.000000 (2026 Apr  5  0:00)
A11yzB3 = ZTF10BT = C45UDK1
1 79847U 26000ZZW 26095.49919926  .00000000  00000-0  00000-0 0 30022
2 79847 040.1001 359.5177 7451117 358.9651 078.7677 00.96537050    00

# Worst residual: 170.28 km
# MJD 61136.000000 (2026 Apr  6  0:00)
A11yzB3 = ZTF10BT = C45UDK1
1 79847U 26000ZZW 26096.49919926  .00000000  00000-0  00000-0 0 30023
2 79847 040.0982 359.4784 7429869 359.5977 064.5238 00.96571375    01

# Worst residual: 143.93 km
# MJD 61137.000000 (2026 Apr  7  0:00)
A11yzB3 = ZTF10BT = C45UDK1
1 79847U 26000ZZW 26097.49919926  .00000000  00000-0  00000-0 0 30024
2 79847 040.1475 359.4323 7406698 000.2676 050.0577 00.96580185    04

# Worst residual: 123.18 km
# MJD 61138.000000 (2026 Apr  8  0:00)
A11yzB3 = ZTF10BT = C45UDK1
1 79847U 26000ZZW 26098.49919926  .00000000  00000-0  00000-0 0 30025
2 79847 040.1289 359.3753 7383672 000.9518 035.5470 00.96620969    06

# Worst residual: 145.69 km
# MJD 61139.000000 (2026 Apr  9  0:00)
A11yzB3 = ZTF10BT = C45UDK1
1 79847U 26000ZZW 26099.49919926  .00000000  00000-0  00000-0 0 30026
2 79847 040.1189 359.3186 7359951 001.6578 020.9746 00.96615982    05

# Worst residual: 169.43 km
# MJD 61140.000000 (2026 Apr 10  0:00)
A11yzB3 = ZTF10BT = C45UDK1
1 79847U 26000ZZW 26100.49919926  .00000000  00000-0  00000-0 0 30029
2 79847 040.1054 359.2722 7337610 002.3551 006.3994 00.96581700    01

# Worst residual: 191.19 km
# MJD 61141.000000 (2026 Apr 11  0:00)
A11yzB3 = ZTF10BT = C45UDK1
1 79847U 26000ZZW 26101.49919926  .00000000  00000-0  00000-0 0 30020
2 79847 040.1012 359.2333 7313970 003.0380 351.8955 00.96531259    03

# Worst residual: 194.43 km
# MJD 61142.000000 (2026 Apr 12  0:00)
A11yzB3 = ZTF10BT = C45UDK1
1 79847U 26000ZZW 26102.49919926  .00000000  00000-0  00000-0 0 30021
2 79847 040.0833 359.1862 7290295 003.7350 337.3833 00.96459557    01

# Worst residual: 180.10 km
# MJD 61143.000000 (2026 Apr 13  0:00)
A11yzB3 = ZTF10BT = C45UDK1
1 79847U 26000ZZW 26103.49919926  .00000000  00000-0  00000-0 0 30022
2 79847 040.0605 359.1392 7266534 004.4166 322.9383 00.96380375    09

# Worst residual: 162.39 km
# MJD 61144.000000 (2026 Apr 14  0:00)
A11yzB3 = ZTF10BT = C45UDK1
1 79847U 26000ZZW 26104.49919926  .00000000  00000-0  00000-0 0 30023
2 79847 040.0364 359.0923 7240247 005.0978 308.5215 00.96301028    03

# Worst residual: 146.22 km
# MJD 61145.000000 (2026 Apr 15  0:00)
A11yzB3 = ZTF10BT = C45UDK1
1 79847U 26000ZZW 26105.49919926  .00000000  00000-0  00000-0 0 30024
2 79847 040.0101 359.0439 7214704 005.7952 294.1215 00.96226849    09

# Worst residual: 150.51 km
# MJD 61146.000000 (2026 Apr 16  0:00)
A11yzB3 = ZTF10BT = C45UDK1
1 79847U 26000ZZW 26106.49919926  .00000000  00000-0  00000-0 0 30025
2 79847 039.9785 358.9977 7185705 006.4679 279.7685 00.96171301    03

# Worst residual: 129.02 km
# MJD 61147.000000 (2026 Apr 17  0:00)
A11yzB3 = ZTF10BT = C45UDK1
1 79847U 26000ZZW 26107.49919926  .00000000  00000-0  00000-0 0 30026
2 79847 039.9495 358.9545 7155987 007.1673 265.4155 00.96119174    07

# Worst residual: 96.53 km
# MJD 61148.000000 (2026 Apr 18  0:00)
A11yzB3 = ZTF10BT = C45UDK1
1 79847U 26000ZZW 26108.49919926  .00000000  00000-0  00000-0 0 30027
2 79847 039.9114 358.9022 7125971 007.8747 251.0645 00.96076045    08

# Worst residual: 58.97 km
# MJD 61149.000000 (2026 Apr 19  0:00)
A11yzB3 = ZTF10BT = C45UDK1
1 79847U 26000ZZW 26109.49919926  .00000000  00000-0  00000-0 0 30028
2 79847 039.8745 358.8538 7094271 008.5871 236.7449 00.96041124    04

# Worst residual: 57.16 km
# MJD 61150.000000 (2026 Apr 20  0:00)
A11yzB3 = ZTF10BT = C45UDK1
1 79847U 26000ZZW 26110.49919926  .00000000  00000-0  00000-0 0 30020
2 79847 039.8338 358.8040 7061790 009.3228 222.4008 00.96010705    09

# Worst residual: 62.82 km
# MJD 61151.000000 (2026 Apr 21  0:00)
A11yzB3 = ZTF10BT = C45UDK1
1 79847U 26000ZZW 26111.49919926  .00000000  00000-0  00000-0 0 30021
2 79847 039.7878 358.7529 7033126 010.0687 208.0717 00.96020323    02

# Worst residual: 67.14 km
# MJD 61152.000000 (2026 Apr 22  0:00)
A11yzB3 = ZTF10BT = C45UDK1
1 79847U 26000ZZW 26112.49919926  .00000000  00000-0  00000-0 0 30022
2 79847 039.7408 358.6995 7005000 010.8167 193.7581 00.96038955    07

# Worst residual: 80.98 km
# MJD 61153.000000 (2026 Apr 23  0:00)
A11yzB3 = ZTF10BT = C45UDK1
1 79847U 26000ZZW 26113.49919926  .00000000  00000-0  00000-0 0 30023
2 79847 039.7003 358.6528 6978712 011.5637 179.4469 00.96082951    09

# Worst residual: 145.57 km
# MJD 61154.000000 (2026 Apr 24  0:00)
A11yzB3 = ZTF10BT = C45UDK1
1 79847U 26000ZZW 26114.49919926  .00000000  00000-0  00000-0 0 30024
2 79847 039.6386 358.5896 6956182 012.3113 165.1670 00.96163593    02

# Worst residual: 167.19 km
# MJD 61155.000000 (2026 Apr 25  0:00)
A11yzB3 = ZTF10BT = C45UDK1
1 79847U 26000ZZW 26115.49919926  .00000000  00000-0  00000-0 0 30025
2 79847 039.5963 358.5278 6934145 013.0345 150.9431 00.96238341    07

# Worst residual: 193.38 km
# MJD 61156.000000 (2026 Apr 26  0:00)
A11yzB3 = ZTF10BT = C45UDK1
1 79847U 26000ZZW 26116.49919926  .00000000  00000-0  00000-0 0 30026
2 79847 039.5573 358.4906 6905349 013.7419 136.7282 00.96304251    04

# Worst residual: 155.22 km
# MJD 61157.000000 (2026 Apr 27  0:00)
A11yzB3 = ZTF10BT = C45UDK1
1 79847U 26000ZZW 26117.49919926  .00000000  00000-0  00000-0 0 30027
2 79847 039.4831 358.4158 6877554 014.4840 122.4750 00.96374775    01

# Worst residual: 162.66 km
# MJD 61158.000000 (2026 Apr 28  0:00)
A11yzB3 = ZTF10BT = C45UDK1
1 79847U 26000ZZW 26118.49919926  .00000000  00000-0  00000-0 0 30028
2 79847 039.4258 358.3463 6847513 015.2211 108.2574 00.96461732    01

# Worst residual: 160.25 km
# MJD 61159.000000 (2026 Apr 29  0:00)
A11yzB3 = ZTF10BT = C45UDK1
1 79847U 26000ZZW 26119.49919926  .00000000  00000-0  00000-0 0 30029
2 79847 039.3675 358.2909 6815485 015.9560 094.0004 00.96527654    00

# Worst residual: 145.03 km
# MJD 61160.000000 (2026 Apr 30  0:00)
A11yzB3 = ZTF10BT = C45UDK1
1 79847U 26000ZZW 26120.49919926  .00000000  00000-0  00000-0 0 30021
2 79847 039.2996 358.2200 6781171 016.7224 079.7293 00.96600095    00

# Worst residual: 131.57 km
# MJD 61161.000000 (2026 May  1  0:00)
A11yzB3 = ZTF10BT = C45UDK1
1 79847U 26000ZZW 26121.49919926  .00000000  00000-0  00000-0 0 30022
2 79847 039.2419 358.1488 6747167 017.4968 065.4445 00.96662742    05

# Worst residual: 114.29 km
# MJD 61162.000000 (2026 May  2  0:00)
A11yzB3 = ZTF10BT = C45UDK1
1 79847U 26000ZZW 26122.49919926  .00000000  00000-0  00000-0 0 30023
2 79847 039.1754 358.0876 6710721 018.2727 051.1357 00.96698545    08
Avg worst resid: 134.83 km
Worst residual in entire run: 201.54 km on MJD 61080.0
       1     3     10    30    100   300   1K    3K    10K   km
     0     0     0     0    27    95     0     0     0     0
