# Made by eph2tle, compiled Apr  3 2026 17:19:25
# Run at Thu Apr 23 01:55:26 2026 UTC
#
#    The following TLEs (Two-Line Elements) were generated by fitting
# a numerically-integrated ephemeris,  based on the orbit given below,
# to the SDP4/SGP4 models.  Each TLE is good for the interval between
# its epoch and the epoch of the subsequent TLE (usually one day).
# The maximum deviation between the numerically integrated ephemerides
# and the TLE-based ephemeris, in kilometers,  is given for each TLE
# as the "worst residual".
#
#    This fitting is done using the 'eph2tle' code packaged with Find_Orb.
# The code has details on how the TLEs were computed :
#
#    https://github.com/Bill-Gray/find_orb/eph2tle.cpp
#
#    Be warned:  the error given is that between the numerically
# integrated ephems and the TLE model.  There will usually be at
# least some additional difference between the ephems and the actual
# motion of the satellite,  especially if the ephemerides are based
# on a short arc.  If the following orbital elements say something
# like "[based on] 10 observations 2015 Jan. 1-13",  and the TLEs
# are for 2015 May,  the extrapolation may be tenuous at best.  If
# your application requires a specific level of accuracy,  you may
# want to contact me;  I can give you some idea as to the fit of the
# underlying data (and possibly TLEs based on newer data).
#
#   You can usually find the underlying observational data,  and the
# fitted orbit,  residuals,  ephemerides,  and sometimes some comments
# about the object,  among the pages listed at
#
#    https://www.projectpluto.com/pluto/mpecs/pseudo.htm
#
#    Also,  if you use a TLE outside the "correct" time range (between
# its MJD and that of the next TLE),  all bets are off.  I've carefully
# computed and minimized the worst error over the "correct" time frame,
# but the ephemeris may (or may not) diverge wildly outside of it.
#
# Ephem range: 61010.000000 61406.000000 1.000000
# Created Wed Apr 22 21:55:03 2026
# Ephemeris start:  1 Dec 2025  0:00:00
# Ephemeris end:    1 Jan 2027  0:00:00
# Times are all TDT
# Positions/velocities are in equatorial J2000
# Orbital elements:  C45GF81 = CCUAFG2 = 1969-046 fragment
#    Perigee 2026 Apr 17.96235683 +/- 1.1138e-5 TT = 23:05:47.630 (JD 2461148.46235683)
# Epoch 2026 Apr 17.0 TT = JDT 2461147.5                           Gray
# M 199.82607639582 +/- 0.001981
# n 166.43922378432 +/- 1.3433e-5     Peri.  268.11956757 +/- 0.0005947
# a 70647.9750475 +/- 0.0038011       Node    37.95052676 +/- 0.0004461
# e   0.7965984721 +/- 2.2784e-6      Incl.   17.22133988 +/- 2.8174e-5
# P3114.592m/2.163d          H 33.88  G  0.15   U  5.2
# q 14369.9060657 +/- 0.16113    Q 126926.044029 +/- 0.15968
# 30 of 32 observations 2025 Dec. 14-2026 Apr. 17; mean residual 0".513/0.80 sigmas
#
# 1 NoradU COSPAR   Epoch.epoch     dn/dt/2  d2n/dt2/6 BSTAR    T El# C
# 2 NoradU Inclina RAAscNode Eccent  ArgPeri MeanAno  MeanMotion Rev# C

# Worst residual: 3.00 km
# MJD 61010.000000 (2025 Dec  1  0:00)
C45GF81 = CCUAFG2 = 1969-046 fragment
1 79851U 69046Z   25335.49919926  .00000000  00000-0  00000-0 0 30356
2 79851 016.7336 037.2090 8050925 265.5949 171.0074 00.46232353    06

# Worst residual: 11.94 km
# MJD 61011.000000 (2025 Dec  2  0:00)
C45GF81 = CCUAFG2 = 1969-046 fragment
1 79851U 69046Z   25336.49919926  .00000000  00000-0  00000-0 0 30357
2 79851 016.7388 037.1927 8047002 265.6333 337.3418 00.46238258    00

# Worst residual: 4.10 km
# MJD 61012.000000 (2025 Dec  3  0:00)
C45GF81 = CCUAFG2 = 1969-046 fragment
1 79851U 69046Z   25337.49919926  .00000000  00000-0  00000-0 0 30358
2 79851 016.7433 037.2147 8049729 265.6227 143.7235 00.46240320    05

# Worst residual: 8.14 km
# MJD 61013.000000 (2025 Dec  4  0:00)
C45GF81 = CCUAFG2 = 1969-046 fragment
1 79851U 69046Z   25338.49919926  .00000000  00000-0  00000-0 0 30359
2 79851 016.7475 037.2070 8047803 265.6375 310.1753 00.46221186    05

# Worst residual: 11.14 km
# MJD 61014.000000 (2025 Dec  5  0:00)
C45GF81 = CCUAFG2 = 1969-046 fragment
1 79851U 69046Z   25339.49919926  .00000000  00000-0  00000-0 0 30350
2 79851 016.7586 037.2509 8050223 265.6192 116.4884 00.46215887    05

# Worst residual: 13.40 km
# MJD 61015.000000 (2025 Dec  6  0:00)
C45GF81 = CCUAFG2 = 1969-046 fragment
1 79851U 69046Z   25340.49919926  .00000000  00000-0  00000-0 0 30352
2 79851 016.7641 037.4201 8055129 265.4815 282.8420 00.46222428    01

# Worst residual: 5.26 km
# MJD 61016.000000 (2025 Dec  7  0:00)
C45GF81 = CCUAFG2 = 1969-046 fragment
1 79851U 69046Z   25341.49919926  .00000000  00000-0  00000-0 0 30353
2 79851 016.7679 037.4246 8055843 265.5439 089.1924 00.46210775    06

# Worst residual: 3.54 km
# MJD 61017.000000 (2025 Dec  8  0:00)
C45GF81 = CCUAFG2 = 1969-046 fragment
1 79851U 69046Z   25342.49919926  .00000000  00000-0  00000-0 0 30354
2 79851 016.7762 037.5719 8055035 265.4567 255.3280 00.46200913    04

# Worst residual: 13.63 km
# MJD 61018.000000 (2025 Dec  9  0:00)
C45GF81 = CCUAFG2 = 1969-046 fragment
1 79851U 69046Z   25343.49919926  .00000000  00000-0  00000-0 0 30355
2 79851 016.7761 037.5901 8056252 265.4987 061.6613 00.46223684    02

# Worst residual: 7.72 km
# MJD 61019.000000 (2025 Dec 10  0:00)
C45GF81 = CCUAFG2 = 1969-046 fragment
1 79851U 69046Z   25344.49919926  .00000000  00000-0  00000-0 0 30356
2 79851 016.7774 037.5877 8051124 265.5340 228.0324 00.46213162    03

# Worst residual: 10.37 km
# MJD 61020.000000 (2025 Dec 11  0:00)
C45GF81 = CCUAFG2 = 1969-046 fragment
1 79851U 69046Z   25345.49919926  .00000000  00000-0  00000-0 0 30357
2 79851 016.7826 037.5741 8049014 265.5733 034.3432 00.46218056    07

# Worst residual: 2.17 km
# MJD 61021.000000 (2025 Dec 12  0:00)
C45GF81 = CCUAFG2 = 1969-046 fragment
1 79851U 69046Z   25346.49919926  .00000000  00000-0  00000-0 0 30358
2 79851 016.7837 037.5840 8049022 265.5747 200.7898 00.46234147    07

# Worst residual: 4.51 km
# MJD 61022.000000 (2025 Dec 13  0:00)
C45GF81 = CCUAFG2 = 1969-046 fragment
1 79851U 69046Z   25347.49919926  .00000000  00000-0  00000-0 0 30359
2 79851 016.7893 037.5737 8046456 265.5974 007.1744 00.46232465    04

# Worst residual: 3.16 km
# MJD 61023.000000 (2025 Dec 14  0:00)
C45GF81 = CCUAFG2 = 1969-046 fragment
1 79851U 69046Z   25348.49919926  .00000000  00000-0  00000-0 0 30350
2 79851 016.7918 037.5965 8048755 265.5914 173.5515 00.46232746    09

# Worst residual: 5.77 km
# MJD 61024.000000 (2025 Dec 15  0:00)
C45GF81 = CCUAFG2 = 1969-046 fragment
1 79851U 69046Z   25349.49919926  .00000000  00000-0  00000-0 0 30351
2 79851 016.7960 037.6145 8048212 265.5941 339.9573 00.46234072    01

# Worst residual: 3.92 km
# MJD 61025.000000 (2025 Dec 16  0:00)
C45GF81 = CCUAFG2 = 1969-046 fragment
1 79851U 69046Z   25350.49919926  .00000000  00000-0  00000-0 0 30353
2 79851 016.7975 037.6224 8049818 265.6107 146.3118 00.46227926    08

# Worst residual: 9.37 km
# MJD 61026.000000 (2025 Dec 17  0:00)
C45GF81 = CCUAFG2 = 1969-046 fragment
1 79851U 69046Z   25351.49919926  .00000000  00000-0  00000-0 0 30354
2 79851 016.8004 037.6444 8049711 265.6098 312.7064 00.46221029    04

# Worst residual: 4.55 km
# MJD 61027.000000 (2025 Dec 18  0:00)
C45GF81 = CCUAFG2 = 1969-046 fragment
1 79851U 69046Z   25352.49919926  .00000000  00000-0  00000-0 0 30355
2 79851 016.8014 037.6345 8050242 265.6508 119.0693 00.46228335    05

# Worst residual: 11.95 km
# MJD 61028.000000 (2025 Dec 19  0:00)
C45GF81 = CCUAFG2 = 1969-046 fragment
1 79851U 69046Z   25353.49919926  .00000000  00000-0  00000-0 0 30356
2 79851 016.8041 037.6266 8048559 265.6712 285.4673 00.46208501    01

# Worst residual: 5.77 km
# MJD 61029.000000 (2025 Dec 20  0:00)
C45GF81 = CCUAFG2 = 1969-046 fragment
1 79851U 69046Z   25354.49919926  .00000000  00000-0  00000-0 0 30357
2 79851 016.8047 037.6131 8048840 265.7265 091.8151 00.46223477    04

# Worst residual: 12.93 km
# MJD 61030.000000 (2025 Dec 21  0:00)
C45GF81 = CCUAFG2 = 1969-046 fragment
1 79851U 69046Z   25355.49919926  .00000000  00000-0  00000-0 0 30358
2 79851 016.8065 037.5967 8047069 265.7541 258.2185 00.46214053    05

# Worst residual: 13.23 km
# MJD 61031.000000 (2025 Dec 22  0:00)
C45GF81 = CCUAFG2 = 1969-046 fragment
1 79851U 69046Z   25356.49919926  .00000000  00000-0  00000-0 0 30359
2 79851 016.8090 037.5866 8048050 265.8013 064.5716 00.46209734    05

# Worst residual: 5.08 km
# MJD 61032.000000 (2025 Dec 23  0:00)
C45GF81 = CCUAFG2 = 1969-046 fragment
1 79851U 69046Z   25357.49919926  .00000000  00000-0  00000-0 0 30350
2 79851 016.8100 037.5795 8047522 265.8183 230.9915 00.46221823    02

# Worst residual: 16.22 km
# MJD 61033.000000 (2025 Dec 24  0:00)
C45GF81 = CCUAFG2 = 1969-046 fragment
1 79851U 69046Z   25358.49919926  .00000000  00000-0  00000-0 0 30351
2 79851 016.8136 037.5817 8048702 265.8464 037.3619 00.46202235    05

# Worst residual: 1.72 km
# MJD 61034.000000 (2025 Dec 25  0:00)
C45GF81 = CCUAFG2 = 1969-046 fragment
1 79851U 69046Z   25359.49919926  .00000000  00000-0  00000-0 0 30352
2 79851 016.8145 037.5908 8048522 265.8536 203.7616 00.46222777    05

# Worst residual: 9.61 km
# MJD 61035.000000 (2025 Dec 26  0:00)
C45GF81 = CCUAFG2 = 1969-046 fragment
1 79851U 69046Z   25360.49919926  .00000000  00000-0  00000-0 0 30354
2 79851 016.8179 037.6124 8048783 265.8616 010.1261 00.46224118    08

# Worst residual: 2.10 km
# MJD 61036.000000 (2025 Dec 27  0:00)
C45GF81 = CCUAFG2 = 1969-046 fragment
1 79851U 69046Z   25361.49919926  .00000000  00000-0  00000-0 0 30355
2 79851 016.8180 037.6141 8048474 265.8914 176.4945 00.46223281    02

# Worst residual: 6.06 km
# MJD 61037.000000 (2025 Dec 28  0:00)
C45GF81 = CCUAFG2 = 1969-046 fragment
1 79851U 69046Z   25362.49919926  .00000000  00000-0  00000-0 0 30356
2 79851 016.8222 037.6262 8046695 265.9109 342.8115 00.46238344    07

# Worst residual: 2.81 km
# MJD 61038.000000 (2025 Dec 29  0:00)
C45GF81 = CCUAFG2 = 1969-046 fragment
1 79851U 69046Z   25363.49919926  .00000000  00000-0  00000-0 0 30357
2 79851 016.8228 037.6239 8047275 265.9399 149.2003 00.46233845    09

# Worst residual: 6.80 km
# MJD 61039.000000 (2025 Dec 30  0:00)
C45GF81 = CCUAFG2 = 1969-046 fragment
1 79851U 69046Z   25364.49919926  .00000000  00000-0  00000-0 0 30358
2 79851 016.8275 037.5957 8043586 265.9827 315.5663 00.46220432    02

# Worst residual: 5.65 km
# MJD 61040.000000 (2025 Dec 31  0:00)
C45GF81 = CCUAFG2 = 1969-046 fragment
1 79851U 69046Z   25365.49919926  .00000000  00000-0  00000-0 0 30359
2 79851 016.8342 037.6154 8045476 265.9783 121.9299 00.46233919    06

# Worst residual: 12.43 km
# MJD 61041.000000 (2026 Jan  1  0:00)
C45GF81 = CCUAFG2 = 1969-046 fragment
1 79851U 69046Z   26001.49919926  .00000000  00000-0  00000-0 0 30357
2 79851 016.8379 037.6517 8045457 265.9504 288.3923 00.46219097    02

# Worst residual: 7.97 km
# MJD 61042.000000 (2026 Jan  2  0:00)
C45GF81 = CCUAFG2 = 1969-046 fragment
1 79851U 69046Z   26002.49919926  .00000000  00000-0  00000-0 0 30358
2 79851 016.8475 037.6610 8046363 265.9815 094.7124 00.46205486    04

# Worst residual: 9.35 km
# MJD 61043.000000 (2026 Jan  3  0:00)
C45GF81 = CCUAFG2 = 1969-046 fragment
1 79851U 69046Z   26003.49919926  .00000000  00000-0  00000-0 0 30359
2 79851 016.8571 037.8619 8051486 265.8214 260.9557 00.46216635    01

# Worst residual: 14.02 km
# MJD 61044.000000 (2026 Jan  4  0:00)
C45GF81 = CCUAFG2 = 1969-046 fragment
1 79851U 69046Z   26004.49919926  .00000000  00000-0  00000-0 0 30350
2 79851 016.8575 037.8794 8054106 265.8724 067.3247 00.46214196    02

# Worst residual: 7.18 km
# MJD 61045.000000 (2026 Jan  5  0:00)
C45GF81 = CCUAFG2 = 1969-046 fragment
1 79851U 69046Z   26005.49919926  .00000000  00000-0  00000-0 0 30351
2 79851 016.8638 037.9602 8049648 265.8514 233.5126 00.46194224    05

# Worst residual: 16.88 km
# MJD 61046.000000 (2026 Jan  6  0:00)
C45GF81 = CCUAFG2 = 1969-046 fragment
1 79851U 69046Z   26006.49919926  .00000000  00000-0  00000-0 0 30352
2 79851 016.8666 037.9772 8050339 265.8891 039.7898 00.46212304    03

# Worst residual: 6.17 km
# MJD 61047.000000 (2026 Jan  7  0:00)
C45GF81 = CCUAFG2 = 1969-046 fragment
1 79851U 69046Z   26007.49919926  .00000000  00000-0  00000-0 0 30353
2 79851 016.8658 037.9575 8046031 265.9335 206.2280 00.46221036    01

# Worst residual: 11.80 km
# MJD 61048.000000 (2026 Jan  8  0:00)
C45GF81 = CCUAFG2 = 1969-046 fragment
1 79851U 69046Z   26008.49919926  .00000000  00000-0  00000-0 0 30354
2 79851 016.8725 037.9287 8043100 265.9775 012.5490 00.46213571    04

# Worst residual: 3.84 km
# MJD 61049.000000 (2026 Jan  9  0:00)
C45GF81 = CCUAFG2 = 1969-046 fragment
1 79851U 69046Z   26009.49919926  .00000000  00000-0  00000-0 0 30355
2 79851 016.8737 037.9393 8043407 265.9807 178.9755 00.46233037    01

# Worst residual: 4.74 km
# MJD 61050.000000 (2026 Jan 10  0:00)
C45GF81 = CCUAFG2 = 1969-046 fragment
1 79851U 69046Z   26010.49919926  .00000000  00000-0  00000-0 0 30357
2 79851 016.8790 037.9361 8041936 265.9972 345.3757 00.46227018    07

# Worst residual: 3.53 km
# MJD 61051.000000 (2026 Jan 11  0:00)
C45GF81 = CCUAFG2 = 1969-046 fragment
1 79851U 69046Z   26011.49919926  .00000000  00000-0  00000-0 0 30358
2 79851 016.8812 037.9482 8043265 266.0060 151.7439 00.46227697    02

# Worst residual: 7.00 km
# MJD 61052.000000 (2026 Jan 12  0:00)
C45GF81 = CCUAFG2 = 1969-046 fragment
1 79851U 69046Z   26012.49919926  .00000000  00000-0  00000-0 0 30359
2 79851 016.8848 037.9768 8043555 265.9971 318.1471 00.46224167    03

# Worst residual: 2.70 km
# MJD 61053.000000 (2026 Jan 13  0:00)
C45GF81 = CCUAFG2 = 1969-046 fragment
1 79851U 69046Z   26013.49919926  .00000000  00000-0  00000-0 0 30350
2 79851 016.8862 037.9699 8044065 266.0341 124.5076 00.46225368    06

# Worst residual: 10.41 km
# MJD 61054.000000 (2026 Jan 14  0:00)
C45GF81 = CCUAFG2 = 1969-046 fragment
1 79851U 69046Z   26014.49919926  .00000000  00000-0  00000-0 0 30351
2 79851 016.8891 037.9874 8043576 266.0329 290.9011 00.46213390    04

# Worst residual: 4.82 km
# MJD 61055.000000 (2026 Jan 15  0:00)
C45GF81 = CCUAFG2 = 1969-046 fragment
1 79851U 69046Z   26015.49919926  .00000000  00000-0  00000-0 0 30352
2 79851 016.8901 037.9698 8043542 266.0897 097.2534 00.46223644    04

# Worst residual: 13.17 km
# MJD 61056.000000 (2026 Jan 16  0:00)
C45GF81 = CCUAFG2 = 1969-046 fragment
1 79851U 69046Z   26016.49919926  .00000000  00000-0  00000-0 0 30353
2 79851 016.8924 037.9578 8041566 266.1145 263.6440 00.46211998    01

# Worst residual: 11.33 km
# MJD 61057.000000 (2026 Jan 17  0:00)
C45GF81 = CCUAFG2 = 1969-046 fragment
1 79851U 69046Z   26017.49919926  .00000000  00000-0  00000-0 0 30354
2 79851 016.8947 037.9432 8042435 266.1693 069.9921 00.46212120    08

# Worst residual: 7.90 km
# MJD 61058.000000 (2026 Jan 18  0:00)
C45GF81 = CCUAFG2 = 1969-046 fragment
1 79851U 69046Z   26018.49919926  .00000000  00000-0  00000-0 0 30355
2 79851 016.8954 037.9267 8040901 266.1960 236.4101 00.46218230    04

# Worst residual: 19.28 km
# MJD 61059.000000 (2026 Jan 19  0:00)
C45GF81 = CCUAFG2 = 1969-046 fragment
1 79851U 69046Z   26019.49919926  .00000000  00000-0  00000-0 0 30356
2 79851 016.8998 037.9168 8042050 266.2362 042.7733 00.46198108    06

# Worst residual: 1.26 km
# MJD 61060.000000 (2026 Jan 20  0:00)
C45GF81 = CCUAFG2 = 1969-046 fragment
1 79851U 69046Z   26020.49919926  .00000000  00000-0  00000-0 0 30358
2 79851 016.8994 037.9060 8041205 266.2578 209.1978 00.46221689    04

# Worst residual: 18.92 km
# MJD 61061.000000 (2026 Jan 21  0:00)
C45GF81 = CCUAFG2 = 1969-046 fragment
1 79851U 69046Z   26021.49919926  .00000000  00000-0  00000-0 0 30359
2 79851 016.9032 037.9086 8042357 266.2799 015.5717 00.46199598    03

# Worst residual: 3.41 km
# MJD 61062.000000 (2026 Jan 22  0:00)
C45GF81 = CCUAFG2 = 1969-046 fragment
1 79851U 69046Z   26022.49919926  .00000000  00000-0  00000-0 0 30350
2 79851 016.9033 037.9121 8041335 266.2995 181.9664 00.46221034    07

# Worst residual: 8.01 km
# MJD 61063.000000 (2026 Jan 23  0:00)
C45GF81 = CCUAFG2 = 1969-046 fragment
1 79851U 69046Z   26023.49919926  .00000000  00000-0  00000-0 0 30351
2 79851 016.9072 037.9303 8041184 266.3113 348.3064 00.46228508    03

# Worst residual: 1.89 km
# MJD 61064.000000 (2026 Jan 24  0:00)
C45GF81 = CCUAFG2 = 1969-046 fragment
1 79851U 69046Z   26024.49919926  .00000000  00000-0  00000-0 0 30352
2 79851 016.9067 037.9247 8040727 266.3480 154.6906 00.46225305    08

# Worst residual: 6.18 km
# MJD 61065.000000 (2026 Jan 25  0:00)
C45GF81 = CCUAFG2 = 1969-046 fragment
1 79851U 69046Z   26025.49919926  .00000000  00000-0  00000-0 0 30353
2 79851 016.9110 037.9253 8038476 266.3731 321.0093 00.46228090    02

# Worst residual: 1.45 km
# MJD 61066.000000 (2026 Jan 26  0:00)
C45GF81 = CCUAFG2 = 1969-046 fragment
1 79851U 69046Z   26026.49919926  .00000000  00000-0  00000-0 0 30354
2 79851 016.9133 037.9217 8039137 266.4001 127.3978 00.46235082    01

# Worst residual: 6.10 km
# MJD 61067.000000 (2026 Jan 27  0:00)
C45GF81 = CCUAFG2 = 1969-046 fragment
1 79851U 69046Z   26027.49919926  .00000000  00000-0  00000-0 0 30355
2 79851 016.9166 037.9096 8036035 266.4227 293.8057 00.46217351    02

# Worst residual: 7.93 km
# MJD 61068.000000 (2026 Jan 28  0:00)
C45GF81 = CCUAFG2 = 1969-046 fragment
1 79851U 69046Z   26028.49919926  .00000000  00000-0  00000-0 0 30356
2 79851 016.9251 037.9040 8036965 266.4486 100.1515 00.46222787    03

# Worst residual: 11.30 km
# MJD 61069.000000 (2026 Jan 29  0:00)
C45GF81 = CCUAFG2 = 1969-046 fragment
1 79851U 69046Z   26029.49919926  .00000000  00000-0  00000-0 0 30357
2 79851 016.9307 037.9897 8039366 266.3765 266.5694 00.46224812    08

# Worst residual: 10.01 km
# MJD 61070.000000 (2026 Jan 30  0:00)
C45GF81 = CCUAFG2 = 1969-046 fragment
1 79851U 69046Z   26030.49919926  .00000000  00000-0  00000-0 0 30359
2 79851 016.9369 037.9970 8040816 266.4167 072.9229 00.46201470    05

# Worst residual: 5.42 km
# MJD 61071.000000 (2026 Jan 31  0:00)
C45GF81 = CCUAFG2 = 1969-046 fragment
1 79851U 69046Z   26031.49919926  .00000000  00000-0  00000-0 0 30350
2 79851 016.9469 038.1704 8043726 266.2912 239.1120 00.46207988    00

# Worst residual: 21.86 km
# MJD 61072.000000 (2026 Feb  1  0:00)
C45GF81 = CCUAFG2 = 1969-046 fragment
1 79851U 69046Z   26032.49919926  .00000000  00000-0  00000-0 0 30351
2 79851 016.9469 038.2078 8046994 266.3185 045.4596 00.46212364    07

# Worst residual: 9.53 km
# MJD 61073.000000 (2026 Feb  2  0:00)
C45GF81 = CCUAFG2 = 1969-046 fragment
1 79851U 69046Z   26033.49919926  .00000000  00000-0  00000-0 0 30352
2 79851 016.9490 038.2231 8041201 266.3548 211.7575 00.46199995    00

# Worst residual: 18.90 km
# MJD 61074.000000 (2026 Feb  3  0:00)
C45GF81 = CCUAFG2 = 1969-046 fragment
1 79851U 69046Z   26034.49919926  .00000000  00000-0  00000-0 0 30353
2 79851 016.9539 038.2206 8040158 266.3981 018.0033 00.46206368    07

# Worst residual: 2.91 km
# MJD 61075.000000 (2026 Feb  4  0:00)
C45GF81 = CCUAFG2 = 1969-046 fragment
1 79851U 69046Z   26035.49919926  .00000000  00000-0  00000-0 0 30354
2 79851 016.9527 038.2056 8037329 266.4337 184.4611 00.46228739    05

# Worst residual: 8.16 km
# MJD 61076.000000 (2026 Feb  5  0:00)
C45GF81 = CCUAFG2 = 1969-046 fragment
1 79851U 69046Z   26036.49919926  .00000000  00000-0  00000-0 0 30355
2 79851 016.9596 038.1705 8033886 266.4781 350.8082 00.46219003    03

# Worst residual: 5.85 km
# MJD 61077.000000 (2026 Feb  6  0:00)
C45GF81 = CCUAFG2 = 1969-046 fragment
1 79851U 69046Z   26037.49919926  .00000000  00000-0  00000-0 0 30356
2 79851 016.9613 038.1783 8034481 266.4872 157.2108 00.46230749    00

# Worst residual: 3.72 km
# MJD 61078.000000 (2026 Feb  7  0:00)
C45GF81 = CCUAFG2 = 1969-046 fragment
1 79851U 69046Z   26038.49919926  .00000000  00000-0  00000-0 0 30357
2 79851 016.9657 038.1908 8033917 266.4878 323.6218 00.46227419    07

# Worst residual: 4.31 km
# MJD 61079.000000 (2026 Feb  8  0:00)
C45GF81 = CCUAFG2 = 1969-046 fragment
1 79851U 69046Z   26039.49919926  .00000000  00000-0  00000-0 0 30358
2 79851 016.9677 038.1894 8034711 266.5134 129.9892 00.46225461    02

# Worst residual: 5.12 km
# MJD 61080.000000 (2026 Feb  9  0:00)
C45GF81 = CCUAFG2 = 1969-046 fragment
1 79851U 69046Z   26040.49919926  .00000000  00000-0  00000-0 0 30350
2 79851 016.9704 038.2269 8035095 266.4939 296.3882 00.46223151    00

# Worst residual: 4.21 km
# MJD 61081.000000 (2026 Feb 10  0:00)
C45GF81 = CCUAFG2 = 1969-046 fragment
1 79851U 69046Z   26041.49919926  .00000000  00000-0  00000-0 0 30351
2 79851 016.9721 038.2018 8035186 266.5510 102.7519 00.46224065    00

# Worst residual: 9.66 km
# MJD 61082.000000 (2026 Feb 11  0:00)
C45GF81 = CCUAFG2 = 1969-046 fragment
1 79851U 69046Z   26042.49919926  .00000000  00000-0  00000-0 0 30352
2 79851 016.9748 038.2086 8034173 266.5596 269.1390 00.46217130    03

# Worst residual: 7.44 km
# MJD 61083.000000 (2026 Feb 12  0:00)
C45GF81 = CCUAFG2 = 1969-046 fragment
1 79851U 69046Z   26043.49919926  .00000000  00000-0  00000-0 0 30353
2 79851 016.9761 038.1881 8034485 266.6183 075.4942 00.46217122    01

# Worst residual: 7.82 km
# MJD 61084.000000 (2026 Feb 13  0:00)
C45GF81 = CCUAFG2 = 1969-046 fragment
1 79851U 69046Z   26044.49919926  .00000000  00000-0  00000-0 0 30354
2 79851 016.9776 038.1702 8033017 266.6477 241.9007 00.46218755    00

# Worst residual: 17.37 km
# MJD 61085.000000 (2026 Feb 14  0:00)
C45GF81 = CCUAFG2 = 1969-046 fragment
1 79851U 69046Z   26045.49919926  .00000000  00000-0  00000-0 0 30355
2 79851 016.9814 038.1597 8033937 266.6889 048.2601 00.46201814    09

# Worst residual: 2.73 km
# MJD 61086.000000 (2026 Feb 15  0:00)
C45GF81 = CCUAFG2 = 1969-046 fragment
1 79851U 69046Z   26046.49919926  .00000000  00000-0  00000-0 0 30356
2 79851 016.9809 038.1375 8032767 266.7206 214.6920 00.46222287    01

# Worst residual: 20.13 km
# MJD 61087.000000 (2026 Feb 16  0:00)
C45GF81 = CCUAFG2 = 1969-046 fragment
1 79851U 69046Z   26047.49919926  .00000000  00000-0  00000-0 0 30357
2 79851 016.9852 038.1319 8033960 266.7489 021.0662 00.46191839    07

# Worst residual: 3.98 km
# MJD 61088.000000 (2026 Feb 17  0:00)
C45GF81 = CCUAFG2 = 1969-046 fragment
1 79851U 69046Z   26048.49919926  .00000000  00000-0  00000-0 0 30358
2 79851 016.9847 038.1261 8032754 266.7703 187.4849 00.46222341    03

# Worst residual: 12.56 km
# MJD 61089.000000 (2026 Feb 18  0:00)
C45GF81 = CCUAFG2 = 1969-046 fragment
1 79851U 69046Z   26049.49919926  .00000000  00000-0  00000-0 0 30359
2 79851 016.9881 038.1347 8033158 266.7850 353.8521 00.46216917    06

# Worst residual: 5.22 km
# MJD 61090.000000 (2026 Feb 19  0:00)
C45GF81 = CCUAFG2 = 1969-046 fragment
1 79851U 69046Z   26050.49919926  .00000000  00000-0  00000-0 0 30351
2 79851 016.9882 038.1335 8032330 266.8143 160.2431 00.46222452    02

# Worst residual: 6.95 km
# MJD 61091.000000 (2026 Feb 20  0:00)
C45GF81 = CCUAFG2 = 1969-046 fragment
1 79851U 69046Z   26051.49919926  .00000000  00000-0  00000-0 0 30352
2 79851 016.9919 038.1498 8031424 266.8267 326.5639 00.46233072    00

# Worst residual: 3.35 km
# MJD 61092.000000 (2026 Feb 21  0:00)
C45GF81 = CCUAFG2 = 1969-046 fragment
1 79851U 69046Z   26052.49919926  .00000000  00000-0  00000-0 0 30353
2 79851 016.9925 038.1402 8031521 266.8637 132.9579 00.46230142    08

# Worst residual: 8.77 km
# MJD 61093.000000 (2026 Feb 22  0:00)
C45GF81 = CCUAFG2 = 1969-046 fragment
1 79851U 69046Z   26053.49919926  .00000000  00000-0  00000-0 0 30354
2 79851 016.9956 038.1444 8028613 266.8784 299.3077 00.46224850    09

# Worst residual: 4.68 km
# MJD 61094.000000 (2026 Feb 23  0:00)
C45GF81 = CCUAFG2 = 1969-046 fragment
1 79851U 69046Z   26054.49919926  .00000000  00000-0  00000-0 0 30355
2 79851 017.0012 038.1254 8029551 266.9152 105.6836 00.46233434    05

# Worst residual: 8.04 km
# MJD 61095.000000 (2026 Feb 24  0:00)
C45GF81 = CCUAFG2 = 1969-046 fragment
1 79851U 69046Z   26055.49919926  .00000000  00000-0  00000-0 0 30356
2 79851 017.0049 038.1392 8028610 266.9138 272.1132 00.46226798    01

# Worst residual: 7.20 km
# MJD 61096.000000 (2026 Feb 25  0:00)
C45GF81 = CCUAFG2 = 1969-046 fragment
1 79851U 69046Z   26056.49919926  .00000000  00000-0  00000-0 0 30357
2 79851 017.0122 038.1281 8028543 266.9514 078.4648 00.46210817    07

# Worst residual: 4.56 km
# MJD 61097.000000 (2026 Feb 26  0:00)
C45GF81 = CCUAFG2 = 1969-046 fragment
1 79851U 69046Z   26057.49919926  .00000000  00000-0  00000-0 0 30358
2 79851 017.0201 038.2586 8033354 266.8420 244.8021 00.46227192    03

# Worst residual: 15.86 km
# MJD 61098.000000 (2026 Feb 27  0:00)
C45GF81 = CCUAFG2 = 1969-046 fragment
1 79851U 69046Z   26058.49919926  .00000000  00000-0  00000-0 0 30359
2 79851 017.0220 038.2743 8035684 266.8710 051.1935 00.46210274    05

# Worst residual: 7.74 km
# MJD 61099.000000 (2026 Feb 28  0:00)
C45GF81 = CCUAFG2 = 1969-046 fragment
1 79851U 69046Z   26059.49919926  .00000000  00000-0  00000-0 0 30350
2 79851 017.0300 038.3772 8034842 266.8226 217.3983 00.46200189    07

# Worst residual: 18.00 km
# MJD 61100.000000 (2026 Mar  1  0:00)
C45GF81 = CCUAFG2 = 1969-046 fragment
1 79851U 69046Z   26060.49919926  .00000000  00000-0  00000-0 0 30352
2 79851 017.0304 038.4207 8037333 266.8390 023.6876 00.46211720    07

# Worst residual: 7.07 km
# MJD 61101.000000 (2026 Mar  2  0:00)
C45GF81 = CCUAFG2 = 1969-046 fragment
1 79851U 69046Z   26061.49919926  .00000000  00000-0  00000-0 0 30353
2 79851 017.0302 038.4089 8032537 266.8901 190.0836 00.46214234    00

# Worst residual: 11.54 km
# MJD 61102.000000 (2026 Mar  3  0:00)
C45GF81 = CCUAFG2 = 1969-046 fragment
1 79851U 69046Z   26062.49919926  .00000000  00000-0  00000-0 0 30354
2 79851 017.0373 038.3825 8029026 266.9427 356.3413 00.46217364    03

# Worst residual: 5.69 km
# MJD 61103.000000 (2026 Mar  4  0:00)
C45GF81 = CCUAFG2 = 1969-046 fragment
1 79851U 69046Z   26063.49919926  .00000000  00000-0  00000-0 0 30355
2 79851 017.0366 038.3800 8028292 266.9642 162.7791 00.46233753    09

# Worst residual: 7.38 km
# MJD 61104.000000 (2026 Mar  5  0:00)
C45GF81 = CCUAFG2 = 1969-046 fragment
1 79851U 69046Z   26064.49919926  .00000000  00000-0  00000-0 0 30356
2 79851 017.0424 038.3603 8025185 266.9923 329.1591 00.46228311    06

# Worst residual: 7.13 km
# MJD 61105.000000 (2026 Mar  6  0:00)
C45GF81 = CCUAFG2 = 1969-046 fragment
1 79851U 69046Z   26065.49919926  .00000000  00000-0  00000-0 0 30357
2 79851 017.0448 038.3610 8026286 267.0092 135.5436 00.46229288    03

# Worst residual: 5.85 km
# MJD 61106.000000 (2026 Mar  7  0:00)
C45GF81 = CCUAFG2 = 1969-046 fragment
1 79851U 69046Z   26066.49919926  .00000000  00000-0  00000-0 0 30358
2 79851 017.0479 038.3983 8026248 266.9867 301.9576 00.46231117    04

# Worst residual: 4.11 km
# MJD 61107.000000 (2026 Mar  8  0:00)
C45GF81 = CCUAFG2 = 1969-046 fragment
1 79851U 69046Z   26067.49919926  .00000000  00000-0  00000-0 0 30359
2 79851 017.0504 038.3759 8026934 267.0321 108.3302 00.46225911    04

# Worst residual: 4.65 km
# MJD 61108.000000 (2026 Mar  9  0:00)
C45GF81 = CCUAFG2 = 1969-046 fragment
1 79851U 69046Z   26068.49919926  .00000000  00000-0  00000-0 0 30350
2 79851 017.0537 038.4043 8027291 267.0225 274.7231 00.46226487    05

# Worst residual: 3.55 km
# MJD 61109.000000 (2026 Mar 10  0:00)
C45GF81 = CCUAFG2 = 1969-046 fragment
1 79851U 69046Z   26069.49919926  .00000000  00000-0  00000-0 0 30351
2 79851 017.0545 038.3808 8027005 267.0760 081.0931 00.46223426    05

# Worst residual: 6.25 km
# MJD 61110.000000 (2026 Mar 11  0:00)
C45GF81 = CCUAFG2 = 1969-046 fragment
1 79851U 69046Z   26070.49919926  .00000000  00000-0  00000-0 0 30353
2 79851 017.0568 038.3763 8026546 267.0959 247.4838 00.46222990    08

# Worst residual: 8.53 km
# MJD 61111.000000 (2026 Mar 12  0:00)
C45GF81 = CCUAFG2 = 1969-046 fragment
1 79851U 69046Z   26071.49919926  .00000000  00000-0  00000-0 0 30354
2 79851 017.0599 038.3682 8026692 267.1336 053.8495 00.46213871    00

# Worst residual: 4.06 km
# MJD 61112.000000 (2026 Mar 13  0:00)
C45GF81 = CCUAFG2 = 1969-046 fragment
1 79851U 69046Z   26072.49919926  .00000000  00000-0  00000-0 0 30355
2 79851 017.0594 038.3387 8025953 267.1741 220.2684 00.46224742    05

# Worst residual: 15.98 km
# MJD 61113.000000 (2026 Mar 14  0:00)
C45GF81 = CCUAFG2 = 1969-046 fragment
1 79851U 69046Z   26073.49919926  .00000000  00000-0  00000-0 0 30356
2 79851 017.0632 038.3300 8026422 267.2045 026.6483 00.46202534    03

# Worst residual: 2.90 km
# MJD 61114.000000 (2026 Mar 15  0:00)
C45GF81 = CCUAFG2 = 1969-046 fragment
1 79851U 69046Z   26074.49919926  .00000000  00000-0  00000-0 0 30357
2 79851 017.0628 038.3158 8025841 267.2305 193.0707 00.46225430    00

# Worst residual: 15.10 km
# MJD 61115.000000 (2026 Mar 16  0:00)
C45GF81 = CCUAFG2 = 1969-046 fragment
1 79851U 69046Z   26075.49919926  .00000000  00000-0  00000-0 0 30358
2 79851 017.0667 038.3176 8026392 267.2470 359.4594 00.46208880    00

# Worst residual: 6.24 km
# MJD 61116.000000 (2026 Mar 17  0:00)
C45GF81 = CCUAFG2 = 1969-046 fragment
1 79851U 69046Z   26076.49919926  .00000000  00000-0  00000-0 0 30359
2 79851 017.0667 038.3168 8025711 267.2709 165.8563 00.46223378    04

# Worst residual: 6.88 km
# MJD 61117.000000 (2026 Mar 18  0:00)
C45GF81 = CCUAFG2 = 1969-046 fragment
1 79851U 69046Z   26077.49919926  .00000000  00000-0  00000-0 0 30350
2 79851 017.0701 038.3380 8025475 267.2758 332.2033 00.46232300    07

# Worst residual: 5.09 km
# MJD 61118.000000 (2026 Mar 19  0:00)
C45GF81 = CCUAFG2 = 1969-046 fragment
1 79851U 69046Z   26078.49919926  .00000000  00000-0  00000-0 0 30351
2 79851 017.0700 038.3303 8025338 267.3122 138.5953 00.46225938    02

# Worst residual: 13.07 km
# MJD 61119.000000 (2026 Mar 20  0:00)
C45GF81 = CCUAFG2 = 1969-046 fragment
1 79851U 69046Z   26079.49919926  .00000000  00000-0  00000-0 0 30352
2 79851 017.0730 038.3562 8023509 267.3112 304.9207 00.46232597    09

# Worst residual: 3.00 km
# MJD 61120.000000 (2026 Mar 21  0:00)
C45GF81 = CCUAFG2 = 1969-046 fragment
1 79851U 69046Z   26080.49919926  .00000000  00000-0  00000-0 0 30354
2 79851 017.0762 038.3348 8024307 267.3522 111.3135 00.46235726    05

# Worst residual: 7.16 km
# MJD 61121.000000 (2026 Mar 22  0:00)
C45GF81 = CCUAFG2 = 1969-046 fragment
1 79851U 69046Z   26081.49919926  .00000000  00000-0  00000-0 0 30355
2 79851 017.0794 038.3365 8022307 267.3702 277.7046 00.46230924    00

# Worst residual: 9.95 km
# MJD 61122.000000 (2026 Mar 23  0:00)
C45GF81 = CCUAFG2 = 1969-046 fragment
1 79851U 69046Z   26082.49919926  .00000000  00000-0  00000-0 0 30356
2 79851 017.0856 038.3131 8021494 267.4058 084.0767 00.46227329    05

# Worst residual: 5.51 km
# MJD 61123.000000 (2026 Mar 24  0:00)
C45GF81 = CCUAFG2 = 1969-046 fragment
1 79851U 69046Z   26083.49919926  .00000000  00000-0  00000-0 0 30357
2 79851 017.0915 038.3791 8024631 267.3532 250.4785 00.46234925    04

# Worst residual: 5.53 km
# MJD 61124.000000 (2026 Mar 25  0:00)
C45GF81 = CCUAFG2 = 1969-046 fragment
1 79851U 69046Z   26084.49919926  .00000000  00000-0  00000-0 0 30358
2 79851 017.0963 038.3724 8024844 267.3876 056.8675 00.46214508    01

# Worst residual: 5.31 km
# MJD 61125.000000 (2026 Mar 26  0:00)
C45GF81 = CCUAFG2 = 1969-046 fragment
1 79851U 69046Z   26085.49919926  .00000000  00000-0  00000-0 0 30359
2 79851 017.1054 038.5081 8029029 267.2891 223.1099 00.46218520    04

# Worst residual: 14.98 km
# MJD 61126.000000 (2026 Mar 27  0:00)
C45GF81 = CCUAFG2 = 1969-046 fragment
1 79851U 69046Z   26086.49919926  .00000000  00000-0  00000-0 0 30350
2 79851 017.1057 038.5491 8031872 267.2979 029.4890 00.46219761    02

# Worst residual: 6.74 km
# MJD 61127.000000 (2026 Mar 28  0:00)
C45GF81 = CCUAFG2 = 1969-046 fragment
1 79851U 69046Z   26087.49919926  .00000000  00000-0  00000-0 0 30351
2 79851 017.1088 038.5827 8028792 267.3173 195.7700 00.46202980    05

# Worst residual: 12.58 km
# MJD 61128.000000 (2026 Mar 29  0:00)
C45GF81 = CCUAFG2 = 1969-046 fragment
1 79851U 69046Z   26088.49919926  .00000000  00000-0  00000-0 0 30352
2 79851 017.1115 038.6044 8028369 267.3436 002.0135 00.46221602    04

# Worst residual: 3.14 km
# MJD 61129.000000 (2026 Mar 30  0:00)
C45GF81 = CCUAFG2 = 1969-046 fragment
1 79851U 69046Z   26089.49919926  .00000000  00000-0  00000-0 0 30353
2 79851 017.1108 038.5924 8026060 267.3855 168.4450 00.46228544    02

# Worst residual: 7.11 km
# MJD 61130.000000 (2026 Mar 31  0:00)
C45GF81 = CCUAFG2 = 1969-046 fragment
1 79851U 69046Z   26090.49919926  .00000000  00000-0  00000-0 0 30355
2 79851 017.1167 038.5615 8021400 267.4326 334.7537 00.46226778    02

# Worst residual: 6.52 km
# MJD 61131.000000 (2026 Apr  1  0:00)
C45GF81 = CCUAFG2 = 1969-046 fragment
1 79851U 69046Z   26091.49919926  .00000000  00000-0  00000-0 0 30356
2 79851 017.1189 038.5625 8022107 267.4482 141.1588 00.46233796    09

# Worst residual: 11.46 km
# MJD 61132.000000 (2026 Apr  2  0:00)
C45GF81 = CCUAFG2 = 1969-046 fragment
1 79851U 69046Z   26092.49919926  .00000000  00000-0  00000-0 0 30357
2 79851 017.1226 038.5775 8020364 267.4428 307.5724 00.46232704    08

# Worst residual: 4.70 km
# MJD 61133.000000 (2026 Apr  3  0:00)
C45GF81 = CCUAFG2 = 1969-046 fragment
1 79851U 69046Z   26093.49919926  .00000000  00000-0  00000-0 0 30358
2 79851 017.1260 038.5609 8021563 267.4758 113.9485 00.46228766    06

# Worst residual: 5.30 km
# MJD 61134.000000 (2026 Apr  4  0:00)
C45GF81 = CCUAFG2 = 1969-046 fragment
1 79851U 69046Z   26094.49919926  .00000000  00000-0  00000-0 0 30359
2 79851 017.1293 038.6067 8022652 267.4502 280.3552 00.46235249    06

# Worst residual: 6.65 km
# MJD 61135.000000 (2026 Apr  5  0:00)
C45GF81 = CCUAFG2 = 1969-046 fragment
1 79851U 69046Z   26095.49919926  .00000000  00000-0  00000-0 0 30350
2 79851 017.1309 038.5806 8022199 267.4954 086.7403 00.46228694    00

# Worst residual: 4.01 km
# MJD 61136.000000 (2026 Apr  6  0:00)
C45GF81 = CCUAFG2 = 1969-046 fragment
1 79851U 69046Z   26096.49919926  .00000000  00000-0  00000-0 0 30351
2 79851 017.1341 038.5949 8022964 267.5008 253.1164 00.46228209    01

# Worst residual: 3.48 km
# MJD 61137.000000 (2026 Apr  7  0:00)
C45GF81 = CCUAFG2 = 1969-046 fragment
1 79851U 69046Z   26097.49919926  .00000000  00000-0  00000-0 0 30352
2 79851 017.1358 038.5851 8022444 267.5373 059.4969 00.46226550    06

# Worst residual: 4.31 km
# MJD 61138.000000 (2026 Apr  8  0:00)
C45GF81 = CCUAFG2 = 1969-046 fragment
1 79851U 69046Z   26098.49919926  .00000000  00000-0  00000-0 0 30353
2 79851 017.1362 038.5615 8022477 267.5767 225.8854 00.46226685    03

# Worst residual: 9.03 km
# MJD 61139.000000 (2026 Apr  9  0:00)
C45GF81 = CCUAFG2 = 1969-046 fragment
1 79851U 69046Z   26099.49919926  .00000000  00000-0  00000-0 0 30354
2 79851 017.1400 038.5513 8022347 267.6088 032.2687 00.46215488    09

# Worst residual: 2.47 km
# MJD 61140.000000 (2026 Apr 10  0:00)
C45GF81 = CCUAFG2 = 1969-046 fragment
1 79851U 69046Z   26100.49919926  .00000000  00000-0  00000-0 0 30357
2 79851 017.1387 038.5278 8022293 267.6451 198.6798 00.46228142    06

# Worst residual: 11.83 km
# MJD 61141.000000 (2026 Apr 11  0:00)
C45GF81 = CCUAFG2 = 1969-046 fragment
1 79851U 69046Z   26101.49919926  .00000000  00000-0  00000-0 0 30358
2 79851 017.1425 038.5202 8022471 267.6690 005.0806 00.46207735    05

# Worst residual: 4.90 km
# MJD 61142.000000 (2026 Apr 12  0:00)
C45GF81 = CCUAFG2 = 1969-046 fragment
1 79851U 69046Z   26102.49919926  .00000000  00000-0  00000-0 0 30359
2 79851 017.1423 038.5147 8022361 267.6911 171.4813 00.46226222    03

# Worst residual: 8.30 km
# MJD 61143.000000 (2026 Apr 13  0:00)
C45GF81 = CCUAFG2 = 1969-046 fragment
1 79851U 69046Z   26103.49919926  .00000000  00000-0  00000-0 0 30350
2 79851 017.1455 038.5295 8022562 267.6959 337.8702 00.46224075    06

# Worst residual: 6.51 km
# MJD 61144.000000 (2026 Apr 14  0:00)
C45GF81 = CCUAFG2 = 1969-046 fragment
1 79851U 69046Z   26104.49919926  .00000000  00000-0  00000-0 0 30351
2 79851 017.1455 038.5263 8022530 267.7264 144.2524 00.46223619    01

# Worst residual: 10.76 km
# MJD 61145.000000 (2026 Apr 15  0:00)
C45GF81 = CCUAFG2 = 1969-046 fragment
1 79851U 69046Z   26105.49919926  .00000000  00000-0  00000-0 0 30352
2 79851 017.1482 038.5637 8022032 267.7164 310.5887 00.46234473    02

# Worst residual: 3.12 km
# MJD 61146.000000 (2026 Apr 16  0:00)
C45GF81 = CCUAFG2 = 1969-046 fragment
1 79851U 69046Z   26106.49919926  .00000000  00000-0  00000-0 0 30353
2 79851 017.1492 038.5465 8022446 267.7597 116.9805 00.46231181    02

# Worst residual: 13.65 km
# MJD 61147.000000 (2026 Apr 17  0:00)
C45GF81 = CCUAFG2 = 1969-046 fragment
1 79851U 69046Z   26107.49919926  .00000000  00000-0  00000-0 0 30354
2 79851 017.1523 038.5635 8020747 267.7710 283.3238 00.46233885    07

# Worst residual: 10.51 km
# MJD 61148.000000 (2026 Apr 18  0:00)
C45GF81 = CCUAFG2 = 1969-046 fragment
1 79851U 69046Z   26108.49919926  .00000000  00000-0  00000-0 0 30355
2 79851 017.1569 038.5427 8020218 267.7981 089.7181 00.46239968    02

# Worst residual: 3.74 km
# MJD 61149.000000 (2026 Apr 19  0:00)
C45GF81 = CCUAFG2 = 1969-046 fragment
1 79851U 69046Z   26109.49919926  .00000000  00000-0  00000-0 0 30356
2 79851 017.1605 038.5477 8020271 267.8110 256.1264 00.46235248    01

# Worst residual: 11.06 km
# MJD 61150.000000 (2026 Apr 20  0:00)
C45GF81 = CCUAFG2 = 1969-046 fragment
1 79851U 69046Z   26110.49919926  .00000000  00000-0  00000-0 0 30358
2 79851 017.1671 038.5329 8018824 267.8407 062.5040 00.46224139    08

# Worst residual: 3.52 km
# MJD 61151.000000 (2026 Apr 21  0:00)
C45GF81 = CCUAFG2 = 1969-046 fragment
1 79851U 69046Z   26111.49919926  .00000000  00000-0  00000-0 0 30359
2 79851 017.1750 038.6392 8024675 267.7528 228.8307 00.46234343    02

# Worst residual: 7.75 km
# MJD 61152.000000 (2026 Apr 22  0:00)
C45GF81 = CCUAFG2 = 1969-046 fragment
1 79851U 69046Z   26112.49919926  .00000000  00000-0  00000-0 0 30350
2 79851 017.1770 038.6529 8026048 267.7722 035.2552 00.46226849    02

# Worst residual: 8.22 km
# MJD 61153.000000 (2026 Apr 23  0:00)
C45GF81 = CCUAFG2 = 1969-046 fragment
1 79851U 69046Z   26113.49919926  .00000000  00000-0  00000-0 0 30351
2 79851 017.1849 038.7501 8027585 267.7291 201.4506 00.46205252    09

# Worst residual: 12.79 km
# MJD 61154.000000 (2026 Apr 24  0:00)
C45GF81 = CCUAFG2 = 1969-046 fragment
1 79851U 69046Z   26114.49919926  .00000000  00000-0  00000-0 0 30352
2 79851 017.1849 038.8045 8030134 267.7316 007.7598 00.46225458    03

# Worst residual: 6.37 km
# MJD 61155.000000 (2026 Apr 25  0:00)
C45GF81 = CCUAFG2 = 1969-046 fragment
1 79851U 69046Z   26115.49919926  .00000000  00000-0  00000-0 0 30353
2 79851 017.1845 038.7976 8026785 267.7845 174.1249 00.46214883    07

# Worst residual: 6.73 km
# MJD 61156.000000 (2026 Apr 26  0:00)
C45GF81 = CCUAFG2 = 1969-046 fragment
1 79851U 69046Z   26116.49919926  .00000000  00000-0  00000-0 0 30354
2 79851 017.1895 038.7833 8023404 267.8320 340.3707 00.46222653    08

# Worst residual: 4.76 km
# MJD 61157.000000 (2026 Apr 27  0:00)
C45GF81 = CCUAFG2 = 1969-046 fragment
1 79851U 69046Z   26117.49919926  .00000000  00000-0  00000-0 0 30355
2 79851 017.1895 038.7751 8022945 267.8631 146.7899 00.46234374    04

# Worst residual: 10.20 km
# MJD 61158.000000 (2026 Apr 28  0:00)
C45GF81 = CCUAFG2 = 1969-046 fragment
1 79851U 69046Z   26118.49919926  .00000000  00000-0  00000-0 0 30356
2 79851 017.1940 038.7614 8019177 267.8856 313.1703 00.46226941    00

# Worst residual: 5.59 km
# MJD 61159.000000 (2026 Apr 29  0:00)
C45GF81 = CCUAFG2 = 1969-046 fragment
1 79851U 69046Z   26119.49919926  .00000000  00000-0  00000-0 0 30357
2 79851 017.1973 038.7480 8020360 267.9155 119.5479 00.46230980    02

# Worst residual: 7.98 km
# MJD 61160.000000 (2026 Apr 30  0:00)
C45GF81 = CCUAFG2 = 1969-046 fragment
1 79851U 69046Z   26120.49919926  .00000000  00000-0  00000-0 0 30359
2 79851 017.2008 038.7888 8020802 267.8915 285.9695 00.46237038    07

# Worst residual: 8.35 km
# MJD 61161.000000 (2026 May  1  0:00)
C45GF81 = CCUAFG2 = 1969-046 fragment
1 79851U 69046Z   26121.49919926  .00000000  00000-0  00000-0 0 30350
2 79851 017.2032 038.7672 8020922 267.9257 092.3565 00.46230864    04

# Worst residual: 2.75 km
# MJD 61162.000000 (2026 May  2  0:00)
C45GF81 = CCUAFG2 = 1969-046 fragment
1 79851U 69046Z   26122.49919926  .00000000  00000-0  00000-0 0 30351
2 79851 017.2067 038.8029 8022433 267.9122 258.7362 00.46232365    00

# Worst residual: 7.79 km
# MJD 61163.000000 (2026 May  3  0:00)
C45GF81 = CCUAFG2 = 1969-046 fragment
1 79851U 69046Z   26123.49919926  .00000000  00000-0  00000-0 0 30352
2 79851 017.2083 038.7878 8021621 267.9507 065.1268 00.46232752    09

# Worst residual: 5.24 km
# MJD 61164.000000 (2026 May  4  0:00)
C45GF81 = CCUAFG2 = 1969-046 fragment
1 79851U 69046Z   26124.49919926  .00000000  00000-0  00000-0 0 30353
2 79851 017.2097 038.7789 8022486 267.9806 231.4853 00.46227656    02

# Worst residual: 6.70 km
# MJD 61165.000000 (2026 May  5  0:00)
C45GF81 = CCUAFG2 = 1969-046 fragment
1 79851U 69046Z   26125.49919926  .00000000  00000-0  00000-0 0 30354
2 79851 017.2125 038.7711 8022011 268.0126 037.8760 00.46227772    04

# Worst residual: 4.39 km
# MJD 61166.000000 (2026 May  6  0:00)
C45GF81 = CCUAFG2 = 1969-046 fragment
1 79851U 69046Z   26126.49919926  .00000000  00000-0  00000-0 0 30355
2 79851 017.2115 038.7397 8022233 268.0615 204.2579 00.46227793    03

# Worst residual: 11.82 km
# MJD 61167.000000 (2026 May  7  0:00)
C45GF81 = CCUAFG2 = 1969-046 fragment
1 79851U 69046Z   26127.49919926  .00000000  00000-0  00000-0 0 30356
2 79851 017.2155 038.7272 8022147 268.0910 010.6596 00.46211699    07

# Worst residual: 1.88 km
# MJD 61168.000000 (2026 May  8  0:00)
C45GF81 = CCUAFG2 = 1969-046 fragment
1 79851U 69046Z   26128.49919926  .00000000  00000-0  00000-0 0 30357
2 79851 017.2143 038.7076 8022107 268.1265 177.0573 00.46227897    06

# Worst residual: 11.23 km
# MJD 61169.000000 (2026 May  9  0:00)
C45GF81 = CCUAFG2 = 1969-046 fragment
1 79851U 69046Z   26129.49919926  .00000000  00000-0  00000-0 0 30358
2 79851 017.2178 038.7049 8022441 268.1425 343.4744 00.46211553    04

# Worst residual: 5.75 km
# MJD 61170.000000 (2026 May 10  0:00)
C45GF81 = CCUAFG2 = 1969-046 fragment
1 79851U 69046Z   26130.49919926  .00000000  00000-0  00000-0 0 30350
2 79851 017.2176 038.6988 8022259 268.1721 149.8529 00.46223849    09

# Worst residual: 3.69 km
# MJD 61171.000000 (2026 May 11  0:00)
C45GF81 = CCUAFG2 = 1969-046 fragment
1 79851U 69046Z   26131.49919926  .00000000  00000-0  00000-0 0 30351
2 79851 017.2200 038.7293 8022802 268.1625 316.2364 00.46226705    05

# Worst residual: 5.03 km
# MJD 61172.000000 (2026 May 12  0:00)
C45GF81 = CCUAFG2 = 1969-046 fragment
1 79851U 69046Z   26132.49919926  .00000000  00000-0  00000-0 0 30352
2 79851 017.2201 038.7163 8022814 268.2075 122.6101 00.46223432    07

# Worst residual: 10.43 km
# MJD 61173.000000 (2026 May 13  0:00)
C45GF81 = CCUAFG2 = 1969-046 fragment
1 79851U 69046Z   26133.49919926  .00000000  00000-0  00000-0 0 30353
2 79851 017.2224 038.7571 8022508 268.1949 288.9441 00.46230865    05

# Worst residual: 5.41 km
# MJD 61174.000000 (2026 May 14  0:00)
C45GF81 = CCUAFG2 = 1969-046 fragment
1 79851U 69046Z   26134.49919926  .00000000  00000-0  00000-0 0 30354
2 79851 017.2242 038.7313 8022449 268.2421 095.3364 00.46236865    09

# Worst residual: 6.61 km
# MJD 61175.000000 (2026 May 15  0:00)
C45GF81 = CCUAFG2 = 1969-046 fragment
1 79851U 69046Z   26135.49919926  .00000000  00000-0  00000-0 0 30355
2 79851 017.2270 038.7310 8020839 268.2681 261.7034 00.46229797    05

# Worst residual: 13.57 km
# MJD 61176.000000 (2026 May 16  0:00)
C45GF81 = CCUAFG2 = 1969-046 fragment
1 79851U 69046Z   26136.49919926  .00000000  00000-0  00000-0 0 30356
2 79851 017.2330 038.7078 8018802 268.3033 068.0780 00.46235951    07

# Worst residual: 6.38 km
# MJD 61177.000000 (2026 May 17  0:00)
C45GF81 = CCUAFG2 = 1969-046 fragment
1 79851U 69046Z   26137.49919926  .00000000  00000-0  00000-0 0 30357
2 79851 017.2373 038.7358 8021548 268.2870 234.4783 00.46238312    00

# Worst residual: 7.55 km
# MJD 61178.000000 (2026 May 18  0:00)
C45GF81 = CCUAFG2 = 1969-046 fragment
1 79851U 69046Z   26138.49919926  .00000000  00000-0  00000-0 0 30358
2 79851 017.2428 038.7181 8020663 268.3211 040.8910 00.46227559    04

# Worst residual: 4.81 km
# MJD 61179.000000 (2026 May 19  0:00)
C45GF81 = CCUAFG2 = 1969-046 fragment
1 79851U 69046Z   26139.49919926  .00000000  00000-0  00000-0 0 30359
2 79851 017.2534 038.8480 8026647 268.2232 207.1230 00.46222311    09

# Worst residual: 12.20 km
# MJD 61180.000000 (2026 May 20  0:00)
C45GF81 = CCUAFG2 = 1969-046 fragment
1 79851U 69046Z   26140.49919926  .00000000  00000-0  00000-0 0 30351
2 79851 017.2533 038.8950 8030154 268.2227 013.5349 00.46229048    06

# Worst residual: 7.05 km
# MJD 61181.000000 (2026 May 21  0:00)
C45GF81 = CCUAFG2 = 1969-046 fragment
1 79851U 69046Z   26141.49919926  .00000000  00000-0  00000-0 0 30352
2 79851 017.2573 038.9292 8028415 268.2512 179.7705 00.46198509    02

# Worst residual: 14.04 km
# MJD 61182.000000 (2026 May 22  0:00)
C45GF81 = CCUAFG2 = 1969-046 fragment
1 79851U 69046Z   26142.49919926  .00000000  00000-0  00000-0 0 30353
2 79851 017.2596 038.9691 8029254 268.2677 345.9947 00.46218799    03

# Worst residual: 3.65 km
# MJD 61183.000000 (2026 May 23  0:00)
C45GF81 = CCUAFG2 = 1969-046 fragment
1 79851U 69046Z   26143.49919926  .00000000  00000-0  00000-0 0 30354
2 79851 017.2580 038.9488 8026526 268.3267 152.4036 00.46226409    02

# Worst residual: 4.48 km
# MJD 61184.000000 (2026 May 24  0:00)
C45GF81 = CCUAFG2 = 1969-046 fragment
1 79851U 69046Z   26144.49919926  .00000000  00000-0  00000-0 0 30355
2 79851 017.2631 038.9088 8021740 268.3837 318.7091 00.46214873    01

# Worst residual: 6.55 km
# MJD 61185.000000 (2026 May 25  0:00)
C45GF81 = CCUAFG2 = 1969-046 fragment
1 79851U 69046Z   26145.49919926  .00000000  00000-0  00000-0 0 30356
2 79851 017.2650 038.8975 8021824 268.4180 125.0944 00.46231868    00

# Worst residual: 7.58 km
# MJD 61186.000000 (2026 May 26  0:00)
C45GF81 = CCUAFG2 = 1969-046 fragment
1 79851U 69046Z   26146.49919926  .00000000  00000-0  00000-0 0 30357
2 79851 017.2681 038.9176 8020373 268.4076 291.5216 00.46228738    03

# Worst residual: 4.65 km
# MJD 61187.000000 (2026 May 27  0:00)
C45GF81 = CCUAFG2 = 1969-046 fragment
1 79851U 69046Z   26147.49919926  .00000000  00000-0  00000-0 0 30358
2 79851 017.2719 038.8880 8020868 268.4527 097.8936 00.46228174    06

# Worst residual: 2.66 km
# MJD 61188.000000 (2026 May 28  0:00)
C45GF81 = CCUAFG2 = 1969-046 fragment
1 79851U 69046Z   26148.49919926  .00000000  00000-0  00000-0 0 30359
2 79851 017.2755 038.9361 8022572 268.4231 264.3003 00.46233519    02

# Worst residual: 8.77 km
# MJD 61189.000000 (2026 May 29  0:00)
C45GF81 = CCUAFG2 = 1969-046 fragment
1 79851U 69046Z   26149.49919926  .00000000  00000-0  00000-0 0 30350
2 79851 017.2775 038.9157 8021772 268.4658 070.6878 00.46230599    04

# Worst residual: 5.01 km
# MJD 61190.000000 (2026 May 30  0:00)
C45GF81 = CCUAFG2 = 1969-046 fragment
1 79851U 69046Z   26150.49919926  .00000000  00000-0  00000-0 0 30352
2 79851 017.2802 038.9289 8023268 268.4741 237.0402 00.46228136    02

# Worst residual: 4.50 km
# MJD 61191.000000 (2026 May 31  0:00)
C45GF81 = CCUAFG2 = 1969-046 fragment
1 79851U 69046Z   26151.49919926  .00000000  00000-0  00000-0 0 30353
2 79851 017.2827 038.9224 8022837 268.5069 043.4357 00.46233278    04

# Worst residual: 5.23 km
# MJD 61192.000000 (2026 Jun  1  0:00)
C45GF81 = CCUAFG2 = 1969-046 fragment
1 79851U 69046Z   26152.49919926  .00000000  00000-0  00000-0 0 30354
2 79851 017.2826 038.8962 8023095 268.5564 209.7879 00.46225384    03

# Worst residual: 12.46 km
# MJD 61193.000000 (2026 Jun  2  0:00)
C45GF81 = CCUAFG2 = 1969-046 fragment
1 79851U 69046Z   26153.49919926  .00000000  00000-0  00000-0 0 30355
2 79851 017.2857 038.8832 8023107 268.5921 016.1848 00.46218936    05

# Worst residual: 3.02 km
# MJD 61194.000000 (2026 Jun  3  0:00)
C45GF81 = CCUAFG2 = 1969-046 fragment
1 79851U 69046Z   26154.49919926  .00000000  00000-0  00000-0 0 30356
2 79851 017.2849 038.8522 8022722 268.6412 182.5699 00.46226466    09

# Worst residual: 17.91 km
# MJD 61195.000000 (2026 Jun  4  0:00)
C45GF81 = CCUAFG2 = 1969-046 fragment
1 79851U 69046Z   26155.49919926  .00000000  00000-0  00000-0 0 30357
2 79851 017.2902 038.8356 8023041 268.6695 348.9897 00.46202088    04

# Worst residual: 3.21 km
# MJD 61196.000000 (2026 Jun  5  0:00)
C45GF81 = CCUAFG2 = 1969-046 fragment
1 79851U 69046Z   26156.49919926  .00000000  00000-0  00000-0 0 30358
2 79851 017.2880 038.8178 8022240 268.7092 155.3722 00.46224579    09

# Worst residual: 10.86 km
# MJD 61197.000000 (2026 Jun  6  0:00)
C45GF81 = CCUAFG2 = 1969-046 fragment
1 79851U 69046Z   26157.49919926  .00000000  00000-0  00000-0 0 30359
2 79851 017.2910 038.8247 8022923 268.7137 321.7960 00.46211170    04

# Worst residual: 6.76 km
# MJD 61198.000000 (2026 Jun  7  0:00)
C45GF81 = CCUAFG2 = 1969-046 fragment
1 79851U 69046Z   26158.49919926  .00000000  00000-0  00000-0 0 30350
2 79851 017.2907 038.8130 8022355 268.7579 128.1564 00.46219518    03

# Worst residual: 2.68 km
# MJD 61199.000000 (2026 Jun  8  0:00)
C45GF81 = CCUAFG2 = 1969-046 fragment
1 79851U 69046Z   26159.49919926  .00000000  00000-0  00000-0 0 30351
2 79851 017.2928 038.8572 8023235 268.7344 294.5328 00.46224390    04

# Worst residual: 4.02 km
# MJD 61200.000000 (2026 Jun  9  0:00)
C45GF81 = CCUAFG2 = 1969-046 fragment
1 79851U 69046Z   26160.49919926  .00000000  00000-0  00000-0 0 30353
2 79851 017.2932 038.8306 8023043 268.7971 100.9005 00.46223476    03

# Worst residual: 6.50 km
# MJD 61201.000000 (2026 Jun 10  0:00)
C45GF81 = CCUAFG2 = 1969-046 fragment
1 79851U 69046Z   26161.49919926  .00000000  00000-0  00000-0 0 30354
2 79851 017.2960 038.8557 8022723 268.7984 267.2464 00.46226405    01

# Worst residual: 7.09 km
# MJD 61202.000000 (2026 Jun 11  0:00)
C45GF81 = CCUAFG2 = 1969-046 fragment
1 79851U 69046Z   26162.49919926  .00000000  00000-0  00000-0 0 30355
2 79851 017.2986 038.8301 8021292 268.8470 073.6236 00.46237342    05

# Worst residual: 5.18 km
# MJD 61203.000000 (2026 Jun 12  0:00)
C45GF81 = CCUAFG2 = 1969-046 fragment
1 79851U 69046Z   26163.49919926  .00000000  00000-0  00000-0 0 30356
2 79851 017.3012 038.8126 8020375 268.8852 240.0073 00.46229205    04

# Worst residual: 9.26 km
# MJD 61204.000000 (2026 Jun 13  0:00)
C45GF81 = CCUAFG2 = 1969-046 fragment
1 79851U 69046Z   26164.49919926  .00000000  00000-0  00000-0 0 30357
2 79851 017.3081 038.7876 8018190 268.9235 046.3831 00.46233181    06

# Worst residual: 5.48 km
# MJD 61205.000000 (2026 Jun 14  0:00)
C45GF81 = CCUAFG2 = 1969-046 fragment
1 79851U 69046Z   26165.49919926  .00000000  00000-0  00000-0 0 30358
2 79851 017.3142 038.8426 8022244 268.8804 212.7486 00.46236785    00

# Worst residual: 12.63 km
# MJD 61206.000000 (2026 Jun 15  0:00)
C45GF81 = CCUAFG2 = 1969-046 fragment
1 79851U 69046Z   26166.49919926  .00000000  00000-0  00000-0 0 30359
2 79851 017.3180 038.8374 8023111 268.9070 019.1930 00.46222550    02

# Worst residual: 9.72 km
# MJD 61207.000000 (2026 Jun 16  0:00)
C45GF81 = CCUAFG2 = 1969-046 fragment
1 79851U 69046Z   26167.49919926  .00000000  00000-0  00000-0 0 30350
2 79851 017.3293 038.9524 8026581 268.8367 185.3846 00.46204505    09

# Worst residual: 18.50 km
# MJD 61208.000000 (2026 Jun 17  0:00)
C45GF81 = CCUAFG2 = 1969-046 fragment
1 79851U 69046Z   26168.49919926  .00000000  00000-0  00000-0 0 30351
2 79851 017.3284 039.0324 8031866 268.8156 351.7236 00.46220115    04

# Worst residual: 9.48 km
# MJD 61209.000000 (2026 Jun 18  0:00)
C45GF81 = CCUAFG2 = 1969-046 fragment
1 79851U 69046Z   26169.49919926  .00000000  00000-0  00000-0 0 30352
2 79851 017.3293 039.0266 8028134 268.8849 158.0409 00.46204163    07

# Worst residual: 12.08 km
# MJD 61210.000000 (2026 Jun 19  0:00)
C45GF81 = CCUAFG2 = 1969-046 fragment
1 79851U 69046Z   26170.49919926  .00000000  00000-0  00000-0 0 30354
2 79851 017.3336 039.0167 8025961 268.9395 324.2280 00.46206046    03

# Worst residual: 5.52 km
# MJD 61211.000000 (2026 Jun 20  0:00)
C45GF81 = CCUAFG2 = 1969-046 fragment
1 79851U 69046Z   26171.49919926  .00000000  00000-0  00000-0 0 30355
2 79851 017.3331 038.9981 8023839 268.9962 130.6272 00.46229888    01

# Worst residual: 6.06 km
# MJD 61212.000000 (2026 Jun 21  0:00)
C45GF81 = CCUAFG2 = 1969-046 fragment
1 79851U 69046Z   26172.49919926  .00000000  00000-0  00000-0 0 30356
2 79851 017.3364 038.9674 8019423 269.0338 297.0104 00.46213099    08

# Worst residual: 7.63 km
# MJD 61213.000000 (2026 Jun 22  0:00)
C45GF81 = CCUAFG2 = 1969-046 fragment
1 79851U 69046Z   26173.49919926  .00000000  00000-0  00000-0 0 30357
2 79851 017.3407 038.9331 8019353 269.0925 103.3658 00.46224686    07

# Worst residual: 4.15 km
# MJD 61214.000000 (2026 Jun 23  0:00)
C45GF81 = CCUAFG2 = 1969-046 fragment
1 79851U 69046Z   26174.49919926  .00000000  00000-0  00000-0 0 30358
2 79851 017.3440 038.9712 8020262 269.0641 269.8116 00.46231095    02

# Worst residual: 5.04 km
# MJD 61215.000000 (2026 Jun 24  0:00)
C45GF81 = CCUAFG2 = 1969-046 fragment
1 79851U 69046Z   26175.49919926  .00000000  00000-0  00000-0 0 30359
2 79851 017.3471 038.9410 8019438 269.1149 076.1847 00.46224176    00

# Worst residual: 4.18 km
# MJD 61216.000000 (2026 Jun 25  0:00)
C45GF81 = CCUAFG2 = 1969-046 fragment
1 79851U 69046Z   26176.49919926  .00000000  00000-0  00000-0 0 30350
2 79851 017.3508 038.9784 8021461 269.0949 242.5633 00.46229559    03

# Worst residual: 4.33 km
# MJD 61217.000000 (2026 Jun 26  0:00)
C45GF81 = CCUAFG2 = 1969-046 fragment
1 79851U 69046Z   26177.49919926  .00000000  00000-0  00000-0 0 30351
2 79851 017.3537 038.9699 8021132 269.1299 048.9568 00.46231884    03

# Worst residual: 4.90 km
# MJD 61218.000000 (2026 Jun 27  0:00)
C45GF81 = CCUAFG2 = 1969-046 fragment
1 79851U 69046Z   26178.49919926  .00000000  00000-0  00000-0 0 30352
2 79851 017.3547 038.9596 8021656 269.1650 215.2997 00.46224697    01

# Worst residual: 12.32 km
# MJD 61219.000000 (2026 Jun 28  0:00)
C45GF81 = CCUAFG2 = 1969-046 fragment
1 79851U 69046Z   26179.49919926  .00000000  00000-0  00000-0 0 30353
2 79851 017.3581 038.9504 8021822 269.2005 021.6911 00.46221790    04

# Worst residual: 3.75 km
# MJD 61220.000000 (2026 Jun 29  0:00)
C45GF81 = CCUAFG2 = 1969-046 fragment
1 79851U 69046Z   26180.49919926  .00000000  00000-0  00000-0 0 30355
2 79851 017.3573 038.9201 8021161 269.2537 188.0611 00.46223949    08

# Worst residual: 16.76 km
# MJD 61221.000000 (2026 Jun 30  0:00)
C45GF81 = CCUAFG2 = 1969-046 fragment
1 79851U 69046Z   26181.49919926  .00000000  00000-0  00000-0 0 30356
2 79851 017.3616 038.8977 8021609 269.2907 354.4687 00.46197914    07

# Worst residual: 1.63 km
# MJD 61222.000000 (2026 Jul  1  0:00)
C45GF81 = CCUAFG2 = 1969-046 fragment
1 79851U 69046Z   26182.49919926  .00000000  00000-0  00000-0 0 30357
2 79851 017.3605 038.8736 8020161 269.3378 160.8544 00.46224046    01

# Worst residual: 17.35 km
# MJD 61223.000000 (2026 Jul  2  0:00)
C45GF81 = CCUAFG2 = 1969-046 fragment
1 79851U 69046Z   26183.49919926  .00000000  00000-0  00000-0 0 30358
2 79851 017.3636 038.8568 8020489 269.3604 327.2894 00.46197945    07

# Worst residual: 6.88 km
# MJD 61224.000000 (2026 Jul  3  0:00)
C45GF81 = CCUAFG2 = 1969-046 fragment
1 79851U 69046Z   26184.49919926  .00000000  00000-0  00000-0 0 30359
2 79851 017.3639 038.8397 8019196 269.4088 133.6526 00.46219342    07

# Worst residual: 10.28 km
# MJD 61225.000000 (2026 Jul  4  0:00)
C45GF81 = CCUAFG2 = 1969-046 fragment
1 79851U 69046Z   26185.49919926  .00000000  00000-0  00000-0 0 30350
2 79851 017.3658 038.8627 8020172 269.3966 300.0725 00.46214268    07

# Worst residual: 8.82 km
# MJD 61226.000000 (2026 Jul  5  0:00)
C45GF81 = CCUAFG2 = 1969-046 fragment
1 79851U 69046Z   26186.49919926  .00000000  00000-0  00000-0 0 30351
2 79851 017.3662 038.8349 8019339 269.4647 106.4199 00.46213803    00

# Worst residual: 2.58 km
# MJD 61227.000000 (2026 Jul  6  0:00)
C45GF81 = CCUAFG2 = 1969-046 fragment
1 79851U 69046Z   26187.49919926  .00000000  00000-0  00000-0 0 30352
2 79851 017.3686 038.8755 8020500 269.4425 272.7954 00.46224327    02

# Worst residual: 4.74 km
# MJD 61228.000000 (2026 Jul  7  0:00)
C45GF81 = CCUAFG2 = 1969-046 fragment
1 79851U 69046Z   26188.49919926  .00000000  00000-0  00000-0 0 30353
2 79851 017.3691 038.8460 8020023 269.5064 079.1593 00.46224214    04

# Worst residual: 4.68 km
# MJD 61229.000000 (2026 Jul  8  0:00)
C45GF81 = CCUAFG2 = 1969-046 fragment
1 79851U 69046Z   26189.49919926  .00000000  00000-0  00000-0 0 30354
2 79851 017.3718 038.8525 8019036 269.5236 245.5247 00.46223957    07

# Worst residual: 5.03 km
# MJD 61230.000000 (2026 Jul  9  0:00)
C45GF81 = CCUAFG2 = 1969-046 fragment
1 79851U 69046Z   26190.49919926  .00000000  00000-0  00000-0 0 30356
2 79851 017.3770 038.8308 8017186 269.5675 051.8868 00.46236818    02

# Worst residual: 6.03 km
# MJD 61231.000000 (2026 Jul 10  0:00)
C45GF81 = CCUAFG2 = 1969-046 fragment
1 79851U 69046Z   26191.49919926  .00000000  00000-0  00000-0 0 30357
2 79851 017.3786 038.8164 8017167 269.5998 218.2844 00.46232109    08

# Worst residual: 7.50 km
# MJD 61232.000000 (2026 Jul 11  0:00)
C45GF81 = CCUAFG2 = 1969-046 fragment
1 79851U 69046Z   26192.49919926  .00000000  00000-0  00000-0 0 30358
2 79851 017.3858 038.7794 8015306 269.6487 024.6756 00.46224013    09

# Worst residual: 3.24 km
# MJD 61233.000000 (2026 Jul 12  0:00)
C45GF81 = CCUAFG2 = 1969-046 fragment
1 79851U 69046Z   26193.49919926  .00000000  00000-0  00000-0 0 30359
2 79851 017.3940 038.8565 8019569 269.5858 191.0055 00.46229543    08

# Worst residual: 16.40 km
# MJD 61234.000000 (2026 Jul 13  0:00)
C45GF81 = CCUAFG2 = 1969-046 fragment
1 79851U 69046Z   26194.49919926  .00000000  00000-0  00000-0 0 30350
2 79851 017.3968 038.8808 8022764 269.5882 357.4609 00.46211315    07

# Worst residual: 10.56 km
# MJD 61235.000000 (2026 Jul 14  0:00)
C45GF81 = CCUAFG2 = 1969-046 fragment
1 79851U 69046Z   26195.49919926  .00000000  00000-0  00000-0 0 30351
2 79851 017.4046 038.9490 8022761 269.5753 163.6783 00.46192661    09

# Worst residual: 20.65 km
# MJD 61236.000000 (2026 Jul 15  0:00)
C45GF81 = CCUAFG2 = 1969-046 fragment
1 79851U 69046Z   26196.49919926  .00000000  00000-0  00000-0 0 30352
2 79851 017.4049 039.0361 8027751 269.5533 329.9080 00.46213001    00

# Worst residual: 5.29 km
# MJD 61237.000000 (2026 Jul 16  0:00)
C45GF81 = CCUAFG2 = 1969-046 fragment
1 79851U 69046Z   26197.49919926  .00000000  00000-0  00000-0 0 30353
2 79851 017.4035 039.0122 8023795 269.6383 136.2816 00.46214677    04

# Worst residual: 9.13 km
# MJD 61238.000000 (2026 Jul 17  0:00)
C45GF81 = CCUAFG2 = 1969-046 fragment
1 79851U 69046Z   26198.49919926  .00000000  00000-0  00000-0 0 30354
2 79851 017.4082 038.9699 8018800 269.7089 302.5057 00.46199068    09

# Worst residual: 10.98 km
# MJD 61239.000000 (2026 Jul 18  0:00)
C45GF81 = CCUAFG2 = 1969-046 fragment
1 79851U 69046Z   26199.49919926  .00000000  00000-0  00000-0 0 30355
2 79851 017.4102 038.9348 8017322 269.7846 108.8621 00.46224375    06

# Worst residual: 6.67 km
# MJD 61240.000000 (2026 Jul 19  0:00)
C45GF81 = CCUAFG2 = 1969-046 fragment
1 79851U 69046Z   26200.49919926  .00000000  00000-0  00000-0 0 30358
2 79851 017.4133 038.9253 8015297 269.7982 275.3081 00.46222369    06

# Worst residual: 6.69 km
# MJD 61241.000000 (2026 Jul 20  0:00)
C45GF81 = CCUAFG2 = 1969-046 fragment
1 79851U 69046Z   26201.49919926  .00000000  00000-0  00000-0 0 30359
2 79851 017.4181 038.8820 8014349 269.8616 081.6544 00.46217400    02

# Worst residual: 3.15 km
# MJD 61242.000000 (2026 Jul 21  0:00)
C45GF81 = CCUAFG2 = 1969-046 fragment
1 79851U 69046Z   26202.49919926  .00000000  00000-0  00000-0 0 30350
2 79851 017.4217 038.9270 8016233 269.8254 248.0917 00.46232109    00

# Worst residual: 3.62 km
# MJD 61243.000000 (2026 Jul 22  0:00)
C45GF81 = CCUAFG2 = 1969-046 fragment
1 79851U 69046Z   26203.49919926  .00000000  00000-0  00000-0 0 30351
2 79851 017.4257 038.9096 8015571 269.8657 054.4738 00.46224439    08

# Worst residual: 2.98 km
# MJD 61244.000000 (2026 Jul 23  0:00)
C45GF81 = CCUAFG2 = 1969-046 fragment
1 79851U 69046Z   26204.49919926  .00000000  00000-0  00000-0 0 30352
2 79851 017.4277 038.9209 8016878 269.8741 220.8380 00.46227023    05

# Worst residual: 8.02 km
# MJD 61245.000000 (2026 Jul 24  0:00)
C45GF81 = CCUAFG2 = 1969-046 fragment
1 79851U 69046Z   26205.49919926  .00000000  00000-0  00000-0 0 30353
2 79851 017.4309 038.9154 8016928 269.9064 027.2287 00.46226175    07

# Worst residual: 3.09 km
# MJD 61246.000000 (2026 Jul 25  0:00)
C45GF81 = CCUAFG2 = 1969-046 fragment
1 79851U 69046Z   26206.49919926  .00000000  00000-0  00000-0 0 30354
2 79851 017.4308 038.8927 8016712 269.9538 193.5877 00.46223551    07

# Worst residual: 16.69 km
# MJD 61247.000000 (2026 Jul 26  0:00)
C45GF81 = CCUAFG2 = 1969-046 fragment
1 79851U 69046Z   26207.49919926  .00000000  00000-0  00000-0 0 30355
2 79851 017.4355 038.8737 8017182 269.9927 359.9820 00.46203343    05

# Worst residual: 1.99 km
# MJD 61248.000000 (2026 Jul 27  0:00)
C45GF81 = CCUAFG2 = 1969-046 fragment
1 79851U 69046Z   26208.49919926  .00000000  00000-0  00000-0 0 30356
2 79851 017.4338 038.8469 8015733 270.0433 166.3658 00.46223596    04

# Worst residual: 20.98 km
# MJD 61249.000000 (2026 Jul 28  0:00)
C45GF81 = CCUAFG2 = 1969-046 fragment
1 79851U 69046Z   26209.49919926  .00000000  00000-0  00000-0 0 30357
2 79851 017.4381 038.8206 8015846 270.0764 332.7908 00.46194543    09

# Worst residual: 5.46 km
# MJD 61250.000000 (2026 Jul 29  0:00)
C45GF81 = CCUAFG2 = 1969-046 fragment
1 79851U 69046Z   26210.49919926  .00000000  00000-0  00000-0 0 30359
2 79851 017.4374 038.7993 8014209 270.1272 139.1612 00.46220668    09

# Worst residual: 14.76 km
# MJD 61251.000000 (2026 Jul 30  0:00)
C45GF81 = CCUAFG2 = 1969-046 fragment
1 79851U 69046Z   26211.49919926  .00000000  00000-0  00000-0 0 30350
2 79851 017.4403 038.7943 8014556 270.1367 305.6006 00.46205634    00

# Worst residual: 10.41 km
# MJD 61252.000000 (2026 Jul 31  0:00)
C45GF81 = CCUAFG2 = 1969-046 fragment
1 79851U 69046Z   26212.49919926  .00000000  00000-0  00000-0 0 30351
2 79851 017.4399 038.7602 8013210 270.2098 111.9419 00.46211255    06

# Worst residual: 6.92 km
# MJD 61253.000000 (2026 Aug  1  0:00)
C45GF81 = CCUAFG2 = 1969-046 fragment
1 79851U 69046Z   26213.49919926  .00000000  00000-0  00000-0 0 30352
2 79851 017.4420 038.8005 8014624 270.1788 278.3606 00.46220173    09

# Worst residual: 13.84 km
# MJD 61254.000000 (2026 Aug  2  0:00)
C45GF81 = CCUAFG2 = 1969-046 fragment
1 79851U 69046Z   26214.49919926  .00000000  00000-0  00000-0 0 30353
2 79851 017.4425 038.7661 8014544 270.2530 084.7010 00.46210709    00

# Worst residual: 3.96 km
# MJD 61255.000000 (2026 Aug  3  0:00)
C45GF81 = CCUAFG2 = 1969-046 fragment
1 79851U 69046Z   26215.49919926  .00000000  00000-0  00000-0 0 30354
2 79851 017.4452 038.7961 8014828 270.2396 251.0942 00.46224595    09

# Worst residual: 5.14 km
# MJD 61256.000000 (2026 Aug  4  0:00)
C45GF81 = CCUAFG2 = 1969-046 fragment
1 79851U 69046Z   26216.49919926  .00000000  00000-0  00000-0 0 30355
2 79851 017.4481 038.7786 8013907 270.2867 057.4515 00.46227407    05

# Worst residual: 4.04 km
# MJD 61257.000000 (2026 Aug  5  0:00)
C45GF81 = CCUAFG2 = 1969-046 fragment
1 79851U 69046Z   26217.49919926  .00000000  00000-0  00000-0 0 30356
2 79851 017.4490 038.7597 8012934 270.3281 223.8390 00.46226804    05

# Worst residual: 3.62 km
# MJD 61258.000000 (2026 Aug  6  0:00)
C45GF81 = CCUAFG2 = 1969-046 fragment
1 79851U 69046Z   26218.49919926  .00000000  00000-0  00000-0 0 30357
2 79851 017.4555 038.7306 8010523 270.3746 030.1958 00.46234497    09

# Worst residual: 4.05 km
# MJD 61259.000000 (2026 Aug  7  0:00)
C45GF81 = CCUAFG2 = 1969-046 fragment
1 79851U 69046Z   26219.49919926  .00000000  00000-0  00000-0 0 30358
2 79851 017.4582 038.7365 8012024 270.3833 196.5919 00.46235141    00

# Worst residual: 12.71 km
# MJD 61260.000000 (2026 Aug  8  0:00)
C45GF81 = CCUAFG2 = 1969-046 fragment
1 79851U 69046Z   26220.49919926  .00000000  00000-0  00000-0 0 30350
2 79851 017.4643 038.7039 8011166 270.4256 003.0157 00.46214421    06

# Worst residual: 6.22 km
# MJD 61261.000000 (2026 Aug  9  0:00)
C45GF81 = CCUAFG2 = 1969-046 fragment
1 79851U 69046Z   26221.49919926  .00000000  00000-0  00000-0 0 30351
2 79851 017.4732 038.7786 8014331 270.3728 169.3112 00.46217202    01

# Worst residual: 19.46 km
# MJD 61262.000000 (2026 Aug 10  0:00)
C45GF81 = CCUAFG2 = 1969-046 fragment
1 79851U 69046Z   26222.49919926  .00000000  00000-0  00000-0 0 30352
2 79851 017.4734 038.8448 8019484 270.3418 335.7297 00.46214243    04

# Worst residual: 7.74 km
# MJD 61263.000000 (2026 Aug 11  0:00)
C45GF81 = CCUAFG2 = 1969-046 fragment
1 79851U 69046Z   26223.49919926  .00000000  00000-0  00000-0 0 30353
2 79851 017.4773 038.8615 8017397 270.3875 142.0124 00.46194225    06

# Worst residual: 13.94 km
# MJD 61264.000000 (2026 Aug 12  0:00)
C45GF81 = CCUAFG2 = 1969-046 fragment
1 79851U 69046Z   26224.49919926  .00000000  00000-0  00000-0 0 30354
2 79851 017.4790 038.9247 8019425 270.3857 308.1596 00.46208780    01

# Worst residual: 11.91 km
# MJD 61265.000000 (2026 Aug 13  0:00)
C45GF81 = CCUAFG2 = 1969-046 fragment
1 79851U 69046Z   26225.49919926  .00000000  00000-0  00000-0 0 30355
2 79851 017.4778 038.8845 8016537 270.4857 114.5320 00.46219835    09

# Worst residual: 8.36 km
# MJD 61266.000000 (2026 Aug 14  0:00)
C45GF81 = CCUAFG2 = 1969-046 fragment
1 79851U 69046Z   26226.49919926  .00000000  00000-0  00000-0 0 30356
2 79851 017.4818 038.8408 8011305 270.5476 280.8444 00.46207554    04

# Worst residual: 13.46 km
# MJD 61267.000000 (2026 Aug 15  0:00)
C45GF81 = CCUAFG2 = 1969-046 fragment
1 79851U 69046Z   26227.49919926  .00000000  00000-0  00000-0 0 30357
2 79851 017.4867 038.7905 8010271 270.6303 087.1672 00.46216296    04

# Worst residual: 4.35 km
# MJD 61268.000000 (2026 Aug 16  0:00)
C45GF81 = CCUAFG2 = 1969-046 fragment
1 79851U 69046Z   26228.49919926  .00000000  00000-0  00000-0 0 30358
2 79851 017.4896 038.8058 8010061 270.6171 253.6504 00.46230922    02

# Worst residual: 6.31 km
# MJD 61269.000000 (2026 Aug 17  0:00)
C45GF81 = CCUAFG2 = 1969-046 fragment
1 79851U 69046Z   26229.49919926  .00000000  00000-0  00000-0 0 30359
2 79851 017.4956 038.7708 8008586 270.6684 060.0083 00.46216947    01

# Worst residual: 1.37 km
# MJD 61270.000000 (2026 Aug 18  0:00)
C45GF81 = CCUAFG2 = 1969-046 fragment
1 79851U 69046Z   26230.49919926  .00000000  00000-0  00000-0 0 30351
2 79851 017.4981 038.8000 8010685 270.6504 226.4213 00.46232531    09

# Worst residual: 4.35 km
# MJD 61271.000000 (2026 Aug 19  0:00)
C45GF81 = CCUAFG2 = 1969-046 fragment
1 79851U 69046Z   26231.49919926  .00000000  00000-0  00000-0 0 30352
2 79851 017.5020 038.7898 8010102 270.6823 032.8124 00.46228681    07

# Worst residual: 1.43 km
# MJD 61272.000000 (2026 Aug 20  0:00)
C45GF81 = CCUAFG2 = 1969-046 fragment
1 79851U 69046Z   26232.49919926  .00000000  00000-0  00000-0 0 30353
2 79851 017.5027 038.7824 8011057 270.7124 199.1729 00.46226566    06

# Worst residual: 11.42 km
# MJD 61273.000000 (2026 Aug 21  0:00)
C45GF81 = CCUAFG2 = 1969-046 fragment
1 79851U 69046Z   26233.49919926  .00000000  00000-0  00000-0 0 30354
2 79851 017.5064 038.7737 8011114 270.7446 005.5612 00.46219997    02

# Worst residual: 1.50 km
# MJD 61274.000000 (2026 Aug 22  0:00)
C45GF81 = CCUAFG2 = 1969-046 fragment
1 79851U 69046Z   26234.49919926  .00000000  00000-0  00000-0 0 30355
2 79851 017.5055 038.7459 8010611 270.7962 171.9371 00.46224696    09

# Worst residual: 15.75 km
# MJD 61275.000000 (2026 Aug 23  0:00)
C45GF81 = CCUAFG2 = 1969-046 fragment
1 79851U 69046Z   26235.49919926  .00000000  00000-0  00000-0 0 30356
2 79851 017.5098 038.7228 8010579 270.8310 338.3451 00.46202534    06

# Worst residual: 3.28 km
# MJD 61276.000000 (2026 Aug 24  0:00)
C45GF81 = CCUAFG2 = 1969-046 fragment
1 79851U 69046Z   26236.49919926  .00000000  00000-0  00000-0 0 30357
2 79851 017.5085 038.6949 8009215 270.8864 144.7221 00.46223122    00

# Worst residual: 14.95 km
# MJD 61277.000000 (2026 Aug 25  0:00)
C45GF81 = CCUAFG2 = 1969-046 fragment
1 79851U 69046Z   26237.49919926  .00000000  00000-0  00000-0 0 30358
2 79851 017.5117 038.6794 8009043 270.9059 311.1576 00.46204230    02

# Worst residual: 10.63 km
# MJD 61278.000000 (2026 Aug 26  0:00)
C45GF81 = CCUAFG2 = 1969-046 fragment
1 79851U 69046Z   26238.49919926  .00000000  00000-0  00000-0 0 30359
2 79851 017.5118 038.6499 8007634 270.9707 117.5084 00.46214733    00

# Worst residual: 9.94 km
# MJD 61279.000000 (2026 Aug 27  0:00)
C45GF81 = CCUAFG2 = 1969-046 fragment
1 79851U 69046Z   26239.49919926  .00000000  00000-0  00000-0 0 30350
2 79851 017.5136 038.6673 8008456 270.9580 283.9456 00.46216983    06

# Worst residual: 17.04 km
# MJD 61280.000000 (2026 Aug 28  0:00)
C45GF81 = CCUAFG2 = 1969-046 fragment
1 79851U 69046Z   26240.49919926  .00000000  00000-0  00000-0 0 30352
2 79851 017.5142 038.6347 8008105 271.0329 090.2721 00.46203614    06

# Worst residual: 3.12 km
# MJD 61281.000000 (2026 Aug 29  0:00)
C45GF81 = CCUAFG2 = 1969-046 fragment
1 79851U 69046Z   26241.49919926  .00000000  00000-0  00000-0 0 30353
2 79851 017.5166 038.6668 8009451 271.0093 256.7008 00.46226374    06

# Worst residual: 11.80 km
# MJD 61282.000000 (2026 Aug 30  0:00)
C45GF81 = CCUAFG2 = 1969-046 fragment
1 79851U 69046Z   26242.49919926  .00000000  00000-0  00000-0 0 30354
2 79851 017.5185 038.6455 8009056 271.0615 063.0541 00.46215829    06

# Worst residual: 4.25 km
# MJD 61283.000000 (2026 Aug 31  0:00)
C45GF81 = CCUAFG2 = 1969-046 fragment
1 79851U 69046Z   26243.49919926  .00000000  00000-0  00000-0 0 30355
2 79851 017.5199 038.6513 8008870 271.0751 229.4530 00.46226890    06

# Worst residual: 7.09 km
# MJD 61284.000000 (2026 Sep  1  0:00)
C45GF81 = CCUAFG2 = 1969-046 fragment
1 79851U 69046Z   26244.49919926  .00000000  00000-0  00000-0 0 30356
2 79851 017.5249 038.6336 8006851 271.1159 035.8017 00.46236134    06

# Worst residual: 2.70 km
# MJD 61285.000000 (2026 Sep  2  0:00)
C45GF81 = CCUAFG2 = 1969-046 fragment
1 79851U 69046Z   26245.49919926  .00000000  00000-0  00000-0 0 30357
2 79851 017.5255 038.6168 8007197 271.1528 202.2012 00.46233070    01

# Worst residual: 3.56 km
# MJD 61286.000000 (2026 Sep  3  0:00)
C45GF81 = CCUAFG2 = 1969-046 fragment
1 79851U 69046Z   26246.49919926  .00000000  00000-0  00000-0 0 30358
2 79851 017.5324 038.5783 8004239 271.2046 008.5705 00.46234551    01

# Worst residual: 2.54 km
# MJD 61287.000000 (2026 Sep  4  0:00)
C45GF81 = CCUAFG2 = 1969-046 fragment
1 79851U 69046Z   26247.49919926  .00000000  00000-0  00000-0 0 30359
2 79851 017.5370 038.6077 8007423 271.1873 174.9405 00.46234095    02

# Worst residual: 11.06 km
# MJD 61288.000000 (2026 Sep  5  0:00)
C45GF81 = CCUAFG2 = 1969-046 fragment
1 79851U 69046Z   26248.49919926  .00000000  00000-0  00000-0 0 30350
2 79851 017.5408 038.6034 8008079 271.2038 341.3909 00.46217338    09

# Worst residual: 8.38 km
# MJD 61289.000000 (2026 Sep  6  0:00)
C45GF81 = CCUAFG2 = 1969-046 fragment
1 79851U 69046Z   26249.49919926  .00000000  00000-0  00000-0 0 30351
2 79851 017.5478 038.6488 8009563 271.1942 147.6721 00.46205277    09

# Worst residual: 14.00 km
# MJD 61290.000000 (2026 Sep  7  0:00)
C45GF81 = CCUAFG2 = 1969-046 fragment
1 79851U 69046Z   26250.49919926  .00000000  00000-0  00000-0 0 30353
2 79851 017.5472 038.7493 8015284 271.1427 313.9856 00.46222774    03

# Worst residual: 5.16 km
# MJD 61291.000000 (2026 Sep  8  0:00)
C45GF81 = CCUAFG2 = 1969-046 fragment
1 79851U 69046Z   26251.49919926  .00000000  00000-0  00000-0 0 30354
2 79851 017.5476 038.7306 8012958 271.2235 120.3316 00.46205532    07

# Worst residual: 4.85 km
# MJD 61292.000000 (2026 Sep  9  0:00)
C45GF81 = CCUAFG2 = 1969-046 fragment
1 79851U 69046Z   26252.49919926  .00000000  00000-0  00000-0 0 30355
2 79851 017.5502 038.7477 8010828 271.2543 286.4882 00.46205454    07

# Worst residual: 16.45 km
# MJD 61293.000000 (2026 Sep 10  0:00)
C45GF81 = CCUAFG2 = 1969-046 fragment
1 79851U 69046Z   26253.49919926  .00000000  00000-0  00000-0 0 30356
2 79851 017.5514 038.7013 8009687 271.3575 092.8216 00.46217073    03

# Worst residual: 8.76 km
# MJD 61294.000000 (2026 Sep 11  0:00)
C45GF81 = CCUAFG2 = 1969-046 fragment
1 79851U 69046Z   26254.49919926  .00000000  00000-0  00000-0 0 30357
2 79851 017.5550 038.6730 8006247 271.3950 259.2430 00.46220719    02

# Worst residual: 9.53 km
# MJD 61295.000000 (2026 Sep 12  0:00)
C45GF81 = CCUAFG2 = 1969-046 fragment
1 79851U 69046Z   26255.49919926  .00000000  00000-0  00000-0 0 30358
2 79851 017.5622 038.6252 8004274 271.4623 065.5674 00.46214651    03

# Worst residual: 2.14 km
# MJD 61296.000000 (2026 Sep 13  0:00)
C45GF81 = CCUAFG2 = 1969-046 fragment
1 79851U 69046Z   26256.49919926  .00000000  00000-0  00000-0 0 30359
2 79851 017.5645 038.6517 8005691 271.4403 232.0355 00.46236708    06

# Worst residual: 8.02 km
# MJD 61297.000000 (2026 Sep 14  0:00)
C45GF81 = CCUAFG2 = 1969-046 fragment
1 79851U 69046Z   26257.49919926  .00000000  00000-0  00000-0 0 30350
2 79851 017.5705 038.6291 8003678 271.4756 038.4151 00.46229379    04

# Worst residual: 1.93 km
# MJD 61298.000000 (2026 Sep 15  0:00)
C45GF81 = CCUAFG2 = 1969-046 fragment
1 79851U 69046Z   26258.49919926  .00000000  00000-0  00000-0 0 30351
2 79851 017.5721 038.6392 8006072 271.4822 204.7961 00.46232852    06

# Worst residual: 4.04 km
# MJD 61299.000000 (2026 Sep 16  0:00)
C45GF81 = CCUAFG2 = 1969-046 fragment
1 79851U 69046Z   26259.49919926  .00000000  00000-0  00000-0 0 30352
2 79851 017.5757 038.6326 8005155 271.5104 011.1883 00.46236622    09

# Worst residual: 0.64 km
# MJD 61300.000000 (2026 Sep 17  0:00)
C45GF81 = CCUAFG2 = 1969-046 fragment
1 79851U 69046Z   26260.49919926  .00000000  00000-0  00000-0 0 30354
2 79851 017.5756 038.6154 8006363 271.5504 177.5527 00.46228035    04

# Worst residual: 9.54 km
# MJD 61301.000000 (2026 Sep 18  0:00)
C45GF81 = CCUAFG2 = 1969-046 fragment
1 79851U 69046Z   26261.49919926  .00000000  00000-0  00000-0 0 30355
2 79851 017.5792 038.5984 8005917 271.5862 343.9446 00.46219950    00

# Worst residual: 1.29 km
# MJD 61302.000000 (2026 Sep 19  0:00)
C45GF81 = CCUAFG2 = 1969-046 fragment
1 79851U 69046Z   26262.49919926  .00000000  00000-0  00000-0 0 30356
2 79851 017.5781 038.5736 8005686 271.6349 150.3243 00.46226710    04

# Worst residual: 12.36 km
# MJD 61303.000000 (2026 Sep 20  0:00)
C45GF81 = CCUAFG2 = 1969-046 fragment
1 79851U 69046Z   26263.49919926  .00000000  00000-0  00000-0 0 30357
2 79851 017.5816 038.5564 8004934 271.6596 316.7432 00.46209591    07

# Worst residual: 6.68 km
# MJD 61304.000000 (2026 Sep 21  0:00)
C45GF81 = CCUAFG2 = 1969-046 fragment
1 79851U 69046Z   26264.49919926  .00000000  00000-0  00000-0 0 30358
2 79851 017.5812 038.5237 8004066 271.7228 123.1077 00.46220962    09

# Worst residual: 10.59 km
# MJD 61305.000000 (2026 Sep 22  0:00)
C45GF81 = CCUAFG2 = 1969-046 fragment
1 79851U 69046Z   26265.49919926  .00000000  00000-0  00000-0 0 30359
2 79851 017.5831 038.5248 8004118 271.7257 289.5489 00.46215488    03

# Worst residual: 15.39 km
# MJD 61306.000000 (2026 Sep 23  0:00)
C45GF81 = CCUAFG2 = 1969-046 fragment
1 79851U 69046Z   26266.49919926  .00000000  00000-0  00000-0 0 30350
2 79851 017.5841 038.4877 8003479 271.8014 095.8838 00.46208132    06

# Worst residual: 2.34 km
# MJD 61307.000000 (2026 Sep 24  0:00)
C45GF81 = CCUAFG2 = 1969-046 fragment
1 79851U 69046Z   26267.49919926  .00000000  00000-0  00000-0 0 30351
2 79851 017.5860 038.5196 8004956 271.7755 262.3228 00.46226432    01

# Worst residual: 13.80 km
# MJD 61308.000000 (2026 Sep 25  0:00)
C45GF81 = CCUAFG2 = 1969-046 fragment
1 79851U 69046Z   26268.49919926  .00000000  00000-0  00000-0 0 30352
2 79851 017.5873 038.4940 8004915 271.8328 068.6740 00.46209695    01

# Worst residual: 3.47 km
# MJD 61309.000000 (2026 Sep 26  0:00)
C45GF81 = CCUAFG2 = 1969-046 fragment
1 79851U 69046Z   26269.49919926  .00000000  00000-0  00000-0 0 30353
2 79851 017.5892 038.5213 8005637 271.8207 235.0871 00.46228613    00

# Worst residual: 10.17 km
# MJD 61310.000000 (2026 Sep 27  0:00)
C45GF81 = CCUAFG2 = 1969-046 fragment
1 79851U 69046Z   26270.49919926  .00000000  00000-0  00000-0 0 30355
2 79851 017.5928 038.5085 8004222 271.8574 041.4422 00.46231012    01

# Worst residual: 3.01 km
# MJD 61311.000000 (2026 Sep 28  0:00)
C45GF81 = CCUAFG2 = 1969-046 fragment
1 79851U 69046Z   26271.49919926  .00000000  00000-0  00000-0 0 30356
2 79851 017.5932 038.5002 8004502 271.8882 207.8394 00.46231570    03

# Worst residual: 7.47 km
# MJD 61312.000000 (2026 Sep 29  0:00)
C45GF81 = CCUAFG2 = 1969-046 fragment
1 79851U 69046Z   26272.49919926  .00000000  00000-0  00000-0 0 30357
2 79851 017.5996 038.4752 8000980 271.9317 014.1841 00.46249996    01

# Worst residual: 1.88 km
# MJD 61313.000000 (2026 Sep 30  0:00)
C45GF81 = CCUAFG2 = 1969-046 fragment
1 79851U 69046Z   26273.49919926  .00000000  00000-0  00000-0 0 30358
2 79851 017.6011 038.4749 8003648 271.9467 180.5769 00.46238930    09

# Worst residual: 4.63 km
# MJD 61314.000000 (2026 Oct  1  0:00)
C45GF81 = CCUAFG2 = 1969-046 fragment
1 79851U 69046Z   26274.49919926  .00000000  00000-0  00000-0 0 30359
2 79851 017.6070 038.4399 8000975 271.9927 346.9794 00.46234475    02

# Worst residual: 5.26 km
# MJD 61315.000000 (2026 Oct  2  0:00)
C45GF81 = CCUAFG2 = 1969-046 fragment
1 79851U 69046Z   26275.49919926  .00000000  00000-0  00000-0 0 30350
2 79851 017.6132 038.4805 8004810 271.9673 153.3093 00.46225844    05

# Worst residual: 9.85 km
# MJD 61316.000000 (2026 Oct  3  0:00)
C45GF81 = CCUAFG2 = 1969-046 fragment
1 79851U 69046Z   26276.49919926  .00000000  00000-0  00000-0 0 30351
2 79851 017.6142 038.5247 8007666 271.9462 319.7351 00.46225656    01

# Worst residual: 7.06 km
# MJD 61317.000000 (2026 Oct  4  0:00)
C45GF81 = CCUAFG2 = 1969-046 fragment
1 79851U 69046Z   26277.49919926  .00000000  00000-0  00000-0 0 30352
2 79851 017.6177 038.5327 8007792 271.9872 126.0433 00.46202732    03

# Worst residual: 8.94 km
# MJD 61318.000000 (2026 Oct  5  0:00)
C45GF81 = CCUAFG2 = 1969-046 fragment
1 79851U 69046Z   26278.49919926  .00000000  00000-0  00000-0 0 30353
2 79851 017.6180 038.6245 8011207 271.9498 292.2447 00.46218062    01

# Worst residual: 12.47 km
# MJD 61319.000000 (2026 Oct  6  0:00)
C45GF81 = CCUAFG2 = 1969-046 fragment
1 79851U 69046Z   26279.49919926  .00000000  00000-0  00000-0 0 30354
2 79851 017.6176 038.5883 8010083 272.0485 098.6038 00.46216766    05

# Worst residual: 10.25 km
# MJD 61320.000000 (2026 Oct  7  0:00)
C45GF81 = CCUAFG2 = 1969-046 fragment
1 79851U 69046Z   26280.49919926  .00000000  00000-0  00000-0 0 30356
2 79851 017.6207 038.5678 8006065 272.1031 264.8674 00.46210366    08

# Worst residual: 10.18 km
# MJD 61321.000000 (2026 Oct  8  0:00)
C45GF81 = CCUAFG2 = 1969-046 fragment
1 79851U 69046Z   26281.49919926  .00000000  00000-0  00000-0 0 30357
2 79851 017.6255 038.5232 8004901 272.1834 071.1869 00.46219985    06

# Worst residual: 6.71 km
# MJD 61322.000000 (2026 Oct  9  0:00)
C45GF81 = CCUAFG2 = 1969-046 fragment
1 79851U 69046Z   26282.49919926  .00000000  00000-0  00000-0 0 30358
2 79851 017.6277 038.5220 8003734 272.1932 237.6521 00.46232063    05

# Worst residual: 10.43 km
# MJD 61323.000000 (2026 Oct 10  0:00)
C45GF81 = CCUAFG2 = 1969-046 fragment
1 79851U 69046Z   26283.49919926  .00000000  00000-0  00000-0 0 30359
2 79851 017.6356 038.4805 8000643 272.2440 044.0023 00.46228695    05

# Worst residual: 2.67 km
# MJD 61324.000000 (2026 Oct 11  0:00)
C45GF81 = CCUAFG2 = 1969-046 fragment
1 79851U 69046Z   26284.49919926  .00000000  00000-0  00000-0 0 30350
2 79851 017.6377 038.5038 8003454 272.2322 210.4190 00.46238859    06

# Worst residual: 7.35 km
# MJD 61325.000000 (2026 Oct 12  0:00)
C45GF81 = CCUAFG2 = 1969-046 fragment
1 79851U 69046Z   26285.49919926  .00000000  00000-0  00000-0 0 30351
2 79851 017.6426 038.4891 8001098 272.2610 016.8137 00.46246729    03

# Worst residual: 1.28 km
# MJD 61326.000000 (2026 Oct 13  0:00)
C45GF81 = CCUAFG2 = 1969-046 fragment
1 79851U 69046Z   26286.49919926  .00000000  00000-0  00000-0 0 30352
2 79851 017.6434 038.4882 8004039 272.2822 183.1717 00.46232722    05

# Worst residual: 4.76 km
# MJD 61327.000000 (2026 Oct 14  0:00)
C45GF81 = CCUAFG2 = 1969-046 fragment
1 79851U 69046Z   26287.49919926  .00000000  00000-0  00000-0 0 30353
2 79851 017.6466 038.4820 8003004 272.3104 349.5619 00.46237740    01

# Worst residual: 1.32 km
# MJD 61328.000000 (2026 Oct 15  0:00)
C45GF81 = CCUAFG2 = 1969-046 fragment
1 79851U 69046Z   26288.49919926  .00000000  00000-0  00000-0 0 30354
2 79851 017.6459 038.4592 8004385 272.3545 155.9314 00.46229801    01

# Worst residual: 7.45 km
# MJD 61329.000000 (2026 Oct 16  0:00)
C45GF81 = CCUAFG2 = 1969-046 fragment
1 79851U 69046Z   26289.49919926  .00000000  00000-0  00000-0 0 30355
2 79851 017.6489 038.4427 8003427 272.3847 322.3343 00.46218280    03

# Worst residual: 2.61 km
# MJD 61330.000000 (2026 Oct 17  0:00)
C45GF81 = CCUAFG2 = 1969-046 fragment
1 79851U 69046Z   26290.49919926  .00000000  00000-0  00000-0 0 30357
2 79851 017.6484 038.4117 8003539 272.4409 128.7066 00.46227612    02

# Worst residual: 9.17 km
# MJD 61331.000000 (2026 Oct 18  0:00)
C45GF81 = CCUAFG2 = 1969-046 fragment
1 79851U 69046Z   26291.49919926  .00000000  00000-0  00000-0 0 30358
2 79851 017.6507 038.3993 8002619 272.4592 295.1393 00.46214062    07

# Worst residual: 8.30 km
# MJD 61332.000000 (2026 Oct 19  0:00)
C45GF81 = CCUAFG2 = 1969-046 fragment
1 79851U 69046Z   26292.49919926  .00000000  00000-0  00000-0 0 30359
2 79851 017.6514 038.3638 8002253 272.5276 101.4879 00.46217547    04

# Worst residual: 6.02 km
# MJD 61333.000000 (2026 Oct 20  0:00)
C45GF81 = CCUAFG2 = 1969-046 fragment
1 79851U 69046Z   26293.49919926  .00000000  00000-0  00000-0 0 30350
2 79851 017.6532 038.3794 8002784 272.5177 267.9277 00.46223626    01

# Worst residual: 10.58 km
# MJD 61334.000000 (2026 Oct 21  0:00)
C45GF81 = CCUAFG2 = 1969-046 fragment
1 79851U 69046Z   26294.49919926  .00000000  00000-0  00000-0 0 30351
2 79851 017.6540 038.3491 8003037 272.5806 074.2790 00.46209405    03

# Worst residual: 2.10 km
# MJD 61335.000000 (2026 Oct 22  0:00)
C45GF81 = CCUAFG2 = 1969-046 fragment
1 79851U 69046Z   26295.49919926  .00000000  00000-0  00000-0 0 30352
2 79851 017.6561 038.3830 8004421 272.5571 240.7030 00.46229267    05

# Worst residual: 9.07 km
# MJD 61336.000000 (2026 Oct 23  0:00)
C45GF81 = CCUAFG2 = 1969-046 fragment
1 79851U 69046Z   26296.49919926  .00000000  00000-0  00000-0 0 30353
2 79851 017.6581 038.3725 8003854 272.5940 047.0688 00.46223078    00

# Worst residual: 2.83 km
# MJD 61337.000000 (2026 Oct 24  0:00)
C45GF81 = CCUAFG2 = 1969-046 fragment
1 79851U 69046Z   26297.49919926  .00000000  00000-0  00000-0 0 30354
2 79851 017.6590 038.3805 8004565 272.6073 213.4594 00.46229727    09

# Worst residual: 8.36 km
# MJD 61338.000000 (2026 Oct 25  0:00)
C45GF81 = CCUAFG2 = 1969-046 fragment
1 79851U 69046Z   26298.49919926  .00000000  00000-0  00000-0 0 30355
2 79851 017.6632 038.3673 8001726 272.6432 019.8068 00.46250827    03

# Worst residual: 1.77 km
# MJD 61339.000000 (2026 Oct 26  0:00)
C45GF81 = CCUAFG2 = 1969-046 fragment
1 79851U 69046Z   26299.49919926  .00000000  00000-0  00000-0 0 30356
2 79851 017.6637 038.3571 8003477 272.6749 186.1968 00.46236864    03

# Worst residual: 9.87 km
# MJD 61340.000000 (2026 Oct 27  0:00)
C45GF81 = CCUAFG2 = 1969-046 fragment
1 79851U 69046Z   26300.49919926  .00000000  00000-0  00000-0 0 30359
2 79851 017.6699 038.3190 7999287 272.7292 352.5519 00.46249475    07

# Worst residual: 2.50 km
# MJD 61341.000000 (2026 Oct 28  0:00)
C45GF81 = CCUAFG2 = 1969-046 fragment
1 79851U 69046Z   26301.49919926  .00000000  00000-0  00000-0 0 30350
2 79851 017.6739 038.3382 8003572 272.7178 158.9236 00.46239321    05

# Worst residual: 6.47 km
# MJD 61342.000000 (2026 Oct 29  0:00)
C45GF81 = CCUAFG2 = 1969-046 fragment
1 79851U 69046Z   26302.49919926  .00000000  00000-0  00000-0 0 30351
2 79851 017.6779 038.3261 8002705 272.7411 325.3663 00.46230581    05

# Worst residual: 10.36 km
# MJD 61343.000000 (2026 Oct 30  0:00)
C45GF81 = CCUAFG2 = 1969-046 fragment
1 79851U 69046Z   26303.49919926  .00000000  00000-0  00000-0 0 30352
2 79851 017.6839 038.3539 8005576 272.7403 131.6679 00.46213338    06

# Worst residual: 10.27 km
# MJD 61344.000000 (2026 Oct 31  0:00)
C45GF81 = CCUAFG2 = 1969-046 fragment
1 79851U 69046Z   26304.49919926  .00000000  00000-0  00000-0 0 30353
2 79851 017.6834 038.4505 8010724 272.6837 297.9991 00.46227119    01

# Worst residual: 3.16 km
# MJD 61345.000000 (2026 Nov  1  0:00)
C45GF81 = CCUAFG2 = 1969-046 fragment
1 79851U 69046Z   26305.49919926  .00000000  00000-0  00000-0 0 30354
2 79851 017.6843 038.4263 8010254 272.7654 104.3502 00.46211693    07

# Worst residual: 4.68 km
# MJD 61346.000000 (2026 Nov  2  0:00)
C45GF81 = CCUAFG2 = 1969-046 fragment
1 79851U 69046Z   26306.49919926  .00000000  00000-0  00000-0 0 30355
2 79851 017.6862 038.4599 8009372 272.7861 270.5031 00.46208406    00

# Worst residual: 9.87 km
# MJD 61347.000000 (2026 Nov  3  0:00)
C45GF81 = CCUAFG2 = 1969-046 fragment
1 79851U 69046Z   26307.49919926  .00000000  00000-0  00000-0 0 30356
2 79851 017.6870 038.4262 8009585 272.8722 076.8474 00.46224826    01

# Worst residual: 8.69 km
# MJD 61348.000000 (2026 Nov  4  0:00)
C45GF81 = CCUAFG2 = 1969-046 fragment
1 79851U 69046Z   26308.49919926  .00000000  00000-0  00000-0 0 30357
2 79851 017.6897 038.3900 8005656 272.9321 243.2268 00.46219326    09

# Worst residual: 6.79 km
# MJD 61349.000000 (2026 Nov  5  0:00)
C45GF81 = CCUAFG2 = 1969-046 fragment
1 79851U 69046Z   26309.49919926  .00000000  00000-0  00000-0 0 30358
2 79851 017.6972 038.3466 8003169 272.9957 049.5492 00.46224558    01

# Worst residual: 1.42 km
# MJD 61350.000000 (2026 Nov  6  0:00)
C45GF81 = CCUAFG2 = 1969-046 fragment
1 79851U 69046Z   26310.49919926  .00000000  00000-0  00000-0 0 30350
2 79851 017.6989 038.3596 8004536 272.9916 215.9960 00.46238444    05

# Worst residual: 8.50 km
# MJD 61351.000000 (2026 Nov  7  0:00)
C45GF81 = CCUAFG2 = 1969-046 fragment
1 79851U 69046Z   26311.49919926  .00000000  00000-0  00000-0 0 30351
2 79851 017.7053 038.3285 8001216 273.0319 022.3780 00.46244645    04

# Worst residual: 2.51 km
# MJD 61352.000000 (2026 Nov  8  0:00)
C45GF81 = CCUAFG2 = 1969-046 fragment
1 79851U 69046Z   26312.49919926  .00000000  00000-0  00000-0 0 30352
2 79851 017.7070 038.3436 8004884 273.0337 188.7454 00.46236609    01

# Worst residual: 7.08 km
# MJD 61353.000000 (2026 Nov  9  0:00)
C45GF81 = CCUAFG2 = 1969-046 fragment
1 79851U 69046Z   26313.49919926  .00000000  00000-0  00000-0 0 30353
2 79851 017.7104 038.3369 8003288 273.0606 355.1425 00.46246521    02

# Worst residual: 2.54 km
# MJD 61354.000000 (2026 Nov 10  0:00)
C45GF81 = CCUAFG2 = 1969-046 fragment
1 79851U 69046Z   26314.49919926  .00000000  00000-0  00000-0 0 30354
2 79851 017.7107 038.3254 8005944 273.0926 161.4953 00.46231253    04

# Worst residual: 6.78 km
# MJD 61355.000000 (2026 Nov 11  0:00)
C45GF81 = CCUAFG2 = 1969-046 fragment
1 79851U 69046Z   26315.49919926  .00000000  00000-0  00000-0 0 30355
2 79851 017.7138 038.3146 8005247 273.1228 327.8909 00.46226957    04

# Worst residual: 3.38 km
# MJD 61356.000000 (2026 Nov 12  0:00)
C45GF81 = CCUAFG2 = 1969-046 fragment
1 79851U 69046Z   26316.49919926  .00000000  00000-0  00000-0 0 30356
2 79851 017.7129 038.2882 8006184 273.1726 134.2586 00.46230149    03

# Worst residual: 8.97 km
# MJD 61357.000000 (2026 Nov 13  0:00)
C45GF81 = CCUAFG2 = 1969-046 fragment
1 79851U 69046Z   26317.49919926  .00000000  00000-0  00000-0 0 30357
2 79851 017.7156 038.2691 8004973 273.2015 300.6742 00.46213276    02

# Worst residual: 4.54 km
# MJD 61358.000000 (2026 Nov 14  0:00)
C45GF81 = CCUAFG2 = 1969-046 fragment
1 79851U 69046Z   26318.49919926  .00000000  00000-0  00000-0 0 30358
2 79851 017.7159 038.2351 8005083 273.2657 107.0327 00.46225613    09

# Worst residual: 9.63 km
# MJD 61359.000000 (2026 Nov 15  0:00)
C45GF81 = CCUAFG2 = 1969-046 fragment
1 79851U 69046Z   26319.49919926  .00000000  00000-0  00000-0 0 30359
2 79851 017.7178 038.2278 8004245 273.2794 273.4645 00.46217271    01

# Worst residual: 9.01 km
# MJD 61360.000000 (2026 Nov 16  0:00)
C45GF81 = CCUAFG2 = 1969-046 fragment
1 79851U 69046Z   26320.49919926  .00000000  00000-0  00000-0 0 30351
2 79851 017.7185 038.1920 8004691 273.3485 079.8144 00.46214014    09

# Worst residual: 3.57 km
# MJD 61361.000000 (2026 Nov 17  0:00)
C45GF81 = CCUAFG2 = 1969-046 fragment
1 79851U 69046Z   26321.49919926  .00000000  00000-0  00000-0 0 30352
2 79851 017.7205 038.2142 8005678 273.3345 246.2446 00.46226727    09

# Worst residual: 10.65 km
# MJD 61362.000000 (2026 Nov 18  0:00)
C45GF81 = CCUAFG2 = 1969-046 fragment
1 79851U 69046Z   26322.49919926  .00000000  00000-0  00000-0 0 30353
2 79851 017.7221 038.2001 8006068 273.3765 052.6140 00.46214021    05

# Worst residual: 2.01 km
# MJD 61363.000000 (2026 Nov 19  0:00)
C45GF81 = CCUAFG2 = 1969-046 fragment
1 79851U 69046Z   26323.49919926  .00000000  00000-0  00000-0 0 30354
2 79851 017.7231 038.2170 8007151 273.3761 219.0097 00.46227942    09

# Worst residual: 6.05 km
# MJD 61364.000000 (2026 Nov 20  0:00)
C45GF81 = CCUAFG2 = 1969-046 fragment
1 79851U 69046Z   26324.49919926  .00000000  00000-0  00000-0 0 30355
2 79851 017.7252 038.2146 8006162 273.4050 025.3777 00.46238000    08

# Worst residual: 1.76 km
# MJD 61365.000000 (2026 Nov 21  0:00)
C45GF81 = CCUAFG2 = 1969-046 fragment
1 79851U 69046Z   26325.49919926  .00000000  00000-0  00000-0 0 30356
2 79851 017.7254 038.2059 8007059 273.4404 191.7484 00.46229691    01

# Worst residual: 8.38 km
# MJD 61366.000000 (2026 Nov 22  0:00)
C45GF81 = CCUAFG2 = 1969-046 fragment
1 79851U 69046Z   26326.49919926  .00000000  00000-0  00000-0 0 30357
2 79851 017.7304 038.1818 8003769 273.4896 358.0823 00.46253078    09

# Worst residual: 1.71 km
# MJD 61367.000000 (2026 Nov 23  0:00)
C45GF81 = CCUAFG2 = 1969-046 fragment
1 79851U 69046Z   26327.49919926  .00000000  00000-0  00000-0 0 30358
2 79851 017.7311 038.1750 8006251 273.5129 164.4718 00.46239557    09

# Worst residual: 11.85 km
# MJD 61368.000000 (2026 Nov 24  0:00)
C45GF81 = CCUAFG2 = 1969-046 fragment
1 79851U 69046Z   26328.49919926  .00000000  00000-0  00000-0 0 30359
2 79851 017.7368 038.1322 8002684 273.5672 330.8618 00.46233593    07

# Worst residual: 7.54 km
# MJD 61369.000000 (2026 Nov 25  0:00)
C45GF81 = CCUAFG2 = 1969-046 fragment
1 79851U 69046Z   26329.49919926  .00000000  00000-0  00000-0 0 30350
2 79851 017.7432 038.1552 8006630 273.5533 137.2038 00.46231451    01

# Worst residual: 8.79 km
# MJD 61370.000000 (2026 Nov 26  0:00)
C45GF81 = CCUAFG2 = 1969-046 fragment
1 79851U 69046Z   26330.49919926  .00000000  00000-0  00000-0 0 30352
2 79851 017.7446 038.1906 8008808 273.5338 303.6537 00.46226703    08

# Worst residual: 11.90 km
# MJD 61371.000000 (2026 Nov 27  0:00)
C45GF81 = CCUAFG2 = 1969-046 fragment
1 79851U 69046Z   26331.49919926  .00000000  00000-0  00000-0 0 30353
2 79851 017.7498 038.1903 8010087 273.5777 109.9648 00.46205764    05

# Worst residual: 10.39 km
# MJD 61372.000000 (2026 Nov 28  0:00)
C45GF81 = CCUAFG2 = 1969-046 fragment
1 79851U 69046Z   26332.49919926  .00000000  00000-0  00000-0 0 30354
2 79851 017.7504 038.2984 8014593 273.5222 276.1494 00.46214717    08

# Worst residual: 8.71 km
# MJD 61373.000000 (2026 Nov 29  0:00)
C45GF81 = CCUAFG2 = 1969-046 fragment
1 79851U 69046Z   26333.49919926  .00000000  00000-0  00000-0 0 30355
2 79851 017.7494 038.2663 8015773 273.6215 082.5144 00.46222967    01

# Worst residual: 9.06 km
# MJD 61374.000000 (2026 Nov 30  0:00)
C45GF81 = CCUAFG2 = 1969-046 fragment
1 79851U 69046Z   26334.49919926  .00000000  00000-0  00000-0 0 30356
2 79851 017.7520 038.2356 8011014 273.7018 248.7260 00.46202836    04

# Worst residual: 9.06 km
# MJD 61375.000000 (2026 Dec  1  0:00)
C45GF81 = CCUAFG2 = 1969-046 fragment
1 79851U 69046Z   26335.49919926  .00000000  00000-0  00000-0 0 30357
2 79851 017.7570 038.1929 8010511 273.7857 055.0358 00.46223027    08

# Worst residual: 4.85 km
# MJD 61376.000000 (2026 Dec  2  0:00)
C45GF81 = CCUAFG2 = 1969-046 fragment
1 79851U 69046Z   26336.49919926  .00000000  00000-0  00000-0 0 30358
2 79851 017.7587 038.1690 8008490 273.8246 221.4770 00.46228609    05

# Worst residual: 5.20 km
# MJD 61377.000000 (2026 Dec  3  0:00)
C45GF81 = CCUAFG2 = 1969-046 fragment
1 79851U 69046Z   26337.49919926  .00000000  00000-0  00000-0 0 30359
2 79851 017.7669 038.1217 8005361 273.8834 027.8259 00.46231005    02

# Worst residual: 2.90 km
# MJD 61378.000000 (2026 Dec  4  0:00)
C45GF81 = CCUAFG2 = 1969-046 fragment
1 79851U 69046Z   26338.49919926  .00000000  00000-0  00000-0 0 30350
2 79851 017.7686 038.1376 8007953 273.8803 194.2271 00.46237145    06

# Worst residual: 6.15 km
# MJD 61379.000000 (2026 Dec  5  0:00)
C45GF81 = CCUAFG2 = 1969-046 fragment
1 79851U 69046Z   26339.49919926  .00000000  00000-0  00000-0 0 30351
2 79851 017.7731 038.1228 8005924 273.9115 000.6253 00.46246001    07

# Worst residual: 2.58 km
# MJD 61380.000000 (2026 Dec  6  0:00)
C45GF81 = CCUAFG2 = 1969-046 fragment
1 79851U 69046Z   26340.49919926  .00000000  00000-0  00000-0 0 30353
2 79851 017.7745 038.1232 8008993 273.9310 166.9731 00.46231205    00

# Worst residual: 9.11 km
# MJD 61381.000000 (2026 Dec  7  0:00)
C45GF81 = CCUAFG2 = 1969-046 fragment
1 79851U 69046Z   26341.49919926  .00000000  00000-0  00000-0 0 30354
2 79851 017.7773 038.1213 8008696 273.9554 333.3685 00.46232519    07

# Worst residual: 4.52 km
# MJD 61382.000000 (2026 Dec  8  0:00)
C45GF81 = CCUAFG2 = 1969-046 fragment
1 79851U 69046Z   26342.49919926  .00000000  00000-0  00000-0 0 30355
2 79851 017.7774 038.1003 8010123 274.0008 139.7250 00.46228951    00

# Worst residual: 9.93 km
# MJD 61383.000000 (2026 Dec  9  0:00)
C45GF81 = CCUAFG2 = 1969-046 fragment
1 79851U 69046Z   26343.49919926  .00000000  00000-0  00000-0 0 30356
2 79851 017.7795 038.0907 8009423 274.0248 306.1266 00.46213359    05

# Worst residual: 2.89 km
# MJD 61384.000000 (2026 Dec 10  0:00)
C45GF81 = CCUAFG2 = 1969-046 fragment
1 79851U 69046Z   26344.49919926  .00000000  00000-0  00000-0 0 30357
2 79851 017.7804 038.0549 8009668 274.0923 112.4857 00.46228236    03

# Worst residual: 11.17 km
# MJD 61385.000000 (2026 Dec 11  0:00)
C45GF81 = CCUAFG2 = 1969-046 fragment
1 79851U 69046Z   26345.49919926  .00000000  00000-0  00000-0 0 30358
2 79851 017.7829 038.0336 8007980 274.1212 278.9029 00.46209626    02

# Worst residual: 9.20 km
# MJD 61386.000000 (2026 Dec 12  0:00)
C45GF81 = CCUAFG2 = 1969-046 fragment
1 79851U 69046Z   26346.49919926  .00000000  00000-0  00000-0 0 30359
2 79851 017.7839 037.9947 8008541 274.1979 085.2461 00.46218475    04

# Worst residual: 8.98 km
# MJD 61387.000000 (2026 Dec 13  0:00)
C45GF81 = CCUAFG2 = 1969-046 fragment
1 79851U 69046Z   26347.49919926  .00000000  00000-0  00000-0 0 30350
2 79851 017.7858 037.9948 8008035 274.2052 251.6736 00.46219936    04

# Worst residual: 12.66 km
# MJD 61388.000000 (2026 Dec 14  0:00)
C45GF81 = CCUAFG2 = 1969-046 fragment
1 79851U 69046Z   26348.49919926  .00000000  00000-0  00000-0 0 30351
2 79851 017.7879 037.9713 8009008 274.2616 058.0324 00.46206834    09

# Worst residual: 1.80 km
# MJD 61389.000000 (2026 Dec 15  0:00)
C45GF81 = CCUAFG2 = 1969-046 fragment
1 79851U 69046Z   26349.49919926  .00000000  00000-0  00000-0 0 30352
2 79851 017.7888 037.9819 8009609 274.2600 224.4508 00.46225373    08

# Worst residual: 12.61 km
# MJD 61390.000000 (2026 Dec 16  0:00)
C45GF81 = CCUAFG2 = 1969-046 fragment
1 79851U 69046Z   26350.49919926  .00000000  00000-0  00000-0 0 30354
2 79851 017.7905 037.9781 8010292 274.2912 030.8285 00.46216241    07

# Worst residual: 1.83 km
# MJD 61391.000000 (2026 Dec 17  0:00)
C45GF81 = CCUAFG2 = 1969-046 fragment
1 79851U 69046Z   26351.49919926  .00000000  00000-0  00000-0 0 30355
2 79851 017.7909 037.9769 8010600 274.3147 197.2057 00.46224508    01

# Worst residual: 3.32 km
# MJD 61392.000000 (2026 Dec 18  0:00)
C45GF81 = CCUAFG2 = 1969-046 fragment
1 79851U 69046Z   26352.49919926  .00000000  00000-0  00000-0 0 30356
2 79851 017.7935 037.9756 8009684 274.3458 003.5556 00.46240648    07

# Worst residual: 2.22 km
# MJD 61393.000000 (2026 Dec 19  0:00)
C45GF81 = CCUAFG2 = 1969-046 fragment
1 79851U 69046Z   26353.49919926  .00000000  00000-0  00000-0 0 30357
2 79851 017.7932 037.9545 8010248 274.3950 169.9298 00.46229329    08

# Worst residual: 10.22 km
# MJD 61394.000000 (2026 Dec 20  0:00)
C45GF81 = CCUAFG2 = 1969-046 fragment
1 79851U 69046Z   26354.49919926  .00000000  00000-0  00000-0 0 30358
2 79851 017.7988 037.9213 8007300 274.4508 336.2631 00.46235264    01

# Worst residual: 2.63 km
# MJD 61395.000000 (2026 Dec 21  0:00)
C45GF81 = CCUAFG2 = 1969-046 fragment
1 79851U 69046Z   26355.49919926  .00000000  00000-0  00000-0 0 30359
2 79851 017.8011 037.9125 8009264 274.4744 142.6493 00.46238853    06

# Worst residual: 7.39 km
# MJD 61396.000000 (2026 Dec 22  0:00)
C45GF81 = CCUAFG2 = 1969-046 fragment
1 79851U 69046Z   26356.49919926  .00000000  00000-0  00000-0 0 30350
2 79851 017.8061 037.8749 8006719 274.5176 309.0831 00.46218339    06

# Worst residual: 10.85 km
# MJD 61397.000000 (2026 Dec 23  0:00)
C45GF81 = CCUAFG2 = 1969-046 fragment
1 79851U 69046Z   26357.49919926  .00000000  00000-0  00000-0 0 30351
2 79851 017.8142 037.8878 8009324 274.5231 115.4057 00.46220961    09

# Worst residual: 15.85 km
# MJD 61398.000000 (2026 Dec 24  0:00)
C45GF81 = CCUAFG2 = 1969-046 fragment
1 79851U 69046Z   26358.49919926  .00000000  00000-0  00000-0 0 30352
2 79851 017.8145 037.9777 8013697 274.4553 281.8010 00.46222231    04

# Worst residual: 5.63 km
# MJD 61399.000000 (2026 Dec 25  0:00)
C45GF81 = CCUAFG2 = 1969-046 fragment
1 79851U 69046Z   26359.49919926  .00000000  00000-0  00000-0 0 30353
2 79851 017.8171 037.9562 8014860 274.5401 088.1374 00.46204261    05

# Worst residual: 3.85 km
# MJD 61400.000000 (2026 Dec 26  0:00)
C45GF81 = CCUAFG2 = 1969-046 fragment
1 79851U 69046Z   26360.49919926  .00000000  00000-0  00000-0 0 30355
2 79851 017.8194 038.0280 8016612 274.5302 254.2209 00.46200329    00

# Worst residual: 14.68 km
# MJD 61401.000000 (2026 Dec 27  0:00)
C45GF81 = CCUAFG2 = 1969-046 fragment
1 79851U 69046Z   26361.49919926  .00000000  00000-0  00000-0 0 30356
2 79851 017.8202 038.0031 8018908 274.6215 060.5621 00.46226033    04

# Worst residual: 10.10 km
# MJD 61402.000000 (2026 Dec 28  0:00)
C45GF81 = CCUAFG2 = 1969-046 fragment
1 79851U 69046Z   26362.49919926  .00000000  00000-0  00000-0 0 30357
2 79851 017.8216 037.9342 8012601 274.7326 226.8815 00.46206212    09

# Worst residual: 12.55 km
# MJD 61403.000000 (2026 Dec 29  0:00)
C45GF81 = CCUAFG2 = 1969-046 fragment
1 79851U 69046Z   26363.49919926  .00000000  00000-0  00000-0 0 30358
2 79851 017.8315 037.8746 8010809 274.8206 033.1662 00.46215475    02

# Worst residual: 2.17 km
# MJD 61404.000000 (2026 Dec 30  0:00)
C45GF81 = CCUAFG2 = 1969-046 fragment
1 79851U 69046Z   26364.49919926  .00000000  00000-0  00000-0 0 30359
2 79851 017.8320 037.8610 8010154 274.8457 199.6179 00.46233141    00

# Worst residual: 4.14 km
# MJD 61405.000000 (2026 Dec 31  0:00)
C45GF81 = CCUAFG2 = 1969-046 fragment
1 79851U 69046Z   26365.49919926  .00000000  00000-0  00000-0 0 30350
2 79851 017.8397 037.8200 8007546 274.8970 005.9937 00.46230171    01
Avg worst resid: 7.52 km
Worst residual in entire run: 21.86 km on MJD 61072.0
       1     3     10    30    100   300   1K    3K    10K   km
     1    53   237   105     0     0     0     0     0     0
